{
"type": "FeatureCollection",
"name": "geo_22_介護老人保健施設",
"crs": { "type": "name", "properties": { "name": "urn:ogc:def:crs:OGC:1.3:CRS84" } },
"features": [
{ "type": "Feature", "properties": { "内容": "ケアセンター瀬名【介護老人保健施設】静岡市葵区長尾３９番地の5", "url": "https://www.kaigokensaku.mhlw.go.jp/22/index.php?action_kouhyou_detail_004_kani=true&JigyosyoCd=2254180017-00&ServiceCd=520&Type=search", "url2": "http://kojinkai-iryou.com/caresena/" }, "geometry": { "type": "Point", "coordinates": [ 138.428126900000052, 35.0365392 ] } },
{ "type": "Feature", "properties": { "内容": "介護老人保健施設　楽寿【介護老人保健施設】静岡市葵区与左衛門新田98-11", "url": "https://www.kaigokensaku.mhlw.go.jp/22/index.php?action_kouhyou_detail_004_kani=true&JigyosyoCd=2254180033-00&ServiceCd=520&Type=search", "url2": "http://www.rakuju.or.jp" }, "geometry": { "type": "Point", "coordinates": [ 138.358210900000017, 35.0144962 ] } },
{ "type": "Feature", "properties": { "内容": "介護老人保健施設こみに【介護老人保健施設】静岡市葵区赤松８－１６", "url": "https://www.kaigokensaku.mhlw.go.jp/22/index.php?action_kouhyou_detail_004_kani=true&JigyosyoCd=2254180041-00&ServiceCd=520&Type=search", "url2": "https://www.communi.or.jp" }, "geometry": { "type": "Point", "coordinates": [ 138.3964019, 35.0248563 ] } },
{ "type": "Feature", "properties": { "内容": "介護老人保健施設　あみ【介護老人保健施設】静岡市葵区福田ケ谷７３－２", "url": "https://www.kaigokensaku.mhlw.go.jp/22/index.php?action_kouhyou_detail_004_kani=true&JigyosyoCd=2254180074-00&ServiceCd=520&Type=search", "url2": "http//www.shouei-kai.com" }, "geometry": { "type": "Point", "coordinates": [ 138.379736800000046, 35.026219800000035 ] } },
{ "type": "Feature", "properties": { "内容": "エスコートタウン静清【介護老人保健施設】静岡市葵区柚木９０番地の１", "url": "https://www.kaigokensaku.mhlw.go.jp/22/index.php?action_kouhyou_detail_004_kani=true&JigyosyoCd=2254280114-00&ServiceCd=520&Type=search", "url2": "https://www.r-and-o.jp/escort-town/" }, "geometry": { "type": "Point", "coordinates": [ 138.405662900000038, 34.9801314 ] } },
{ "type": "Feature", "properties": { "内容": "エスコートタウン静清【介護老人保健施設】柚木９０番地の１", "url": "https://www.kaigokensaku.mhlw.go.jp/22/index.php?action_kouhyou_detail_004_kani=true&JigyosyoCd=2254280130-00&ServiceCd=520&Type=search", "url2": "https://www.r-and-o.jp/escort-town/" }, "geometry": { "type": "Point", "coordinates": [ 138.405662900000038, 34.9801314 ] } },
{ "type": "Feature", "properties": { "内容": "介護老人保健施設　星のしずく【介護老人保健施設】静岡県静岡市葵区城北87番地", "url": "https://www.kaigokensaku.mhlw.go.jp/22/index.php?action_kouhyou_detail_004_kani=true&JigyosyoCd=2254280148-00&ServiceCd=520&Type=search", "url2": "http://www.hoshino-shizuku.jp" }, "geometry": { "type": "Point", "coordinates": [ 138.393985499999985, 35.0015868 ] } },
{ "type": "Feature", "properties": { "内容": "介護老人保健施設　リハビリパーク駿府【介護老人保健施設】静岡県静岡市葵区籠上８番６号", "url": "https://www.kaigokensaku.mhlw.go.jp/22/index.php?action_kouhyou_detail_004_kani=true&JigyosyoCd=2254280163-00&ServiceCd=520&Type=search", "url2": "http://www.rehabili-park.com/sisetu/sunpu/index.html" }, "geometry": { "type": "Point", "coordinates": [ 138.3683466, 34.9894909 ] } },
{ "type": "Feature", "properties": { "内容": "介護老人保健施設　静岡徳洲苑【介護老人保健施設】牧ケ谷811－15", "url": "https://www.kaigokensaku.mhlw.go.jp/22/index.php?action_kouhyou_detail_004_kani=true&JigyosyoCd=2254280213-00&ServiceCd=520&Type=search", "url2": "https://tokushuen.com/" }, "geometry": { "type": "Point", "coordinates": [ 138.352996, 34.970716300000014 ] } },
{ "type": "Feature", "properties": { "内容": "サテライト介護老人保健施設かるむ【介護老人保健施設】静岡県静岡市葵区上伝馬23-6", "url": "https://www.kaigokensaku.mhlw.go.jp/22/index.php?action_kouhyou_detail_004_kani=true&JigyosyoCd=2254280221-00&ServiceCd=520&Type=search", "url2": "https://www.shouei-kai.com" }, "geometry": { "type": "Point", "coordinates": [ 138.372656918385303, 35.010080226630542 ] } },
{ "type": "Feature", "properties": { "内容": "サテライト型小規模介護老人保健施設　リハビリパーク駿府別館【介護老人保健施設】静岡市葵区平和1丁目130-1", "url": "https://www.kaigokensaku.mhlw.go.jp/22/index.php?action_kouhyou_detail_004_kani=true&JigyosyoCd=2254280239-00&ServiceCd=520&Type=search", "url2": "http://www.rehabili-park.com/sisetu/sunpu.html" }, "geometry": { "type": "Point", "coordinates": [ 138.36671702304659, 34.987220938098432 ] } },
{ "type": "Feature", "properties": { "内容": "介護老人保健施設こみに【介護老人保健施設】静岡県静岡市葵区赤松8番地の16", "url": "https://www.kaigokensaku.mhlw.go.jp/22/index.php?action_kouhyou_detail_004_kani=true&JigyosyoCd=2254280247-00&ServiceCd=520&Type=search", "url2": "https://www.communi.or.jp/" }, "geometry": { "type": "Point", "coordinates": [ 138.3962953, 35.0248663 ] } },
{ "type": "Feature", "properties": { "内容": "介護老人保健施設萩の里【介護老人保健施設】静岡市駿河区西大谷12-5", "url": "https://www.kaigokensaku.mhlw.go.jp/22/index.php?action_kouhyou_detail_004_kani=true&JigyosyoCd=2254180058-00&ServiceCd=520&Type=search", "url2": "https://www.shujikai.jp/" }, "geometry": { "type": "Point", "coordinates": [ 138.42699790000006, 34.9523736 ] } },
{ "type": "Feature", "properties": { "内容": "介護老人保健施設かりん【介護老人保健施設】静岡県静岡市駿河区宇津ノ谷1-1", "url": "https://www.kaigokensaku.mhlw.go.jp/22/index.php?action_kouhyou_detail_004_kani=true&JigyosyoCd=2254280108-00&ServiceCd=520&Type=search", "url2": "http://seiyukai6666.com/" }, "geometry": { "type": "Point", "coordinates": [ 138.313756099999978, 34.9391957 ] } },
{ "type": "Feature", "properties": { "内容": "介護老人保健施設サンライズ大浜【介護老人保健施設】静岡県静岡市駿河区西島５２８番地", "url": "https://www.kaigokensaku.mhlw.go.jp/22/index.php?action_kouhyou_detail_004_kani=true&JigyosyoCd=2254180025-00&ServiceCd=520&Type=search", "url2": "http://care-net.biz/22/sunriseohhama/" }, "geometry": { "type": "Point", "coordinates": [ 138.4027893, 34.9434993 ] } },
{ "type": "Feature", "properties": { "内容": "介護老人保健施設　葵の里【介護老人保健施設】静岡市駿河区小坂３７６－１", "url": "https://www.kaigokensaku.mhlw.go.jp/22/index.php?action_kouhyou_detail_004_kani=true&JigyosyoCd=2254180066-00&ServiceCd=520&Type=search", "url2": "http://seijukai-gp.jp" }, "geometry": { "type": "Point", "coordinates": [ 138.352299600000038, 34.9289617 ] } },
{ "type": "Feature", "properties": { "内容": "ケアセンター池田の街【介護老人保健施設】静岡市駿河区池田185番地1", "url": "https://www.kaigokensaku.mhlw.go.jp/22/index.php?action_kouhyou_detail_004_kani=true&JigyosyoCd=2254280090-00&ServiceCd=520&Type=search", "url2": "http://www.houtoku-kai.or.jp/" }, "geometry": { "type": "Point", "coordinates": [ 138.4218919, 34.9852507 ] } },
{ "type": "Feature", "properties": { "内容": "介護老人保健施設プルメリア【介護老人保健施設】静岡県静岡市駿河区下島３６５番1", "url": "https://www.kaigokensaku.mhlw.go.jp/22/index.php?action_kouhyou_detail_004_kani=true&JigyosyoCd=2254280205-00&ServiceCd=520&Type=search", "url2": "http://www.yamanoue-hospital.jp/affiliated/plumeria/index.html" }, "geometry": { "type": "Point", "coordinates": [ 138.40764288028717, 34.945809538568554 ] } },
{ "type": "Feature", "properties": { "内容": "介護老人保健施設　サテライト葵【介護老人保健施設】静岡県静岡市清水区押切９９７－５", "url": "https://www.kaigokensaku.mhlw.go.jp/22/index.php?action_kouhyou_detail_004_kani=true&JigyosyoCd=2254280197-00&ServiceCd=520&Type=search", "url2": "http://seijukai-gp.jp/" }, "geometry": { "type": "Point", "coordinates": [ 138.452102500000024, 35.034929 ] } },
{ "type": "Feature", "properties": { "内容": "介護老人保健施設　あかつきの園【介護老人保健施設】静岡市清水区駒越2883-1", "url": "https://www.kaigokensaku.mhlw.go.jp/22/index.php?action_kouhyou_detail_004_kani=true&JigyosyoCd=2253280016-00&ServiceCd=520&Type=search", "url2": "http://www.seijin-kai.or.jp/akatsuki/" }, "geometry": { "type": "Point", "coordinates": [ 138.4776157, 34.9746306 ] } },
{ "type": "Feature", "properties": { "内容": "介護老人保健施設　ケア・センター　ひまわり【介護老人保健施設】静岡市清水区村松原1-2-34", "url": "https://www.kaigokensaku.mhlw.go.jp/22/index.php?action_kouhyou_detail_004_kani=true&JigyosyoCd=2253280024-00&ServiceCd=520&Type=search", "url2": "http://www.seishukai-h.com" }, "geometry": { "type": "Point", "coordinates": [ 138.489491899999962, 34.9997064 ] } },
{ "type": "Feature", "properties": { "内容": "介護老人保健施設　アリス草薙【介護老人保健施設】静岡市清水区草薙424-7", "url": "https://www.kaigokensaku.mhlw.go.jp/22/index.php?action_kouhyou_detail_004_kani=true&JigyosyoCd=2253280032-00&ServiceCd=520&Type=search", "url2": "www.hakukeikai.jp/alice-kusanagi/" }, "geometry": { "type": "Point", "coordinates": [ 138.455464300000017, 34.986878800000014 ] } },
{ "type": "Feature", "properties": { "内容": "介護老人保健施設きよみの里【介護老人保健施設】静岡市清水区興津東町1829", "url": "https://www.kaigokensaku.mhlw.go.jp/22/index.php?action_kouhyou_detail_004_kani=true&JigyosyoCd=2253280040-00&ServiceCd=520&Type=search", "url2": "http://www.ja-shizuoka.or.jp/k-kiyomi" }, "geometry": { "type": "Point", "coordinates": [ 138.5348606, 35.061791 ] } },
{ "type": "Feature", "properties": { "内容": "介護老人保健施設　鶴舞乃城【介護老人保健施設】静岡市清水区庵原町3158番地", "url": "https://www.kaigokensaku.mhlw.go.jp/22/index.php?action_kouhyou_detail_004_kani=true&JigyosyoCd=2254280023-00&ServiceCd=520&Type=search", "url2": "http://tsurumainoshiro.jp/" }, "geometry": { "type": "Point", "coordinates": [ 138.468117300000017, 35.0577573 ] } },
{ "type": "Feature", "properties": { "内容": "介護老人保健施設もくれん【介護老人保健施設】草ヶ谷字クツソウヶ谷624-22", "url": "https://www.kaigokensaku.mhlw.go.jp/22/index.php?action_kouhyou_detail_004_kani=true&JigyosyoCd=2254280122-00&ServiceCd=520&Type=search", "url2": null }, "geometry": { "type": "Point", "coordinates": [ 138.491038699299764, 35.051171533129846 ] } },
{ "type": "Feature", "properties": { "内容": "リハビリパーク清水【介護老人保健施設】静岡県静岡市清水区石川135", "url": "https://www.kaigokensaku.mhlw.go.jp/22/index.php?action_kouhyou_detail_004_kani=true&JigyosyoCd=2254280189-00&ServiceCd=520&Type=search", "url2": "http://www.rehabili-park.com/sisetu/shimizu/index.html" }, "geometry": { "type": "Point", "coordinates": [ 138.4620516, 35.0381456 ] } },
{ "type": "Feature", "properties": { "内容": "介護老人保健施設　ハイマート有玉【介護老人保健施設】静岡県浜松市中央区有玉南町1436番地", "url": "https://www.kaigokensaku.mhlw.go.jp/22/index.php?action_kouhyou_detail_004_kani=true&JigyosyoCd=2257280129-00&ServiceCd=520&Type=search", "url2": "http://www.okazakikai.or.jp" }, "geometry": { "type": "Point", "coordinates": [ 137.7535626, 34.7524622 ] } },
{ "type": "Feature", "properties": { "内容": "天王介護老人保健施設【介護老人保健施設】浜松市中央区市野町2495", "url": "https://www.kaigokensaku.mhlw.go.jp/22/index.php?action_kouhyou_detail_004_kani=true&JigyosyoCd=2257180097-00&ServiceCd=520&Type=search", "url2": "http://www.tennou-hospital/or.jp" }, "geometry": { "type": "Point", "coordinates": [ 137.766438599999987, 34.7427709 ] } },
{ "type": "Feature", "properties": { "内容": "白梅ケアホーム【介護老人保健施設】静岡県浜松市中央区大人見町３０１１－１", "url": "https://www.kaigokensaku.mhlw.go.jp/22/index.php?action_kouhyou_detail_004_kani=true&JigyosyoCd=2257180030-00&ServiceCd=520&Type=search", "url2": "http://www.shiraume.or.jp" }, "geometry": { "type": "Point", "coordinates": [ 137.658486499999981, 34.7403351 ] } },
{ "type": "Feature", "properties": { "内容": "みかたはら介護老人保健施設【介護老人保健施設】浜松市中央区三方原町675-6", "url": "https://www.kaigokensaku.mhlw.go.jp/22/index.php?action_kouhyou_detail_004_kani=true&JigyosyoCd=2257180121-00&ServiceCd=520&Type=search", "url2": "www.touikai.or.jp" }, "geometry": { "type": "Point", "coordinates": [ 137.711841, 34.7789372 ] } },
{ "type": "Feature", "properties": { "内容": "介護老人保健施設平安の森【介護老人保健施設】浜松市中央区八幡町181介護老人保健施設平安の森", "url": "https://www.kaigokensaku.mhlw.go.jp/22/index.php?action_kouhyou_detail_004_kani=true&JigyosyoCd=2257280053-00&ServiceCd=520&Type=search", "url2": "http://www.azumakai.or.jp" }, "geometry": { "type": "Point", "coordinates": [ 137.73458340000002, 34.7151481 ] } },
{ "type": "Feature", "properties": { "内容": "介護老人保健施設ケアセンター芳川【介護老人保健施設】浜松市中央区鼡野町24番地", "url": "https://www.kaigokensaku.mhlw.go.jp/22/index.php?action_kouhyou_detail_004_kani=true&JigyosyoCd=2257180105-00&ServiceCd=520&Type=search", "url2": "http://www.yamakawakai.net" }, "geometry": { "type": "Point", "coordinates": [ 137.763814300000035, 34.6768859 ] } },
{ "type": "Feature", "properties": { "内容": "白梅県居ケアホーム【介護老人保健施設】静岡県浜松市中央区東伊場二丁目14番35号", "url": "https://www.kaigokensaku.mhlw.go.jp/22/index.php?action_kouhyou_detail_004_kani=true&JigyosyoCd=2257280038-00&ServiceCd=520&Type=search", "url2": "http://www.shiraume.or.jp/" }, "geometry": { "type": "Point", "coordinates": [ 137.71769919999997, 34.6975136 ] } },
{ "type": "Feature", "properties": { "内容": "坂の上ろうけん曳馬野【介護老人保健施設】浜松市中央区幸４丁目３６－３", "url": "https://www.kaigokensaku.mhlw.go.jp/22/index.php?action_kouhyou_detail_004_kani=true&JigyosyoCd=2257280095-00&ServiceCd=520&Type=search", "url2": "https://www.sakanoue-fc.jp/facility/roken-hikumano/" }, "geometry": { "type": "Point", "coordinates": [ 137.73308748175964, 34.745921045675111 ] } },
{ "type": "Feature", "properties": { "内容": "白脇ケアセンター【介護老人保健施設】浜松市中央区白羽町1424", "url": "https://www.kaigokensaku.mhlw.go.jp/22/index.php?action_kouhyou_detail_004_kani=true&JigyosyoCd=2257180071-00&ServiceCd=520&Type=search", "url2": "http://www.kotou-wakeikai.com/" }, "geometry": { "type": "Point", "coordinates": [ 137.727901699999961, 34.6785944 ] } },
{ "type": "Feature", "properties": { "内容": "介護老人保健施設　長鶴の郷【介護老人保健施設】浜松市中央区長鶴町290", "url": "https://www.kaigokensaku.mhlw.go.jp/22/index.php?action_kouhyou_detail_004_kani=true&JigyosyoCd=2257180139-00&ServiceCd=520&Type=search", "url2": "http://www.nagatsuru.com" }, "geometry": { "type": "Point", "coordinates": [ 137.782813300000072, 34.714666799999989 ] } },
{ "type": "Feature", "properties": { "内容": "みずほケアセンター【介護老人保健施設】静岡県浜松市中央区高丘西2-32-36", "url": "https://www.kaigokensaku.mhlw.go.jp/22/index.php?action_kouhyou_detail_004_kani=true&JigyosyoCd=2257280061-00&ServiceCd=520&Type=search", "url2": "http://www.kotou-wakeikai.com" }, "geometry": { "type": "Point", "coordinates": [ 137.70008729999995, 34.760450200000022 ] } },
{ "type": "Feature", "properties": { "内容": "入野ケアセンター【介護老人保健施設】浜松市中央区入野町6417番地", "url": "https://www.kaigokensaku.mhlw.go.jp/22/index.php?action_kouhyou_detail_004_kani=true&JigyosyoCd=2257180055-00&ServiceCd=520&Type=search", "url2": "http://www.kotou-wakeikai.com" }, "geometry": { "type": "Point", "coordinates": [ 137.686754800000017, 34.6975384 ] } },
{ "type": "Feature", "properties": { "内容": "介護老人保健施設　西山ウエルケア【介護老人保健施設】静岡県浜松市中央区西山町411番地の2", "url": "https://www.kaigokensaku.mhlw.go.jp/22/index.php?action_kouhyou_detail_004_kani=true&JigyosyoCd=2257180014-00&ServiceCd=520&Type=search", "url2": "http://www.nishiyama.or.jp" }, "geometry": { "type": "Point", "coordinates": [ 137.6903106, 34.7360756 ] } },
{ "type": "Feature", "properties": { "内容": "介護老人保健施設　きらりの森【介護老人保健施設】静岡県浜松市浜名区染地台3丁目29番20号", "url": "https://www.kaigokensaku.mhlw.go.jp/22/index.php?action_kouhyou_detail_004_kani=true&JigyosyoCd=2277203176-00&ServiceCd=520&Type=search", "url2": "http://www.kirarinomori.com" }, "geometry": { "type": "Point", "coordinates": [ 137.744404, 34.793159 ] } },
{ "type": "Feature", "properties": { "内容": "介護老人保健施設あらたま【介護老人保健施設】静岡県浜松市浜名区宮口3152番地介護老人保健施設あらたま", "url": "https://www.kaigokensaku.mhlw.go.jp/22/index.php?action_kouhyou_detail_004_kani=true&JigyosyoCd=2257280103-00&ServiceCd=520&Type=search", "url2": "https://www.daizen-f.com" }, "geometry": { "type": "Point", "coordinates": [ 137.772559, 34.82289 ] } },
{ "type": "Feature", "properties": { "内容": "介護老人保健施設　エーデルワイス【介護老人保健施設】浜松市浜名区平口２４０５", "url": "https://www.kaigokensaku.mhlw.go.jp/22/index.php?action_kouhyou_detail_004_kani=true&JigyosyoCd=2258380019-00&ServiceCd=520&Type=search", "url2": "http://www.e-del.jp" }, "geometry": { "type": "Point", "coordinates": [ 137.767255034918207, 34.796564093339946 ] } },
{ "type": "Feature", "properties": { "内容": "はまなこ介護老人保健施設【介護老人保健施設】浜松市浜名区三ヶ日町都筑３６６４－１０", "url": "https://www.kaigokensaku.mhlw.go.jp/22/index.php?action_kouhyou_detail_004_kani=true&JigyosyoCd=2258180013-00&ServiceCd=520&Type=search", "url2": "http://www.toyookakai.or.jp" }, "geometry": { "type": "Point", "coordinates": [ 137.585751, 34.7944616 ] } },
{ "type": "Feature", "properties": { "内容": "介護老人保健施設花平ケアセンター【介護老人保健施設】静岡県浜松市浜名区引佐町花平708", "url": "https://www.kaigokensaku.mhlw.go.jp/22/index.php?action_kouhyou_detail_004_kani=true&JigyosyoCd=2258180047-00&ServiceCd=520&Type=search", "url2": "http://www.hanadaira.com" }, "geometry": { "type": "Point", "coordinates": [ 137.672039499999983, 34.8461386 ] } },
{ "type": "Feature", "properties": { "内容": "クロヤナギ介護老人保健施設【介護老人保健施設】静岡県浜松市浜名区三ヶ日町宇志３４－１", "url": "https://www.kaigokensaku.mhlw.go.jp/22/index.php?action_kouhyou_detail_004_kani=true&JigyosyoCd=2257280012-00&ServiceCd=520&Type=search", "url2": null }, "geometry": { "type": "Point", "coordinates": [ 137.561218899999972, 34.8003684 ] } },
{ "type": "Feature", "properties": { "内容": "みっかび東介護老人保健施設【介護老人保健施設】浜松市浜名区三ケ日町宇志３４－１", "url": "https://www.kaigokensaku.mhlw.go.jp/22/index.php?action_kouhyou_detail_004_kani=true&JigyosyoCd=2258180039-00&ServiceCd=520&Type=search", "url2": null }, "geometry": { "type": "Point", "coordinates": [ 137.561218899999972, 34.8003684 ] } },
{ "type": "Feature", "properties": { "内容": "介護老人保健施設　三方原ベテルホーム【介護老人保健施設】静岡県浜松市浜名区細江町中川7421-1", "url": "https://www.kaigokensaku.mhlw.go.jp/22/index.php?action_kouhyou_detail_004_kani=true&JigyosyoCd=2258180021-00&ServiceCd=520&Type=search", "url2": "http://www.seirei.or.jp/elderlyhome/beteru/" }, "geometry": { "type": "Point", "coordinates": [ 137.6922592, 34.790520900000026 ] } },
{ "type": "Feature", "properties": { "内容": "都ケアセンター【介護老人保健施設】浜松市浜名区都田町7555-47", "url": "https://www.kaigokensaku.mhlw.go.jp/22/index.php?action_kouhyou_detail_004_kani=true&JigyosyoCd=2257180022-00&ServiceCd=520&Type=search", "url2": "https://www.care-miyako.org" }, "geometry": { "type": "Point", "coordinates": [ 137.708571304893468, 34.803510068146167 ] } },
{ "type": "Feature", "properties": { "内容": "介護老人保健施設　さいわい【介護老人保健施設】浜松市天竜区渡ヶ島221", "url": "https://www.kaigokensaku.mhlw.go.jp/22/index.php?action_kouhyou_detail_004_kani=true&JigyosyoCd=2256580016-00&ServiceCd=520&Type=search", "url2": "https://www.tenryu-kohseikai.or.jp/senior/saiwai/index.html" }, "geometry": { "type": "Point", "coordinates": [ 137.793526041139188, 34.857343815378265 ] } },
{ "type": "Feature", "properties": { "内容": "介護老人保健施設　鹿島の郷【介護老人保健施設】静岡県浜松市天竜区二俣町南鹿島36-1-2", "url": "https://www.kaigokensaku.mhlw.go.jp/22/index.php?action_kouhyou_detail_004_kani=true&JigyosyoCd=2257280020-00&ServiceCd=520&Type=search", "url2": "http://seijukai-gp.jp/" }, "geometry": { "type": "Point", "coordinates": [ 137.808360599999986, 34.8442082 ] } },
{ "type": "Feature", "properties": { "内容": "介護老人保健施設　はるのケアセンター【介護老人保健施設】浜松市天竜区春野町気田776-5", "url": "https://www.kaigokensaku.mhlw.go.jp/22/index.php?action_kouhyou_detail_004_kani=true&JigyosyoCd=2257280046-00&ServiceCd=520&Type=search", "url2": "https://www.koukyukai.jp/" }, "geometry": { "type": "Point", "coordinates": [ 137.907190614155525, 35.006390087840643 ] } },
{ "type": "Feature", "properties": { "内容": "介護老人保健施設　椎路の里【介護老人保健施設】静岡県沼津市東椎路32-1", "url": "https://www.kaigokensaku.mhlw.go.jp/22/index.php?action_kouhyou_detail_004_kani=true&JigyosyoCd=2251180044-00&ServiceCd=520&Type=search", "url2": null }, "geometry": { "type": "Point", "coordinates": [ 138.841688, 35.118378599999986 ] } },
{ "type": "Feature", "properties": { "内容": "介護老人保健施設ヒルズかどいけ【介護老人保健施設】沼津市岡一色672番地の2", "url": "https://www.kaigokensaku.mhlw.go.jp/22/index.php?action_kouhyou_detail_004_kani=true&JigyosyoCd=2251180051-00&ServiceCd=520&Type=search", "url2": "http://seijukai-gp.jp/" }, "geometry": { "type": "Point", "coordinates": [ 138.87747939999997, 35.1345399 ] } },
{ "type": "Feature", "properties": { "内容": "介護老人保健施設かどいけプラス【介護老人保健施設】静岡県沼津市岡一色672番地の2", "url": "https://www.kaigokensaku.mhlw.go.jp/22/index.php?action_kouhyou_detail_004_kani=true&JigyosyoCd=2251180077-00&ServiceCd=520&Type=search", "url2": "http://seijukai-gp.jp/" }, "geometry": { "type": "Point", "coordinates": [ 138.87747939999997, 35.1345399 ] } },
{ "type": "Feature", "properties": { "内容": "介護老人保健施設サン静浦【介護老人保健施設】沼津市志下３４４－１", "url": "https://www.kaigokensaku.mhlw.go.jp/22/index.php?action_kouhyou_detail_004_kani=true&JigyosyoCd=2251180036-00&ServiceCd=520&Type=search", "url2": "http://care-net.biz/22/sun-shizuura/" }, "geometry": { "type": "Point", "coordinates": [ 138.879444899999953, 35.0617602 ] } },
{ "type": "Feature", "properties": { "内容": "介護老人保健施設タカネ園【介護老人保健施設】沼津市鳥谷字土橋611-1", "url": "https://www.kaigokensaku.mhlw.go.jp/22/index.php?action_kouhyou_detail_004_kani=true&JigyosyoCd=2251180010-00&ServiceCd=520&Type=search", "url2": null }, "geometry": { "type": "Point", "coordinates": [ 138.823268131799296, 35.140532442115159 ] } },
{ "type": "Feature", "properties": { "内容": "介護老人保健施設　おおひら【介護老人保健施設】沼津市大平1117-1", "url": "https://www.kaigokensaku.mhlw.go.jp/22/index.php?action_kouhyou_detail_004_kani=true&JigyosyoCd=2251180028-00&ServiceCd=520&Type=search", "url2": "http://shinyoukai.or.jp/rokenoh/" }, "geometry": { "type": "Point", "coordinates": [ 138.90361489999998, 35.0734736 ] } },
{ "type": "Feature", "properties": { "内容": "介護療養型老人保健施設　あしたかケアセンター【介護老人保健施設】沼津市今沢字西畑３７２-５", "url": "https://www.kaigokensaku.mhlw.go.jp/22/index.php?action_kouhyou_detail_004_kani=true&JigyosyoCd=2251180069-00&ServiceCd=520&Type=search", "url2": null }, "geometry": { "type": "Point", "coordinates": [ 138.815931500000033, 35.1221638 ] } },
{ "type": "Feature", "properties": { "内容": "介護老人保健施設　菜の花【介護老人保健施設】静岡県熱海市字七尾原1173-172", "url": "https://www.kaigokensaku.mhlw.go.jp/22/index.php?action_kouhyou_detail_004_kani=true&JigyosyoCd=2250580038-00&ServiceCd=520&Type=search", "url2": "http://seijukai-gp.jp/" }, "geometry": { "type": "Point", "coordinates": [ 139.07951475402831, 35.122333409418445 ] } },
{ "type": "Feature", "properties": { "内容": "医療法人社団桜会　介護老人保健施設　葵の園・熱海【介護老人保健施設】静岡県熱海市泉61-1", "url": "https://www.kaigokensaku.mhlw.go.jp/22/index.php?action_kouhyou_detail_004_kani=true&JigyosyoCd=2250580061-00&ServiceCd=520&Type=search", "url2": "https://www.aoikai.jp/atami/" }, "geometry": { "type": "Point", "coordinates": [ 139.0773922, 35.1435733 ] } },
{ "type": "Feature", "properties": { "内容": "介護老人保健施設ラ・サンテふよう【介護老人保健施設】三島市佐野1205-3", "url": "https://www.kaigokensaku.mhlw.go.jp/22/index.php?action_kouhyou_detail_004_kani=true&JigyosyoCd=2250680028-00&ServiceCd=520&Type=search", "url2": "http://mchp.or.jp/lasante/" }, "geometry": { "type": "Point", "coordinates": [ 138.916337200000044, 35.15779 ] } },
{ "type": "Feature", "properties": { "内容": "介護老人保健施設梅名の里【介護老人保健施設】三島市梅名578番地", "url": "https://www.kaigokensaku.mhlw.go.jp/22/index.php?action_kouhyou_detail_004_kani=true&JigyosyoCd=2250680010-00&ServiceCd=520&Type=search", "url2": "http://www.umenanosato.com" }, "geometry": { "type": "Point", "coordinates": [ 138.923246, 35.0977851 ] } },
{ "type": "Feature", "properties": { "内容": "三島総合病院附属介護老人保健施設【介護老人保健施設】静岡県三島市谷田字藤久保２２７６", "url": "https://www.kaigokensaku.mhlw.go.jp/22/index.php?action_kouhyou_detail_004_kani=true&JigyosyoCd=2250680036-00&ServiceCd=520&Type=search", "url2": "http://mishima.jcho.go.jp/rouken/" }, "geometry": { "type": "Point", "coordinates": [ 138.951808130841073, 35.123895988162985 ] } },
{ "type": "Feature", "properties": { "内容": "介護老人保健施設リバブルケア【介護老人保健施設】静岡県富士宮市原682", "url": "https://www.kaigokensaku.mhlw.go.jp/22/index.php?action_kouhyou_detail_004_kani=true&JigyosyoCd=2252180076-00&ServiceCd=520&Type=search", "url2": "http://www.fujiyama-hosp.com" }, "geometry": { "type": "Point", "coordinates": [ 138.583405800000037, 35.3152167 ] } },
{ "type": "Feature", "properties": { "内容": "介護老人保健施設いかる野【介護老人保健施設】富士宮市原７０９番地", "url": "https://www.kaigokensaku.mhlw.go.jp/22/index.php?action_kouhyou_detail_004_kani=true&JigyosyoCd=2252180068-00&ServiceCd=520&Type=search", "url2": "http://www.fujiyama-hosp.com" }, "geometry": { "type": "Point", "coordinates": [ 138.583861399999932, 35.3128643 ] } },
{ "type": "Feature", "properties": { "内容": "介護老人保健施設　富士ケアセンター【介護老人保健施設】静岡県富士宮市星山1129", "url": "https://www.kaigokensaku.mhlw.go.jp/22/index.php?action_kouhyou_detail_004_kani=true&JigyosyoCd=2252180027-00&ServiceCd=520&Type=search", "url2": "http://www.fujireha.org" }, "geometry": { "type": "Point", "coordinates": [ 138.6133969, 35.1942571 ] } },
{ "type": "Feature", "properties": { "内容": "介護老人保健施設　みゆきの苑【介護老人保健施設】富士宮市宮原337-4", "url": "https://www.kaigokensaku.mhlw.go.jp/22/index.php?action_kouhyou_detail_004_kani=true&JigyosyoCd=2252180035-00&ServiceCd=520&Type=search", "url2": "http://miyuki.iryou-jinshinkai.jp/" }, "geometry": { "type": "Point", "coordinates": [ 138.611460099999931, 35.251336 ] } },
{ "type": "Feature", "properties": { "内容": "介護老人保健施設旭ヶ丘【介護老人保健施設】静岡県富士宮市山宮1027番地の2", "url": "https://www.kaigokensaku.mhlw.go.jp/22/index.php?action_kouhyou_detail_004_kani=true&JigyosyoCd=2252180050-00&ServiceCd=520&Type=search", "url2": "http://seijukai-gp.jp/" }, "geometry": { "type": "Point", "coordinates": [ 138.622884744180311, 35.25946144385987 ] } },
{ "type": "Feature", "properties": { "内容": "伊東市介護老人保健施設みはらし【介護老人保健施設】伊東市岡１８７番地", "url": "https://www.kaigokensaku.mhlw.go.jp/22/index.php?action_kouhyou_detail_004_kani=true&JigyosyoCd=2250480023-00&ServiceCd=520&Type=search", "url2": "http://ito-miharashi.jp" }, "geometry": { "type": "Point", "coordinates": [ 139.088540200000011, 34.9611396 ] } },
{ "type": "Feature", "properties": { "内容": "医療法人啓仁会　介護老人保健施設　いとうの杜【介護老人保健施設】静岡県伊東市湯川２８８番地９", "url": "https://www.kaigokensaku.mhlw.go.jp/22/index.php?action_kouhyou_detail_004_kani=true&JigyosyoCd=2250480031-00&ServiceCd=520&Type=search", "url2": "http://itou-mori.jp/" }, "geometry": { "type": "Point", "coordinates": [ 139.090858799999978, 34.9746746 ] } },
{ "type": "Feature", "properties": { "内容": "介護老人保健施設のぞみ【介護老人保健施設】静岡県伊東市宇佐美2405-2", "url": "https://www.kaigokensaku.mhlw.go.jp/22/index.php?action_kouhyou_detail_004_kani=true&JigyosyoCd=2250480049-00&ServiceCd=520&Type=search", "url2": "https://e-nozomi.com/" }, "geometry": { "type": "Point", "coordinates": [ 139.06441970304104, 35.000198108243929 ] } },
{ "type": "Feature", "properties": { "内容": "介護老人保健施設さくら【介護老人保健施設】静岡県島田市東町１３３１番地", "url": "https://www.kaigokensaku.mhlw.go.jp/22/index.php?action_kouhyou_detail_004_kani=true&JigyosyoCd=2255480028-00&ServiceCd=520&Type=search", "url2": "http://seiyukai6666.com/" }, "geometry": { "type": "Point", "coordinates": [ 138.22754180000004, 34.8346028 ] } },
{ "type": "Feature", "properties": { "内容": "介護老人保健施設エコトープ【介護老人保健施設】島田市島534-1", "url": "https://www.kaigokensaku.mhlw.go.jp/22/index.php?action_kouhyou_detail_004_kani=true&JigyosyoCd=2255580017-00&ServiceCd=520&Type=search", "url2": "http://www.ecotope.jp" }, "geometry": { "type": "Point", "coordinates": [ 138.126009899999985, 34.8421675 ] } },
{ "type": "Feature", "properties": { "内容": "介護老人保健施設アポロン【介護老人保健施設】静岡県島田市中溝町１７１４－１", "url": "https://www.kaigokensaku.mhlw.go.jp/22/index.php?action_kouhyou_detail_004_kani=true&JigyosyoCd=2255480010-00&ServiceCd=520&Type=search", "url2": "https://www.apolon-shizuoka.com/" }, "geometry": { "type": "Point", "coordinates": [ 138.170983400000068, 34.8404352 ] } },
{ "type": "Feature", "properties": { "内容": "サテライト型介護老人保健施設アポロン伊太【介護老人保健施設】島田市伊太２１７０－１", "url": "https://www.kaigokensaku.mhlw.go.jp/22/index.php?action_kouhyou_detail_004_kani=true&JigyosyoCd=2255480036-00&ServiceCd=520&Type=search", "url2": "www.apolon-shizuoka.com" }, "geometry": { "type": "Point", "coordinates": [ 138.153640900000028, 34.8509669 ] } },
{ "type": "Feature", "properties": { "内容": "介護老人保健施設　ヒューマンライフ富士【介護老人保健施設】富士市大淵3901－1", "url": "https://www.kaigokensaku.mhlw.go.jp/22/index.php?action_kouhyou_detail_004_kani=true&JigyosyoCd=2252380015-00&ServiceCd=520&Type=search", "url2": "http://www.shinfuji.or.jp/human/index.html" }, "geometry": { "type": "Point", "coordinates": [ 138.668844900000067, 35.215856 ] } },
{ "type": "Feature", "properties": { "内容": "介護老人保健施設　富士中央ケアセンター【介護老人保健施設】静岡県富士市厚原372-1", "url": "https://www.kaigokensaku.mhlw.go.jp/22/index.php?action_kouhyou_detail_004_kani=true&JigyosyoCd=2252380064-00&ServiceCd=520&Type=search", "url2": "https://www.syuuseikai.or.jp/" }, "geometry": { "type": "Point", "coordinates": [ 138.65728, 35.1807545 ] } },
{ "type": "Feature", "properties": { "内容": "介護老人保健施設　ききょうの郷【介護老人保健施設】富士市五貫島175番地", "url": "https://www.kaigokensaku.mhlw.go.jp/22/index.php?action_kouhyou_detail_004_kani=true&JigyosyoCd=2252380023-00&ServiceCd=520&Type=search", "url2": "http://www.kikyounosato.com" }, "geometry": { "type": "Point", "coordinates": [ 138.652244200000041, 35.1333599 ] } },
{ "type": "Feature", "properties": { "内容": "介護老人保健施設ひろみ【介護老人保健施設】富士市大渕39-1", "url": "https://www.kaigokensaku.mhlw.go.jp/22/index.php?action_kouhyou_detail_004_kani=true&JigyosyoCd=2252380031-00&ServiceCd=520&Type=search", "url2": "https://www.hiromikai.jp" }, "geometry": { "type": "Point", "coordinates": [ 138.689315500000021, 35.1871843 ] } },
{ "type": "Feature", "properties": { "内容": "介護老人保健施設　かぐや富士【介護老人保健施設】富士市中里２５４６－７", "url": "https://www.kaigokensaku.mhlw.go.jp/22/index.php?action_kouhyou_detail_004_kani=true&JigyosyoCd=2252380049-00&ServiceCd=520&Type=search", "url2": "http://seijukai-gp.jp/w" }, "geometry": { "type": "Point", "coordinates": [ 138.748763199999985, 35.1376132 ] } },
{ "type": "Feature", "properties": { "内容": "共立蒲原総合病院組合介護老人保健施設芙蓉の丘【介護老人保健施設】富士市中之郷2500－1", "url": "https://www.kaigokensaku.mhlw.go.jp/22/index.php?action_kouhyou_detail_004_kani=true&JigyosyoCd=2253180018-00&ServiceCd=520&Type=search", "url2": "http://www.kanbarahp.com/" }, "geometry": { "type": "Point", "coordinates": [ 138.615405, 35.13327 ] } },
{ "type": "Feature", "properties": { "内容": "介護老人保健施設　さくらの苑【介護老人保健施設】磐田市二之宮字仙水１１６２", "url": "https://www.kaigokensaku.mhlw.go.jp/22/index.php?action_kouhyou_detail_004_kani=true&JigyosyoCd=2256780020-00&ServiceCd=520&Type=search", "url2": "URL:http://www.sakura-sono.info/" }, "geometry": { "type": "Point", "coordinates": [ 137.852976399999989, 34.704141 ] } },
{ "type": "Feature", "properties": { "内容": "於保老健センター【介護老人保健施設】磐田市一色　26番地", "url": "https://www.kaigokensaku.mhlw.go.jp/22/index.php?action_kouhyou_detail_004_kani=true&JigyosyoCd=2256680022-00&ServiceCd=520&Type=search", "url2": "http://kinokinenkai.com" }, "geometry": { "type": "Point", "coordinates": [ 137.857159200000069, 34.6779922 ] } },
{ "type": "Feature", "properties": { "内容": "介護老人保健施設おおふじ五幸ホーム【介護老人保健施設】磐田市大久保508-3", "url": "https://www.kaigokensaku.mhlw.go.jp/22/index.php?action_kouhyou_detail_004_kani=true&JigyosyoCd=2256780012-00&ServiceCd=520&Type=search", "url2": "https://www.toyugokokai.com/" }, "geometry": { "type": "Point", "coordinates": [ 137.858175100000039, 34.7673528 ] } },
{ "type": "Feature", "properties": { "内容": "介護老人保健施設五洋の里【介護老人保健施設】磐田市掛塚３１９０－１", "url": "https://www.kaigokensaku.mhlw.go.jp/22/index.php?action_kouhyou_detail_004_kani=true&JigyosyoCd=2256980026-00&ServiceCd=520&Type=search", "url2": "http://toyugokokai.com/" }, "geometry": { "type": "Point", "coordinates": [ 137.803002699999979, 34.6654387 ] } },
{ "type": "Feature", "properties": { "内容": "介護老人保健施設　白梅豊岡ケアホーム【介護老人保健施設】磐田市下神増183番地1", "url": "https://www.kaigokensaku.mhlw.go.jp/22/index.php?action_kouhyou_detail_004_kani=true&JigyosyoCd=2256980018-00&ServiceCd=520&Type=search", "url2": "https://www.shiraume.or.jp" }, "geometry": { "type": "Point", "coordinates": [ 137.837296825131261, 34.80760445233944 ] } },
{ "type": "Feature", "properties": { "内容": "介護老人保健施設なかよし【介護老人保健施設】磐田市小立野132", "url": "https://www.kaigokensaku.mhlw.go.jp/22/index.php?action_kouhyou_detail_004_kani=true&JigyosyoCd=2256680014-00&ServiceCd=520&Type=search", "url2": "https://www.keiseikai.org/nakayoshi/" }, "geometry": { "type": "Point", "coordinates": [ 137.819585500000017, 34.727162 ] } },
{ "type": "Feature", "properties": { "内容": "介護老人保健施設ケアセンターゆうゆう【介護老人保健施設】焼津市田尻４番地", "url": "https://www.kaigokensaku.mhlw.go.jp/22/index.php?action_kouhyou_detail_004_kani=true&JigyosyoCd=2255180032-00&ServiceCd=520&Type=search", "url2": "http://yuuyuu-kaigo.com/" }, "geometry": { "type": "Point", "coordinates": [ 138.314938, 34.8302944 ] } },
{ "type": "Feature", "properties": { "内容": "焼津ケアセンター【介護老人保健施設】焼津市中根新田１３１５", "url": "https://www.kaigokensaku.mhlw.go.jp/22/index.php?action_kouhyou_detail_004_kani=true&JigyosyoCd=2255180016-00&ServiceCd=520&Type=search", "url2": "http://www.yaizucare.or.jp/" }, "geometry": { "type": "Point", "coordinates": [ 138.286914300000035, 34.8291035 ] } },
{ "type": "Feature", "properties": { "内容": "コミュニティーケア大井川【介護老人保健施設】静岡県焼津市相川577-1", "url": "https://www.kaigokensaku.mhlw.go.jp/22/index.php?action_kouhyou_detail_004_kani=true&JigyosyoCd=2255180057-00&ServiceCd=520&Type=search", "url2": null }, "geometry": { "type": "Point", "coordinates": [ 138.264939199999958, 34.8059327 ] } },
{ "type": "Feature", "properties": { "内容": "コミュニティーケア高草【介護老人保健施設】焼津市方ノ上358-1", "url": "https://www.kaigokensaku.mhlw.go.jp/22/index.php?action_kouhyou_detail_004_kani=true&JigyosyoCd=2255180024-00&ServiceCd=520&Type=search", "url2": "https://www.sunkohkai.or.jp/takakusa/" }, "geometry": { "type": "Point", "coordinates": [ 138.3053582, 34.8927314 ] } },
{ "type": "Feature", "properties": { "内容": "介護老人保健施設　浜当目【介護老人保健施設】静岡県焼津市浜当目4丁目12番1号", "url": "https://www.kaigokensaku.mhlw.go.jp/22/index.php?action_kouhyou_detail_004_kani=true&JigyosyoCd=2255180040-00&ServiceCd=520&Type=search", "url2": null }, "geometry": { "type": "Point", "coordinates": [ 138.333971803704799, 34.881323489826485 ] } },
{ "type": "Feature", "properties": { "内容": "介護老人保健施設　桔梗の丘【介護老人保健施設】静岡県掛川市杉谷南１丁目１－１掛川東病院内", "url": "https://www.kaigokensaku.mhlw.go.jp/22/index.php?action_kouhyou_detail_004_kani=true&JigyosyoCd=2257480026-00&ServiceCd=520&Type=search", "url2": "www.ryouwa-kai.com" }, "geometry": { "type": "Point", "coordinates": [ 138.027279499999963, 34.762029 ] } },
{ "type": "Feature", "properties": { "内容": "介護老人保健施設神子の園【介護老人保健施設】掛川市逆川100", "url": "https://www.kaigokensaku.mhlw.go.jp/22/index.php?action_kouhyou_detail_004_kani=true&JigyosyoCd=2256280021-00&ServiceCd=520&Type=search", "url2": "http://www..mikosono.or.jp/miko-top.html" }, "geometry": { "type": "Point", "coordinates": [ 138.040952899999979, 34.7804551 ] } },
{ "type": "Feature", "properties": { "内容": "えいせい掛川介護老人保健施設【介護老人保健施設】静岡県掛川市上西郷8021番地", "url": "https://www.kaigokensaku.mhlw.go.jp/22/index.php?action_kouhyou_detail_004_kani=true&JigyosyoCd=2257480018-00&ServiceCd=520&Type=search", "url2": "http://www.keiseikai.org/" }, "geometry": { "type": "Point", "coordinates": [ 138.020450699999969, 34.8181451 ] } },
{ "type": "Feature", "properties": { "内容": "介護老人保健施設あおばケアガーデン【介護老人保健施設】静岡県掛川市大渕4345番地", "url": "https://www.kaigokensaku.mhlw.go.jp/22/index.php?action_kouhyou_detail_004_kani=true&JigyosyoCd=2256180023-00&ServiceCd=520&Type=search", "url2": "http://www.aoba-caredarden-mc.com/" }, "geometry": { "type": "Point", "coordinates": [ 138.01641840000002, 34.6694933 ] } },
{ "type": "Feature", "properties": { "内容": "介護老人保健施設エバーグリーン掛川【介護老人保健施設】掛川市大池680", "url": "https://www.kaigokensaku.mhlw.go.jp/22/index.php?action_kouhyou_detail_004_kani=true&JigyosyoCd=2256280013-00&ServiceCd=520&Type=search", "url2": "https://evergreenkakegawa.com/" }, "geometry": { "type": "Point", "coordinates": [ 137.988046604368577, 34.775985999968377 ] } },
{ "type": "Feature", "properties": { "内容": "医療法人社団　平成会　介護老人保健施設　カリタス・メンテ【介護老人保健施設】藤枝市水上123-1", "url": "https://www.kaigokensaku.mhlw.go.jp/22/index.php?action_kouhyou_detail_004_kani=true&JigyosyoCd=2255380012-00&ServiceCd=520&Type=search", "url2": "http://www.heiseihp.com" }, "geometry": { "type": "Point", "coordinates": [ 138.242904400000043, 34.8540598 ] } },
{ "type": "Feature", "properties": { "内容": "介護老人保健施設　グリーンヒルズ藤枝【介護老人保健施設】藤枝市宮原４２０－１", "url": "https://www.kaigokensaku.mhlw.go.jp/22/index.php?action_kouhyou_detail_004_kani=true&JigyosyoCd=2255380020-00&ServiceCd=520&Type=search", "url2": "https://g-hills.jp" }, "geometry": { "type": "Point", "coordinates": [ 138.2047576, 34.8970948 ] } },
{ "type": "Feature", "properties": { "内容": "介護老人保健施設　フォレスタ藤枝【介護老人保健施設】藤枝市小石川町２－８－１３", "url": "https://www.kaigokensaku.mhlw.go.jp/22/index.php?action_kouhyou_detail_004_kani=true&JigyosyoCd=2255380038-00&ServiceCd=520&Type=search", "url2": "http://www.forestafujieda.jp/" }, "geometry": { "type": "Point", "coordinates": [ 138.256497699999954, 34.8567267 ] } },
{ "type": "Feature", "properties": { "内容": "介護老人保健施設　ユニケア岡部【介護老人保健施設】藤枝市岡部町内谷１４７３－３", "url": "https://www.kaigokensaku.mhlw.go.jp/22/index.php?action_kouhyou_detail_004_kani=true&JigyosyoCd=2255280014-00&ServiceCd=520&Type=search", "url2": "https://www.e-miwasan.com/" }, "geometry": { "type": "Point", "coordinates": [ 138.288237799999933, 34.9069849 ] } },
{ "type": "Feature", "properties": { "内容": "介護老人保健施設　マインド【介護老人保健施設】藤枝市瀬戸新屋487番地の２", "url": "https://www.kaigokensaku.mhlw.go.jp/22/index.php?action_kouhyou_detail_004_kani=true&JigyosyoCd=2255380046-00&ServiceCd=520&Type=search", "url2": "http://www.heiseihp.com/mind/" }, "geometry": { "type": "Point", "coordinates": [ 138.238882399999966, 34.857951 ] } },
{ "type": "Feature", "properties": { "内容": "介護老人保健施設　Kanon【介護老人保健施設】静岡県御殿場市新橋１１７５－１", "url": "https://www.kaigokensaku.mhlw.go.jp/22/index.php?action_kouhyou_detail_004_kani=true&JigyosyoCd=2251280018-00&ServiceCd=520&Type=search", "url2": "https://roken-kanon.com/" }, "geometry": { "type": "Point", "coordinates": [ 138.936409396017439, 35.288597408171974 ] } },
{ "type": "Feature", "properties": { "内容": "介護老人保健施設あすなろ【介護老人保健施設】静岡県御殿場市川島田1076-2", "url": "https://www.kaigokensaku.mhlw.go.jp/22/index.php?action_kouhyou_detail_004_kani=true&JigyosyoCd=2251280026-00&ServiceCd=520&Type=search", "url2": "http://www:toranomon.or.jp/" }, "geometry": { "type": "Point", "coordinates": [ 138.918605699999915, 35.295399300000014 ] } },
{ "type": "Feature", "properties": { "内容": "ナーシングホーム　オンフルール【介護老人保健施設】袋井市高尾1439番地の3", "url": "https://www.kaigokensaku.mhlw.go.jp/22/index.php?action_kouhyou_detail_004_kani=true&JigyosyoCd=2257380010-00&ServiceCd=520&Type=search", "url2": "http://koshikai.or.jp/" }, "geometry": { "type": "Point", "coordinates": [ 137.929793, 34.7327728 ] } },
{ "type": "Feature", "properties": { "内容": "袋井ケアセンター【介護老人保健施設】袋井市萱間933番地の1", "url": "https://www.kaigokensaku.mhlw.go.jp/22/index.php?action_kouhyou_detail_004_kani=true&JigyosyoCd=2256480019-00&ServiceCd=520&Type=search", "url2": null }, "geometry": { "type": "Point", "coordinates": [ 137.886962700000026, 34.8105882 ] } },
{ "type": "Feature", "properties": { "内容": "介護老人保健施設　ふれあいの下田【介護老人保健施設】下田市柿崎32-10", "url": "https://www.kaigokensaku.mhlw.go.jp/22/index.php?action_kouhyou_detail_004_kani=true&JigyosyoCd=2250280019-00&ServiceCd=520&Type=search", "url2": "http://www.fureai-g.or.jp/fshimoda/" }, "geometry": { "type": "Point", "coordinates": [ 138.963595, 34.6756482 ] } },
{ "type": "Feature", "properties": { "内容": "医療法人社団榮紀会　介護老人保健施設　みしゅくケアセンターわか葉【介護老人保健施設】裾野市御宿１４７５番地", "url": "https://www.kaigokensaku.mhlw.go.jp/22/index.php?action_kouhyou_detail_004_kani=true&JigyosyoCd=2251480022-00&ServiceCd=520&Type=search", "url2": "http://www.eikikai.or.jp/outline.html" }, "geometry": { "type": "Point", "coordinates": [ 138.9104638, 35.2135801 ] } },
{ "type": "Feature", "properties": { "内容": "介護老人保健施設　あいの郷【介護老人保健施設】裾野市深良2929番地", "url": "https://www.kaigokensaku.mhlw.go.jp/22/index.php?action_kouhyou_detail_004_kani=true&JigyosyoCd=2251480014-00&ServiceCd=520&Type=search", "url2": "http://www.s-shinjinkai.or.jp" }, "geometry": { "type": "Point", "coordinates": [ 138.9243262, 35.208145 ] } },
{ "type": "Feature", "properties": { "内容": "介護老人保健施設　まんさくの里【介護老人保健施設】静岡県湖西市岡崎1353-1", "url": "https://www.kaigokensaku.mhlw.go.jp/22/index.php?action_kouhyou_detail_004_kani=true&JigyosyoCd=2258480025-00&ServiceCd=520&Type=search", "url2": "mansakunosato.com" }, "geometry": { "type": "Point", "coordinates": [ 137.50262250000003, 34.7170952 ] } },
{ "type": "Feature", "properties": { "内容": "老人保健施設はまおか【介護老人保健施設】静岡県御前崎市池新田2070御前崎市総合保健福祉センター", "url": "https://www.kaigokensaku.mhlw.go.jp/22/index.php?action_kouhyou_detail_004_kani=true&JigyosyoCd=2256180015-00&ServiceCd=520&Type=search", "url2": "https://omaezaki-hospital.jp/carecenter/" }, "geometry": { "type": "Point", "coordinates": [ 138.1201691, 34.645441 ] } },
{ "type": "Feature", "properties": { "内容": "介護老人保健施設　さわだの庄【介護老人保健施設】菊川市西方５５１１番地", "url": "https://www.kaigokensaku.mhlw.go.jp/22/index.php?action_kouhyou_detail_004_kani=true&JigyosyoCd=2256880010-00&ServiceCd=520&Type=search", "url2": "http://www.seiwakai-sawada.or.jp" }, "geometry": { "type": "Point", "coordinates": [ 138.072150700000066, 34.773995 ] } },
{ "type": "Feature", "properties": { "内容": "安寧の郷【介護老人保健施設】伊豆の国市田京1258番地の44", "url": "https://www.kaigokensaku.mhlw.go.jp/22/index.php?action_kouhyou_detail_004_kani=true&JigyosyoCd=2250380017-00&ServiceCd=520&Type=search", "url2": "http://www.keiju-kai.or.jp/annei/" }, "geometry": { "type": "Point", "coordinates": [ 138.9705487, 35.0087888 ] } },
{ "type": "Feature", "properties": { "内容": "介護老人保健施設　あじさい【介護老人保健施設】静岡県牧之原市細江3208番地1", "url": "https://www.kaigokensaku.mhlw.go.jp/22/index.php?action_kouhyou_detail_004_kani=true&JigyosyoCd=2255880029-00&ServiceCd=520&Type=search", "url2": "http://www.roken-ajisai.com/" }, "geometry": { "type": "Point", "coordinates": [ 138.240147110450749, 34.75940648641194 ] } },
{ "type": "Feature", "properties": { "内容": "介護老人保健施設　はるかぜ【介護老人保健施設】静岡県牧之原市菅ヶ谷１２４０－１", "url": "https://www.kaigokensaku.mhlw.go.jp/22/index.php?action_kouhyou_detail_004_kani=true&JigyosyoCd=2255580025-00&ServiceCd=520&Type=search", "url2": null }, "geometry": { "type": "Point", "coordinates": [ 138.175411100000019, 34.6967374 ] } },
{ "type": "Feature", "properties": { "内容": "介護老人保健施設　河津おもと苑【介護老人保健施設】静岡県賀茂郡河津町川津筏場1512-18", "url": "https://www.kaigokensaku.mhlw.go.jp/22/index.php?action_kouhyou_detail_004_kani=true&JigyosyoCd=2250180078-00&ServiceCd=520&Type=search", "url2": "http://www.kawazuhama-omoto.sakura.ne.jp/kaigo.html" }, "geometry": { "type": "Point", "coordinates": [ 138.973671299999978, 34.786849 ] } },
{ "type": "Feature", "properties": { "内容": "介護老人保健施設なぎさ園【介護老人保健施設】賀茂郡南伊豆町湊674", "url": "https://www.kaigokensaku.mhlw.go.jp/22/index.php?action_kouhyou_detail_004_kani=true&JigyosyoCd=2250180045-00&ServiceCd=520&Type=search", "url2": "http://www.s-m-a.or.jp/nagisa/" }, "geometry": { "type": "Point", "coordinates": [ 138.893630380940635, 34.636936728839096 ] } },
{ "type": "Feature", "properties": { "内容": "介護老人保健施設　しおさい【介護老人保健施設】賀茂郡西伊豆町仁科243-1", "url": "https://www.kaigokensaku.mhlw.go.jp/22/index.php?action_kouhyou_detail_004_kani=true&JigyosyoCd=2250180029-00&ServiceCd=520&Type=search", "url2": "http://www.kmcb.or.jp/index2.htm" }, "geometry": { "type": "Point", "coordinates": [ 138.777589499999976, 34.7696707 ] } },
{ "type": "Feature", "properties": { "内容": "夢の樹の郷【介護老人保健施設】駿東郡清水町玉川183-1", "url": "https://www.kaigokensaku.mhlw.go.jp/22/index.php?action_kouhyou_detail_004_kani=true&JigyosyoCd=2251380024-00&ServiceCd=520&Type=search", "url2": "https://www.kaiju-kai.or.jp/yumenoki/" }, "geometry": { "type": "Point", "coordinates": [ 138.907933400000019, 35.106012 ] } },
{ "type": "Feature", "properties": { "内容": "介護老人保健施設　長泉ケアセンター博寿園【介護老人保健施設】静岡県駿東郡長泉町本宿418番地の1", "url": "https://www.kaigokensaku.mhlw.go.jp/22/index.php?action_kouhyou_detail_004_kani=true&JigyosyoCd=2251380016-00&ServiceCd=520&Type=search", "url2": "http://www.ikeda-hp-g.or.jp" }, "geometry": { "type": "Point", "coordinates": [ 138.890045699999973, 35.1208634 ] } },
{ "type": "Feature", "properties": { "内容": "介護老人保健施設　おやまの杜【介護老人保健施設】静岡県駿東郡小山町菅沼１８３９番３", "url": "https://www.kaigokensaku.mhlw.go.jp/22/index.php?action_kouhyou_detail_004_kani=true&JigyosyoCd=2251380032-00&ServiceCd=520&Type=search", "url2": "http://seijukai-gp.jp" }, "geometry": { "type": "Point", "coordinates": [ 138.949611600000026, 35.3484027 ] } },
{ "type": "Feature", "properties": { "内容": "介護老人保健施設　菜の花の丘【介護老人保健施設】竹之下321", "url": "https://www.kaigokensaku.mhlw.go.jp/22/index.php?action_kouhyou_detail_004_kani=true&JigyosyoCd=2251380040-00&ServiceCd=520&Type=search", "url2": "http://toranomon.or.jp/index/nanohana.html" }, "geometry": { "type": "Point", "coordinates": [ 138.97536745869138, 35.331676706230056 ] } },
{ "type": "Feature", "properties": { "内容": "コミュニティーケア吉田【介護老人保健施設】榛原郡吉田町川尻1700-1", "url": "https://www.kaigokensaku.mhlw.go.jp/22/index.php?action_kouhyou_detail_004_kani=true&JigyosyoCd=2255580033-00&ServiceCd=520&Type=search", "url2": null }, "geometry": { "type": "Point", "coordinates": [ 138.272391299999981, 34.7691842 ] } },
{ "type": "Feature", "properties": { "内容": "介護老人保健施設　風の杜【介護老人保健施設】静岡県周智郡森町草ケ谷104-1", "url": "https://www.kaigokensaku.mhlw.go.jp/22/index.php?action_kouhyou_detail_004_kani=true&JigyosyoCd=2256380029-00&ServiceCd=520&Type=search", "url2": "http://www.ryokufu.jp/" }, "geometry": { "type": "Point", "coordinates": [ 137.9163328, 34.8264908 ] } }
]
}
