{
"type": "FeatureCollection",
"name": "geo_22_地域密着型介護老人福祉施設入所者生活介護",
"crs": { "type": "name", "properties": { "name": "urn:ogc:def:crs:OGC:1.3:CRS84" } },
"features": [
{ "type": "Feature", "properties": { "内容": "特別養護老人ホーム　カリタス21【地域密着型介護老人福祉施設入所者生活介護】静岡県静岡市葵区桂山723-6", "url": "https://www.kaigokensaku.mhlw.go.jp/22/index.php?action_kouhyou_detail_004_kani=true&JigyosyoCd=2294201302-00&ServiceCd=540&Type=search", "url2": "http://www.c-katura.com" }, "geometry": { "type": "Point", "coordinates": [ 138.344051600000057, 35.1116913 ] } },
{ "type": "Feature", "properties": { "内容": "特別養護老人ホーム楽寿の園【地域密着型介護老人福祉施設入所者生活介護】静岡県静岡市葵区与左衛門新田７４－６", "url": "https://www.kaigokensaku.mhlw.go.jp/22/index.php?action_kouhyou_detail_004_kani=true&JigyosyoCd=2294201310-00&ServiceCd=540&Type=search", "url2": "http://www.rakuju.or.jp" }, "geometry": { "type": "Point", "coordinates": [ 138.368957200000068, 35.027303 ] } },
{ "type": "Feature", "properties": { "内容": "社会福祉法人静和会　特別養護老人ホーム丸子の里　わかば【地域密着型介護老人福祉施設入所者生活介護】静岡市駿河区丸子6丁目1-29-3", "url": "https://www.kaigokensaku.mhlw.go.jp/22/index.php?action_kouhyou_detail_004_kani=true&JigyosyoCd=2274202262-00&ServiceCd=540&Type=search", "url2": "http;//www.marokonosato.org" }, "geometry": { "type": "Point", "coordinates": [ 138.349657900000011, 34.9481123 ] } },
{ "type": "Feature", "properties": { "内容": "第三長上苑【地域密着型介護老人福祉施設入所者生活介護】静岡県浜松市中央区中田町581番地", "url": "https://www.kaigokensaku.mhlw.go.jp/22/index.php?action_kouhyou_detail_004_kani=true&JigyosyoCd=2297200301-00&ServiceCd=540&Type=search", "url2": "http://www.jade.dti.ne.jp/~ngkm/" }, "geometry": { "type": "Point", "coordinates": [ 137.759770300000014, 34.7360046 ] } },
{ "type": "Feature", "properties": { "内容": "地域密着型介護老人福祉施設　西山の杜【地域密着型介護老人福祉施設入所者生活介護】西山町93番地の1", "url": "https://www.kaigokensaku.mhlw.go.jp/22/index.php?action_kouhyou_detail_004_kani=true&JigyosyoCd=2297200277-00&ServiceCd=540&Type=search", "url2": "http://www.nishiyama.or.jp" }, "geometry": { "type": "Point", "coordinates": [ 137.692133219657876, 34.737000367324448 ] } },
{ "type": "Feature", "properties": { "内容": "地域密着型介護老人福祉施設いしはらの里【地域密着型介護老人福祉施設入所者生活介護】静岡県浜松市南区石原町749", "url": "https://www.kaigokensaku.mhlw.go.jp/22/index.php?action_kouhyou_detail_004_kani=true&JigyosyoCd=2297200327-00&ServiceCd=540&Type=search", "url2": "https://www.tanpopo-kai.jp/" }, "geometry": { "type": "Point", "coordinates": [ 137.768584199999964, 34.6883335 ] } },
{ "type": "Feature", "properties": { "内容": "地域密着型介護老人福祉施設なごみ【地域密着型介護老人福祉施設入所者生活介護】浜松市中央区三方原町１３８３－１地域密着型介護老人福祉施設なごみ", "url": "https://www.kaigokensaku.mhlw.go.jp/22/index.php?action_kouhyou_detail_004_kani=true&JigyosyoCd=2297200053-00&ServiceCd=540&Type=search", "url2": "http://www.nagomi.hybs.jp/" }, "geometry": { "type": "Point", "coordinates": [ 137.7107409, 34.7830449 ] } },
{ "type": "Feature", "properties": { "内容": "地域密着型特別養護老人ホーム　浅田ふるさと庵【地域密着型介護老人福祉施設入所者生活介護】神田町191", "url": "https://www.kaigokensaku.mhlw.go.jp/22/index.php?action_kouhyou_detail_004_kani=true&JigyosyoCd=2297200566-00&ServiceCd=540&Type=search", "url2": "www.yuutainosato.com" }, "geometry": { "type": "Point", "coordinates": [ 137.725102457455478, 34.688659466829215 ] } },
{ "type": "Feature", "properties": { "内容": "和合愛光園和合サテライト【地域密着型介護老人福祉施設入所者生活介護】静岡県浜松市中央区和合町500番地-1", "url": "https://www.kaigokensaku.mhlw.go.jp/22/index.php?action_kouhyou_detail_004_kani=true&JigyosyoCd=2297200699-00&ServiceCd=540&Type=search", "url2": "http://www.seirei.or.jp/elderlyhome/wagou/" }, "geometry": { "type": "Point", "coordinates": [ 137.702856977185093, 34.743950261197099 ] } },
{ "type": "Feature", "properties": { "内容": "特別養護老人ホームいずみ【地域密着型介護老人福祉施設入所者生活介護】静岡県浜松市中央区泉四丁目20番地1号", "url": "https://www.kaigokensaku.mhlw.go.jp/22/index.php?action_kouhyou_detail_004_kani=true&JigyosyoCd=2297200723-00&ServiceCd=540&Type=search", "url2": "http://www.youshoukai.or.jp/" }, "geometry": { "type": "Point", "coordinates": [ 137.719287164032067, 34.748057512760177 ] } },
{ "type": "Feature", "properties": { "内容": "特別養護老人ホーム　かささぎ苑【地域密着型介護老人福祉施設入所者生活介護】静岡県浜松市中央区恒武町８４２番地", "url": "https://www.kaigokensaku.mhlw.go.jp/22/index.php?action_kouhyou_detail_004_kani=true&JigyosyoCd=2297200079-00&ServiceCd=540&Type=search", "url2": "http://www4.tokai.or.jp/kasasaginosato/" }, "geometry": { "type": "Point", "coordinates": [ 137.8012503, 34.7621095 ] } },
{ "type": "Feature", "properties": { "内容": "花菜風【地域密着型介護老人福祉施設入所者生活介護】浜松市中央区倉松町741番地", "url": "https://www.kaigokensaku.mhlw.go.jp/22/index.php?action_kouhyou_detail_004_kani=true&JigyosyoCd=2297200269-00&ServiceCd=540&Type=search", "url2": "www.h-minamikaze.com" }, "geometry": { "type": "Point", "coordinates": [ 137.695821300000034, 34.6760634 ] } },
{ "type": "Feature", "properties": { "内容": "和合愛光園　初生サテライト【地域密着型介護老人福祉施設入所者生活介護】静岡県浜松市中央区初生町1095-1", "url": "https://www.kaigokensaku.mhlw.go.jp/22/index.php?action_kouhyou_detail_004_kani=true&JigyosyoCd=2297200400-00&ServiceCd=540&Type=search", "url2": "http://www.seirei.or.jp/elderlyhome/wagou/elderly/facilities/hatsuoi-sate/index.html" }, "geometry": { "type": "Point", "coordinates": [ 137.734944400000046, 34.771236500000015 ] } },
{ "type": "Feature", "properties": { "内容": "地域密着型介護老人福祉施設こうこうの里【地域密着型介護老人福祉施設入所者生活介護】浜松市中央区入野町10825-1", "url": "https://www.kaigokensaku.mhlw.go.jp/22/index.php?action_kouhyou_detail_004_kani=true&JigyosyoCd=2297200764-00&ServiceCd=540&Type=search", "url2": "https://www.kouwakai-swc.com" }, "geometry": { "type": "Point", "coordinates": [ 137.67405798393591, 34.695596259772891 ] } },
{ "type": "Feature", "properties": { "内容": "小規模特養　彩【地域密着型介護老人福祉施設入所者生活介護】浜松市中央区大人見町3010-1", "url": "https://www.kaigokensaku.mhlw.go.jp/22/index.php?action_kouhyou_detail_004_kani=true&JigyosyoCd=2297100386-00&ServiceCd=540&Type=search", "url2": "https://shiraume.or.jp/" }, "geometry": { "type": "Point", "coordinates": [ 137.6590003, 34.7402657 ] } },
{ "type": "Feature", "properties": { "内容": "特別養護老人ホーム　サテライト新原【地域密着型介護老人福祉施設入所者生活介護】浜松市浜名区新原４３４０－１３", "url": "https://www.kaigokensaku.mhlw.go.jp/22/index.php?action_kouhyou_detail_004_kani=true&JigyosyoCd=2297200061-00&ServiceCd=540&Type=search", "url2": "http://www.daizen-f.com" }, "geometry": { "type": "Point", "coordinates": [ 137.756773484655668, 34.80887138481993 ] } },
{ "type": "Feature", "properties": { "内容": "小規模特別養護老人ホーム楓【地域密着型介護老人福祉施設入所者生活介護】東美薗1520", "url": "https://www.kaigokensaku.mhlw.go.jp/22/index.php?action_kouhyou_detail_004_kani=true&JigyosyoCd=2297200392-00&ServiceCd=540&Type=search", "url2": "https://hakuyoukai-kaede.jimdo.com" }, "geometry": { "type": "Point", "coordinates": [ 137.803800700000011, 34.8038723 ] } },
{ "type": "Feature", "properties": { "内容": "特別養護老人ホーム　サテライト天竜【地域密着型介護老人福祉施設入所者生活介護】静岡県　浜松市　天竜区　二俣町　南鹿島　5-1", "url": "https://www.kaigokensaku.mhlw.go.jp/22/index.php?action_kouhyou_detail_004_kani=true&JigyosyoCd=2297200038-00&ServiceCd=540&Type=search", "url2": "http://www.daizen-f.com" }, "geometry": { "type": "Point", "coordinates": [ 137.808747911639387, 34.840062814731283 ] } },
{ "type": "Feature", "properties": { "内容": "地域密着型特別養護老人ホームプレーゲあしたか【地域密着型介護老人福祉施設入所者生活介護】静岡県沼津市東椎路1639-1", "url": "https://www.kaigokensaku.mhlw.go.jp/22/index.php?action_kouhyou_detail_004_kani=true&JigyosyoCd=2291100135-00&ServiceCd=540&Type=search", "url2": "http://pflege-ashitaka@lake.ocn.ne.jp" }, "geometry": { "type": "Point", "coordinates": [ 138.832510500000012, 35.130311099999986 ] } },
{ "type": "Feature", "properties": { "内容": "地域密着型特別養護老人ホーム　ノアノアテラス【地域密着型介護老人福祉施設入所者生活介護】静岡県沼津市大平２８０４－１", "url": "https://www.kaigokensaku.mhlw.go.jp/22/index.php?action_kouhyou_detail_004_kani=true&JigyosyoCd=2291100192-00&ServiceCd=540&Type=search", "url2": "https://www.wellnesscare.or.jp" }, "geometry": { "type": "Point", "coordinates": [ 138.91071586506493, 35.069763487333582 ] } },
{ "type": "Feature", "properties": { "内容": "特別養護老人ホーム沼津南陽光園【地域密着型介護老人福祉施設入所者生活介護】静岡県沼津市下香貫浜田2985-1沼津南陽光園", "url": "https://www.kaigokensaku.mhlw.go.jp/22/index.php?action_kouhyou_detail_004_kani=true&JigyosyoCd=2291100333-00&ServiceCd=540&Type=search", "url2": "http://hakuju-kai.com" }, "geometry": { "type": "Point", "coordinates": [ 138.870077600000059, 35.0770552 ] } },
{ "type": "Feature", "properties": { "内容": "地域密着型介護老人福祉施設　柏葉尾苑【地域密着型介護老人福祉施設入所者生活介護】静岡県沼津市大岡3947-1", "url": "https://www.kaigokensaku.mhlw.go.jp/22/index.php?action_kouhyou_detail_004_kani=true&JigyosyoCd=2291100481-00&ServiceCd=540&Type=search", "url2": "https://care-net.biz/22/suruga/" }, "geometry": { "type": "Point", "coordinates": [ 138.8816578, 35.1379129 ] } },
{ "type": "Feature", "properties": { "内容": "玉澍園２【地域密着型介護老人福祉施設入所者生活介護】玉沢８０番地", "url": "https://www.kaigokensaku.mhlw.go.jp/22/index.php?action_kouhyou_detail_004_kani=true&JigyosyoCd=2290600085-00&ServiceCd=540&Type=search", "url2": "http://www.gyokujyuen@syafuku-izu.jp" }, "geometry": { "type": "Point", "coordinates": [ 138.960164500000019, 35.122264 ] } },
{ "type": "Feature", "properties": { "内容": "特別養護老人ホーム外神陽光園【地域密着型介護老人福祉施設入所者生活介護】静岡県富士宮市外神1638番地の1", "url": "https://www.kaigokensaku.mhlw.go.jp/22/index.php?action_kouhyou_detail_004_kani=true&JigyosyoCd=2292100092-00&ServiceCd=540&Type=search", "url2": "http://hakujukai-gp.jp/" }, "geometry": { "type": "Point", "coordinates": [ 138.594609, 35.257685 ] } },
{ "type": "Feature", "properties": { "内容": "特別養護老人ホームかりんの家【地域密着型介護老人福祉施設入所者生活介護】静岡県富士宮市大岩４９３番地の１", "url": "https://www.kaigokensaku.mhlw.go.jp/22/index.php?action_kouhyou_detail_004_kani=true&JigyosyoCd=2292100167-00&ServiceCd=540&Type=search", "url2": "https://www.onshinkai.org" }, "geometry": { "type": "Point", "coordinates": [ 138.630862383467075, 35.248039637382554 ] } },
{ "type": "Feature", "properties": { "内容": "地域密着型特別養護老人ホーム　百恵の郷【地域密着型介護老人福祉施設入所者生活介護】静岡県富士宮市大鹿窪143番地1", "url": "https://www.kaigokensaku.mhlw.go.jp/22/index.php?action_kouhyou_detail_004_kani=true&JigyosyoCd=2292100225-00&ServiceCd=540&Type=search", "url2": "http://s-koseikai.jp" }, "geometry": { "type": "Point", "coordinates": [ 138.556695399999967, 35.2533794 ] } },
{ "type": "Feature", "properties": { "内容": "地域複合施設ひより【地域密着型介護老人福祉施設入所者生活介護】静岡県富士宮市山宮２０５１番地の１", "url": "https://www.kaigokensaku.mhlw.go.jp/22/index.php?action_kouhyou_detail_004_kani=true&JigyosyoCd=2292100381-00&ServiceCd=540&Type=search", "url2": "https://furarahiyori.jimdo.com/" }, "geometry": { "type": "Point", "coordinates": [ 138.653926800000022, 35.2827175 ] } },
{ "type": "Feature", "properties": { "内容": "にしき【地域密着型介護老人福祉施設入所者生活介護】富士宮市錦町1番10号社会福祉法人錦心会特別養護老人ホームにしき", "url": "https://www.kaigokensaku.mhlw.go.jp/22/index.php?action_kouhyou_detail_004_kani=true&JigyosyoCd=2292100134-00&ServiceCd=540&Type=search", "url2": "http://kinshinkai.jp/" }, "geometry": { "type": "Point", "coordinates": [ 138.613993599999958, 35.220904 ] } },
{ "type": "Feature", "properties": { "内容": "特別養護老人ホームゆずの里【地域密着型介護老人福祉施設入所者生活介護】富戸１３０１番地の６９３", "url": "https://www.kaigokensaku.mhlw.go.jp/22/index.php?action_kouhyou_detail_004_kani=true&JigyosyoCd=2290400064-00&ServiceCd=540&Type=search", "url2": "https://www.yuzunosato.org/" }, "geometry": { "type": "Point", "coordinates": [ 139.138484265328998, 34.927886810830024 ] } },
{ "type": "Feature", "properties": { "内容": "特別養護老人ホームかたくら明和園【地域密着型介護老人福祉施設入所者生活介護】富士市大淵2710-1", "url": "https://www.kaigokensaku.mhlw.go.jp/22/index.php?action_kouhyou_detail_004_kani=true&JigyosyoCd=2292300130-00&ServiceCd=540&Type=search", "url2": "http://www.seishinkai.info" }, "geometry": { "type": "Point", "coordinates": [ 138.6787655, 35.1994781 ] } },
{ "type": "Feature", "properties": { "内容": "特別養護老人ホーム　松野の里【地域密着型介護老人福祉施設入所者生活介護】静岡県富士市南松野２６０４－１", "url": "https://www.kaigokensaku.mhlw.go.jp/22/index.php?action_kouhyou_detail_004_kani=true&JigyosyoCd=2292300262-00&ServiceCd=540&Type=search", "url2": "http://www.fujikouseikai.co.jp" }, "geometry": { "type": "Point", "coordinates": [ 138.601081300000033, 35.1819051 ] } },
{ "type": "Feature", "properties": { "内容": "特別養護老人ホーム　富士楽寿園【地域密着型介護老人福祉施設入所者生活介護】静岡県富士市大淵2087-1", "url": "https://www.kaigokensaku.mhlw.go.jp/22/index.php?action_kouhyou_detail_004_kani=true&JigyosyoCd=2292300726-00&ServiceCd=540&Type=search", "url2": "https://www.seishinkai.info/" }, "geometry": { "type": "Point", "coordinates": [ 138.685340669163111, 35.228479294892416 ] } },
{ "type": "Feature", "properties": { "内容": "小規模特別養護老人ホーム　みぎわ園【地域密着型介護老人福祉施設入所者生活介護】静岡県富士市今泉2210", "url": "https://www.kaigokensaku.mhlw.go.jp/22/index.php?action_kouhyou_detail_004_kani=true&JigyosyoCd=2292300486-00&ServiceCd=540&Type=search", "url2": "http://www.fuyoukai.org" }, "geometry": { "type": "Point", "coordinates": [ 138.686174599999958, 35.1723721 ] } },
{ "type": "Feature", "properties": { "内容": "小規模特別養護老人ホーム　丘ホーム【地域密着型介護老人福祉施設入所者生活介護】富士市厚原672-1", "url": "https://www.kaigokensaku.mhlw.go.jp/22/index.php?action_kouhyou_detail_004_kani=true&JigyosyoCd=2292300064-00&ServiceCd=540&Type=search", "url2": "http://shinai-kai.jp/" }, "geometry": { "type": "Point", "coordinates": [ 138.65965749999998, 35.1866621 ] } },
{ "type": "Feature", "properties": { "内容": "特別養護老人ホーム　ディアナの郷【地域密着型介護老人福祉施設入所者生活介護】静岡県富士市宮島1476番地", "url": "https://www.kaigokensaku.mhlw.go.jp/22/index.php?action_kouhyou_detail_004_kani=true&JigyosyoCd=2292300627-00&ServiceCd=540&Type=search", "url2": "http://kajimanosato.com/" }, "geometry": { "type": "Point", "coordinates": [ 138.656731630223362, 35.128991786743491 ] } },
{ "type": "Feature", "properties": { "内容": "特別養護老人ホーム　なかざと【地域密着型介護老人福祉施設入所者生活介護】静岡県富士市中里２５９３－５特別養護老人ホーム　なかざと", "url": "https://www.kaigokensaku.mhlw.go.jp/22/index.php?action_kouhyou_detail_004_kani=true&JigyosyoCd=2292300080-00&ServiceCd=540&Type=search", "url2": "http://www.fujikoseikai.or.jp" }, "geometry": { "type": "Point", "coordinates": [ 138.742313500000023, 35.142282 ] } },
{ "type": "Feature", "properties": { "内容": "地域密着型特別養護老人ホームあおば【地域密着型介護老人福祉施設入所者生活介護】静岡県富士市五味島285-1", "url": "https://www.kaigokensaku.mhlw.go.jp/22/index.php?action_kouhyou_detail_004_kani=true&JigyosyoCd=2292300437-00&ServiceCd=540&Type=search", "url2": "http://gakuyoukai.or.jp/tokuyo_aoba/" }, "geometry": { "type": "Point", "coordinates": [ 138.655419381649381, 35.167217085780337 ] } },
{ "type": "Feature", "properties": { "内容": "特別養護老人ホーム風の杜【地域密着型介護老人福祉施設入所者生活介護】静岡県富士市原田2030-1", "url": "https://www.kaigokensaku.mhlw.go.jp/22/index.php?action_kouhyou_detail_004_kani=true&JigyosyoCd=2292300452-00&ServiceCd=540&Type=search", "url2": "http://www.miyoshikai.or.jp/" }, "geometry": { "type": "Point", "coordinates": [ 138.707927700000027, 35.1685787 ] } },
{ "type": "Feature", "properties": { "内容": "特別養護老人ホーム福聚荘【地域密着型介護老人福祉施設入所者生活介護】静岡県焼津市大島649", "url": "https://www.kaigokensaku.mhlw.go.jp/22/index.php?action_kouhyou_detail_004_kani=true&JigyosyoCd=2295100081-00&ServiceCd=540&Type=search", "url2": "http://www.eiikukai.jp/" }, "geometry": { "type": "Point", "coordinates": [ 138.2822261, 34.8214597 ] } },
{ "type": "Feature", "properties": { "内容": "社会福祉法人浴光会　ぐみさわ苑【地域密着型介護老人福祉施設入所者生活介護】茱萸沢198-1", "url": "https://www.kaigokensaku.mhlw.go.jp/22/index.php?action_kouhyou_detail_004_kani=true&JigyosyoCd=2291200042-00&ServiceCd=540&Type=search", "url2": null }, "geometry": { "type": "Point", "coordinates": [ 138.923890799999981, 35.3147665 ] } },
{ "type": "Feature", "properties": { "内容": "地域密着型特別養護老人ホーム寿松園【地域密着型介護老人福祉施設入所者生活介護】静岡県湖西市岡崎602番地の1地域密着型特別養護老人ホーム寿松園", "url": "https://www.kaigokensaku.mhlw.go.jp/22/index.php?action_kouhyou_detail_004_kani=true&JigyosyoCd=2298400074-00&ServiceCd=540&Type=search", "url2": "https://jushouen.jp/" }, "geometry": { "type": "Point", "coordinates": [ 137.506129926722195, 34.726586014777737 ] } },
{ "type": "Feature", "properties": { "内容": "地域密着型特別養護老人ホーム　はまひるがお【地域密着型介護老人福祉施設入所者生活介護】御前崎市池新田460-1", "url": "https://www.kaigokensaku.mhlw.go.jp/22/index.php?action_kouhyou_detail_004_kani=true&JigyosyoCd=2295600015-00&ServiceCd=540&Type=search", "url2": "http://hamaokakouseikai.hp.gogo.jp" }, "geometry": { "type": "Point", "coordinates": [ 138.128057, 34.65428740000003 ] } },
{ "type": "Feature", "properties": { "内容": "社会福祉法人　春風会　プレーゲおおひと【地域密着型介護老人福祉施設入所者生活介護】静岡県伊豆の国市白山堂408-9プレーゲおおひと", "url": "https://www.kaigokensaku.mhlw.go.jp/22/index.php?action_kouhyou_detail_004_kani=true&JigyosyoCd=2290800040-00&ServiceCd=540&Type=search", "url2": "http://www.shunpuukai.com/" }, "geometry": { "type": "Point", "coordinates": [ 138.942981199999963, 35.0168399 ] } },
{ "type": "Feature", "properties": { "内容": "特別養護老人ホーム　グレイス【地域密着型介護老人福祉施設入所者生活介護】静岡県牧之原市坂部5623番地1", "url": "https://www.kaigokensaku.mhlw.go.jp/22/index.php?action_kouhyou_detail_004_kani=true&JigyosyoCd=2295800086-00&ServiceCd=540&Type=search", "url2": "http://www.yamabatogakuen.jp/grace.html" }, "geometry": { "type": "Point", "coordinates": [ 138.195653669311469, 34.778513597741281 ] } },
{ "type": "Feature", "properties": { "内容": "特別養護老人ホームすいせんの郷【地域密着型介護老人福祉施設入所者生活介護】静岡県牧之原市波津216-1", "url": "https://www.kaigokensaku.mhlw.go.jp/22/index.php?action_kouhyou_detail_004_kani=true&JigyosyoCd=2295800094-00&ServiceCd=540&Type=search", "url2": null }, "geometry": { "type": "Point", "coordinates": [ 138.191778800000066, 34.683403400000017 ] } },
{ "type": "Feature", "properties": { "内容": "平成の杜【地域密着型介護老人福祉施設入所者生活介護】静岡県駿東郡小山町小山255-2", "url": "https://www.kaigokensaku.mhlw.go.jp/22/index.php?action_kouhyou_detail_004_kani=true&JigyosyoCd=2291300024-00&ServiceCd=540&Type=search", "url2": "http://www18.ocn.ne.jp/^tokufuen/" }, "geometry": { "type": "Point", "coordinates": [ 138.98765149999997, 35.3557468 ] } },
{ "type": "Feature", "properties": { "内容": "よしだアスカの里【地域密着型介護老人福祉施設入所者生活介護】静岡県榛原郡吉田町川尻614-1", "url": "https://www.kaigokensaku.mhlw.go.jp/22/index.php?action_kouhyou_detail_004_kani=true&JigyosyoCd=2295500074-00&ServiceCd=540&Type=search", "url2": "http://www.keiai-fukushi.or.jp" }, "geometry": { "type": "Point", "coordinates": [ 138.262792965298445, 34.77476881691333 ] } },
{ "type": "Feature", "properties": { "内容": "森町愛光園天宮サテライト【地域密着型介護老人福祉施設入所者生活介護】静岡県周智郡森町天宮1350", "url": "https://www.kaigokensaku.mhlw.go.jp/22/index.php?action_kouhyou_detail_004_kani=true&JigyosyoCd=2296300037-00&ServiceCd=540&Type=search", "url2": "http://www.seirei.or.jp/elderlyhome/morimachi/" }, "geometry": { "type": "Point", "coordinates": [ 137.930257200000028, 34.8411516 ] } },
{ "type": "Feature", "properties": { "内容": "地域密着型森町愛光園【地域密着型介護老人福祉施設入所者生活介護】静岡県周智郡森町一宮3150番地", "url": "https://www.kaigokensaku.mhlw.go.jp/22/index.php?action_kouhyou_detail_004_kani=true&JigyosyoCd=2296300045-00&ServiceCd=540&Type=search", "url2": "http://www.seirei.or.jp/elderlyhome/morimachi/" }, "geometry": { "type": "Point", "coordinates": [ 137.891680800000017, 34.825561 ] } }
]
}
