{
"type": "FeatureCollection",
"name": "geo_22_介護医療院",
"crs": { "type": "name", "properties": { "name": "urn:ogc:def:crs:OGC:1.3:CRS84" } },
"features": [
{ "type": "Feature", "properties": { "内容": "静岡瀬名病院　介護医療院【介護医療院】静岡県静岡市葵区瀬名4629番地の1", "url": "https://www.kaigokensaku.mhlw.go.jp/22/index.php?action_kouhyou_detail_004_kani=true&JigyosyoCd=22B4200028-00&ServiceCd=550&Type=search", "url2": "https://kojinkai-iryou.com/senahp/" }, "geometry": { "type": "Point", "coordinates": [ 138.4276013, 35.035684 ] } },
{ "type": "Feature", "properties": { "内容": "静岡広野病院介護医療院【介護医療院】静岡市駿河区広野1494-8", "url": "https://www.kaigokensaku.mhlw.go.jp/22/index.php?action_kouhyou_detail_004_kani=true&JigyosyoCd=22B4200010-00&ServiceCd=550&Type=search", "url2": "https://kojinkai-iryou.com/hironohp/" }, "geometry": { "type": "Point", "coordinates": [ 138.376222200000029, 34.9278612 ] } },
{ "type": "Feature", "properties": { "内容": "静岡徳洲会病院　介護医療院　ゆうかりの木陰【介護医療院】静岡県静岡市駿河区下川原南１１番１号", "url": "https://www.kaigokensaku.mhlw.go.jp/22/index.php?action_kouhyou_detail_004_kani=true&JigyosyoCd=22B4200044-00&ServiceCd=550&Type=search", "url2": "https://www.shizutoku.jp/" }, "geometry": { "type": "Point", "coordinates": [ 138.384325700000034, 34.931514900000046 ] } },
{ "type": "Feature", "properties": { "内容": "山の上介護医療院【介護医療院】静岡県静岡市清水区草ヶ谷651番地の7", "url": "https://www.kaigokensaku.mhlw.go.jp/22/index.php?action_kouhyou_detail_004_kani=true&JigyosyoCd=22B4200036-00&ServiceCd=550&Type=search", "url2": "https://yamanoue-hospital.jp" }, "geometry": { "type": "Point", "coordinates": [ 138.4896206, 35.0524728 ] } },
{ "type": "Feature", "properties": { "内容": "介護医療院　有玉病院【介護医療院】静岡県浜松市中央区有玉南町1436番地", "url": "https://www.kaigokensaku.mhlw.go.jp/22/index.php?action_kouhyou_detail_004_kani=true&JigyosyoCd=22B7200116-00&ServiceCd=550&Type=search", "url2": "http://www.okazakikai.or.jp/" }, "geometry": { "type": "Point", "coordinates": [ 137.7535626, 34.7524622 ] } },
{ "type": "Feature", "properties": { "内容": "介護医療院　西山ナーシング【介護医療院】静岡県浜松市中央区西山町411-1", "url": "https://www.kaigokensaku.mhlw.go.jp/22/index.php?action_kouhyou_detail_004_kani=true&JigyosyoCd=22B7200025-00&ServiceCd=550&Type=search", "url2": "https://www.nishiyama.or.jp" }, "geometry": { "type": "Point", "coordinates": [ 137.689640599999962, 34.7364567 ] } },
{ "type": "Feature", "properties": { "内容": "介護医療院　西山病院【介護医療院】静岡県浜松市中央区西山町500番地", "url": "https://www.kaigokensaku.mhlw.go.jp/22/index.php?action_kouhyou_detail_004_kani=true&JigyosyoCd=22B7200090-00&ServiceCd=550&Type=search", "url2": "https://www.nishiyama.or.jp" }, "geometry": { "type": "Point", "coordinates": [ 137.688702513630687, 34.737058207957077 ] } },
{ "type": "Feature", "properties": { "内容": "医療法人社団和恵会　湖東ケアセンター【介護医療院】浜松市中央区伊左地町8151", "url": "https://www.kaigokensaku.mhlw.go.jp/22/index.php?action_kouhyou_detail_004_kani=true&JigyosyoCd=22B7200033-00&ServiceCd=550&Type=search", "url2": "http://www.kotou-wakiekai.com" }, "geometry": { "type": "Point", "coordinates": [ 137.654796, 34.7464783 ] } },
{ "type": "Feature", "properties": { "内容": "介護医療院　湖東病院【介護医療院】浜松市中央区伊左地町8151", "url": "https://www.kaigokensaku.mhlw.go.jp/22/index.php?action_kouhyou_detail_004_kani=true&JigyosyoCd=22B7200074-00&ServiceCd=550&Type=search", "url2": "http://www.kotou-wakeikai.com" }, "geometry": { "type": "Point", "coordinates": [ 137.654796, 34.7464783 ] } },
{ "type": "Feature", "properties": { "内容": "和恵会医療院【介護医療院】浜松市中央区入野町6413", "url": "https://www.kaigokensaku.mhlw.go.jp/22/index.php?action_kouhyou_detail_004_kani=true&JigyosyoCd=22B7200066-00&ServiceCd=550&Type=search", "url2": "http://www.kotou-wakeikai.com" }, "geometry": { "type": "Point", "coordinates": [ 137.68673027382701, 34.696703943341497 ] } },
{ "type": "Feature", "properties": { "内容": "和恵会ケアセンター【介護医療院】静岡県浜松市中央区入野町6413", "url": "https://www.kaigokensaku.mhlw.go.jp/22/index.php?action_kouhyou_detail_004_kani=true&JigyosyoCd=22B7200082-00&ServiceCd=550&Type=search", "url2": "http://www.kotou-wakeikai.com" }, "geometry": { "type": "Point", "coordinates": [ 137.68666, 34.6969564 ] } },
{ "type": "Feature", "properties": { "内容": "遠江病院介護医療院【介護医療院】浜松市浜名区中瀬3832-1", "url": "https://www.kaigokensaku.mhlw.go.jp/22/index.php?action_kouhyou_detail_004_kani=true&JigyosyoCd=22B7200108-00&ServiceCd=550&Type=search", "url2": "https://totomihp.com" }, "geometry": { "type": "Point", "coordinates": [ 137.811252003041091, 34.820101763400565 ] } },
{ "type": "Feature", "properties": { "内容": "医療法人社団　誠心会　介護医療院　浜北さくら台【介護医療院】浜松市浜名区四大地9-68", "url": "https://www.kaigokensaku.mhlw.go.jp/22/index.php?action_kouhyou_detail_004_kani=true&JigyosyoCd=22B7200058-00&ServiceCd=550&Type=search", "url2": "http://www.sakuradai.or.jp/" }, "geometry": { "type": "Point", "coordinates": [ 137.759317399999986, 34.8379995 ] } },
{ "type": "Feature", "properties": { "内容": "天竜すずかけ病院・介護医療院【介護医療院】二俣町二俣2396-56", "url": "https://www.kaigokensaku.mhlw.go.jp/22/index.php?action_kouhyou_detail_004_kani=true&JigyosyoCd=22B7200041-00&ServiceCd=550&Type=search", "url2": "https://www.suzukake.or.jp/tenryu/" }, "geometry": { "type": "Point", "coordinates": [ 137.8138457, 34.857156 ] } },
{ "type": "Feature", "properties": { "内容": "介護医療院　あしたか【介護医療院】222038静岡県沼津市今沢西畑３７２番5", "url": "https://www.kaigokensaku.mhlw.go.jp/22/index.php?action_kouhyou_detail_004_kani=true&JigyosyoCd=22B1100015-00&ServiceCd=550&Type=search", "url2": null }, "geometry": { "type": "Point", "coordinates": [ 138.81451, 35.120285 ] } },
{ "type": "Feature", "properties": { "内容": "新富士ケアセンター【介護医療院】静岡県富士市大淵3898-1", "url": "https://www.kaigokensaku.mhlw.go.jp/22/index.php?action_kouhyou_detail_004_kani=true&JigyosyoCd=22B2300010-00&ServiceCd=550&Type=search", "url2": "http://www.shinfuji.or.jp" }, "geometry": { "type": "Point", "coordinates": [ 138.6695183, 35.2159191 ] } },
{ "type": "Feature", "properties": { "内容": "介護医療院ひより【介護医療院】小立野135-1", "url": "https://www.kaigokensaku.mhlw.go.jp/22/index.php?action_kouhyou_detail_004_kani=true&JigyosyoCd=22B6900021-00&ServiceCd=550&Type=search", "url2": null }, "geometry": { "type": "Point", "coordinates": [ 137.819612400000011, 34.7271396 ] } },
{ "type": "Feature", "properties": { "内容": "白梅豊岡介護医療院【介護医療院】磐田市下神増185-19", "url": "https://www.kaigokensaku.mhlw.go.jp/22/index.php?action_kouhyou_detail_004_kani=true&JigyosyoCd=22B6900013-00&ServiceCd=550&Type=search", "url2": "https://www.shiraume.or.jp" }, "geometry": { "type": "Point", "coordinates": [ 137.837054099999989, 34.8071929 ] } },
{ "type": "Feature", "properties": { "内容": "駿河西病院　介護医療院【介護医療院】中根新田1315", "url": "https://www.kaigokensaku.mhlw.go.jp/22/index.php?action_kouhyou_detail_004_kani=true&JigyosyoCd=22B5100011-00&ServiceCd=550&Type=search", "url2": "http://www.suruga-nishi.com/" }, "geometry": { "type": "Point", "coordinates": [ 138.286918, 34.8291716 ] } },
{ "type": "Feature", "properties": { "内容": "掛川東病院　介護医療院【介護医療院】静岡県掛川市杉谷南1丁目1-1", "url": "https://www.kaigokensaku.mhlw.go.jp/22/index.php?action_kouhyou_detail_004_kani=true&JigyosyoCd=22B7400013-00&ServiceCd=550&Type=search", "url2": "www.kakegawa-higasi.com" }, "geometry": { "type": "Point", "coordinates": [ 138.0272033, 34.7619733 ] } },
{ "type": "Feature", "properties": { "内容": "医療法人社団　綾和会　掛川北病院　介護医療院【介護医療院】掛川市下垂木3350番地", "url": "https://www.kaigokensaku.mhlw.go.jp/22/index.php?action_kouhyou_detail_004_kani=true&JigyosyoCd=22B7400021-00&ServiceCd=550&Type=search", "url2": "http://www.ryouwa-kai.com/" }, "geometry": { "type": "Point", "coordinates": [ 137.9959968, 34.7871272 ] } },
{ "type": "Feature", "properties": { "内容": "介護医療院誠和藤枝病院【介護医療院】静岡県藤枝市中ノ合26-1", "url": "https://www.kaigokensaku.mhlw.go.jp/22/index.php?action_kouhyou_detail_004_kani=true&JigyosyoCd=22B5300017-00&ServiceCd=550&Type=search", "url2": "https://www.seiwa-fujieda.jp" }, "geometry": { "type": "Point", "coordinates": [ 138.2461564, 34.9089451 ] } },
{ "type": "Feature", "properties": { "内容": "医療法人社団清陽会　富士山麓病院介護医療院【介護医療院】静岡県御殿場市中畑字飯塚1932番地", "url": "https://www.kaigokensaku.mhlw.go.jp/22/index.php?action_kouhyou_detail_004_kani=true&JigyosyoCd=22B1200021-00&ServiceCd=550&Type=search", "url2": "http://www.ninchisyo.jp" }, "geometry": { "type": "Point", "coordinates": [ 138.885857767409959, 35.314099858806038 ] } },
{ "type": "Feature", "properties": { "内容": "一般財団法人神山復生会　神山復生病院介護医療院【介護医療院】静岡県御殿場市神山109番地", "url": "https://www.kaigokensaku.mhlw.go.jp/22/index.php?action_kouhyou_detail_004_kani=true&JigyosyoCd=22B1200013-00&ServiceCd=550&Type=search", "url2": "http:www.fukusei.jp" }, "geometry": { "type": "Point", "coordinates": [ 138.92282130000001, 35.2393103 ] } },
{ "type": "Feature", "properties": { "内容": "医療法人社団八洲会　介護医療院　袋井みつかわ病院【介護医療院】静岡県袋井市友永1111番地", "url": "https://www.kaigokensaku.mhlw.go.jp/22/index.php?action_kouhyou_detail_004_kani=true&JigyosyoCd=22B7300015-00&ServiceCd=550&Type=search", "url2": "http://www.mitsukawa-fukuroi.jp" }, "geometry": { "type": "Point", "coordinates": [ 137.88936549999994, 34.7998464 ] } },
{ "type": "Feature", "properties": { "内容": "医療法人社団　桑寿会　下田温泉病院介護医療院【介護医療院】静岡県下田市柿崎997-2", "url": "https://www.kaigokensaku.mhlw.go.jp/22/index.php?action_kouhyou_detail_004_kani=true&JigyosyoCd=22B0200014-00&ServiceCd=550&Type=search", "url2": null }, "geometry": { "type": "Point", "coordinates": [ 138.967411, 34.6722574 ] } },
{ "type": "Feature", "properties": { "内容": "医療法人社団榮紀会　東名裾野病院　介護医療院【介護医療院】御宿1472", "url": "https://www.kaigokensaku.mhlw.go.jp/22/index.php?action_kouhyou_detail_004_kani=true&JigyosyoCd=22B1400019-00&ServiceCd=550&Type=search", "url2": "eikikai.or.jp" }, "geometry": { "type": "Point", "coordinates": [ 138.9106416, 35.2125437 ] } },
{ "type": "Feature", "properties": { "内容": "浜名病院介護医療院【介護医療院】静岡県湖西市新所岡崎梅田入会地15番地の70浜名病院本館　5階", "url": "https://www.kaigokensaku.mhlw.go.jp/22/index.php?action_kouhyou_detail_004_kani=true&JigyosyoCd=22B8400012-00&ServiceCd=550&Type=search", "url2": "http://www.hamanakai.or.jp/" }, "geometry": { "type": "Point", "coordinates": [ 137.493442, 34.723602 ] } },
{ "type": "Feature", "properties": { "内容": "伊豆赤十字介護医療院【介護医療院】静岡県伊豆市小立野１００－２", "url": "https://www.kaigokensaku.mhlw.go.jp/22/index.php?action_kouhyou_detail_004_kani=true&JigyosyoCd=22B0700021-00&ServiceCd=550&Type=search", "url2": "http://izurckaigoiryouin.jp/" }, "geometry": { "type": "Point", "coordinates": [ 138.945357800000011, 34.976030700000024 ] } },
{ "type": "Feature", "properties": { "内容": "伊豆慶友介護医療院【介護医療院】静岡県伊豆市月ヶ瀬380-2", "url": "https://www.kaigokensaku.mhlw.go.jp/22/index.php?action_kouhyou_detail_004_kani=true&JigyosyoCd=22B0700013-00&ServiceCd=550&Type=search", "url2": "https://www.izukeiyu.jp/" }, "geometry": { "type": "Point", "coordinates": [ 138.924934196295169, 34.918198509590091 ] } },
{ "type": "Feature", "properties": { "内容": "医療法人社団同仁会　中島介護医療院【介護医療院】静岡県伊豆市松ヶ瀬７５", "url": "https://www.kaigokensaku.mhlw.go.jp/22/index.php?action_kouhyou_detail_004_kani=true&JigyosyoCd=22B0700039-00&ServiceCd=550&Type=search", "url2": "nakajimahospital.or.jp" }, "geometry": { "type": "Point", "coordinates": [ 138.9761422, 34.9963807 ] } },
{ "type": "Feature", "properties": { "内容": "伊豆平和病院　介護医療院【介護医療院】静岡県田方郡函南町平井1690-13", "url": "https://www.kaigokensaku.mhlw.go.jp/22/index.php?action_kouhyou_detail_004_kani=true&JigyosyoCd=22B0300012-00&ServiceCd=550&Type=search", "url2": "http://izuheiwa-hp.jp/" }, "geometry": { "type": "Point", "coordinates": [ 138.987423700000022, 35.1067566 ] } },
{ "type": "Feature", "properties": { "内容": "医療法人社団　八洲会　介護医療院　はいなん吉田病院【介護医療院】静岡県榛原郡吉田町神戸2571-6", "url": "https://www.kaigokensaku.mhlw.go.jp/22/index.php?action_kouhyou_detail_004_kani=true&JigyosyoCd=22B5500012-00&ServiceCd=550&Type=search", "url2": "https://www.hainan-yoshida.jp/" }, "geometry": { "type": "Point", "coordinates": [ 138.241918700000014, 34.7776198 ] } }
]
}
