{
"type": "FeatureCollection",
"name": "geo_22_訪問リハビリテーション",
"crs": { "type": "name", "properties": { "name": "urn:ogc:def:crs:OGC:1.3:CRS84" } },
"features": [
{ "type": "Feature", "properties": { "内容": "こみに訪問リハビリテーション【訪問リハビリテーション】静岡県静岡市葵区赤松８－１６", "url": "https://www.kaigokensaku.mhlw.go.jp/22/index.php?action_kouhyou_detail_004_kani=true&JigyosyoCd=2254180041-00&ServiceCd=140&Type=search", "url2": "www.communi.or.jp" }, "geometry": { "type": "Point", "coordinates": [ 138.396260200000029, 35.0248888 ] } },
{ "type": "Feature", "properties": { "内容": "介護老人保健施設あみ　（介護予防）訪問リハビリテーション【訪問リハビリテーション】静岡県静岡市葵区福田ヶ谷73-2", "url": "https://www.kaigokensaku.mhlw.go.jp/22/index.php?action_kouhyou_detail_004_kani=true&JigyosyoCd=2254180074-00&ServiceCd=140&Type=search", "url2": "http://www.shouei-kai.com" }, "geometry": { "type": "Point", "coordinates": [ 138.3797238, 35.0262133 ] } },
{ "type": "Feature", "properties": { "内容": "浜本整形訪問リハビリテーション【訪問リハビリテーション】静岡県静岡市葵区城北４０－５", "url": "https://www.kaigokensaku.mhlw.go.jp/22/index.php?action_kouhyou_detail_004_kani=true&JigyosyoCd=2214111581-00&ServiceCd=140&Type=search", "url2": "http://hamamotoseikei.com/" }, "geometry": { "type": "Point", "coordinates": [ 138.3952994, 35.0004314 ] } },
{ "type": "Feature", "properties": { "内容": "介護老人保健施設　静岡徳洲苑【訪問リハビリテーション】牧ケ谷811－15", "url": "https://www.kaigokensaku.mhlw.go.jp/22/index.php?action_kouhyou_detail_004_kani=true&JigyosyoCd=2254280213-00&ServiceCd=140&Type=search", "url2": "http://tokushuen.com/" }, "geometry": { "type": "Point", "coordinates": [ 138.352996, 34.9707163 ] } },
{ "type": "Feature", "properties": { "内容": "ケアセンター瀬名【訪問リハビリテーション】静岡市葵区長尾39番地の5", "url": "https://www.kaigokensaku.mhlw.go.jp/22/index.php?action_kouhyou_detail_004_kani=true&JigyosyoCd=2254180017-00&ServiceCd=140&Type=search", "url2": "http://kojinkai-iryou.com/caresena/" }, "geometry": { "type": "Point", "coordinates": [ 138.428126900000052, 35.0365392 ] } },
{ "type": "Feature", "properties": { "内容": "山梨整形外科付属介護リハビリテーション【訪問リハビリテーション】駒形通り2-7-22山梨整形外科", "url": "https://www.kaigokensaku.mhlw.go.jp/22/index.php?action_kouhyou_detail_004_kani=true&JigyosyoCd=2214111524-00&ServiceCd=140&Type=search", "url2": "http://www.yamanashi-seikei.jp/" }, "geometry": { "type": "Point", "coordinates": [ 138.378024099999948, 34.9687156 ] } },
{ "type": "Feature", "properties": { "内容": "城西クリニック【訪問リハビリテーション】鈴岡県静岡市葵区新富町５丁目７番地の６", "url": "https://www.kaigokensaku.mhlw.go.jp/22/index.php?action_kouhyou_detail_004_kani=true&JigyosyoCd=2214111623-00&ServiceCd=140&Type=search", "url2": "http://johsai-clinic.jp" }, "geometry": { "type": "Point", "coordinates": [ 138.3696248, 34.969796 ] } },
{ "type": "Feature", "properties": { "内容": "静岡リハビリテーション病院　訪問リハビリテーション科【訪問リハビリテーション】静岡県静岡市葵区新間318番地の1", "url": "https://www.kaigokensaku.mhlw.go.jp/22/index.php?action_kouhyou_detail_004_kani=true&JigyosyoCd=2214111763-00&ServiceCd=140&Type=search", "url2": "https://www.shizuoka-reha.com" }, "geometry": { "type": "Point", "coordinates": [ 138.308674494004094, 34.988046661626285 ] } },
{ "type": "Feature", "properties": { "内容": "訪問リハビリテーション事業所　テラ【訪問リハビリテーション】柚木90番地の1", "url": "https://www.kaigokensaku.mhlw.go.jp/22/index.php?action_kouhyou_detail_004_kani=true&JigyosyoCd=2274206586-00&ServiceCd=140&Type=search", "url2": "https://www.r-and-o.jp/shizuoka-hmcc/terra/" }, "geometry": { "type": "Point", "coordinates": [ 138.405621164834287, 34.980336530286323 ] } },
{ "type": "Feature", "properties": { "内容": "堀田内科医院【訪問リハビリテーション】静岡県静岡市駿河区宮竹1-4-7", "url": "https://www.kaigokensaku.mhlw.go.jp/22/index.php?action_kouhyou_detail_004_kani=true&JigyosyoCd=2214210466-00&ServiceCd=140&Type=search", "url2": "http://hottanaika.jp/" }, "geometry": { "type": "Point", "coordinates": [ 138.414501800000039, 34.9535956 ] } },
{ "type": "Feature", "properties": { "内容": "おおや整形外科クリニック訪問リハビリテーション【訪問リハビリテーション】静岡県静岡市駿河区片山8-15", "url": "https://www.kaigokensaku.mhlw.go.jp/22/index.php?action_kouhyou_detail_004_kani=true&JigyosyoCd=2214112043-00&ServiceCd=140&Type=search", "url2": "https://oya-seikei.com/" }, "geometry": { "type": "Point", "coordinates": [ 138.4231145, 34.9661473 ] } },
{ "type": "Feature", "properties": { "内容": "秀慈会訪問リハビリテーション【訪問リハビリテーション】静岡市駿河区西大谷１６-１白萩病院内リハビリ室", "url": "https://www.kaigokensaku.mhlw.go.jp/22/index.php?action_kouhyou_detail_004_kani=true&JigyosyoCd=2214210060-00&ServiceCd=140&Type=search", "url2": "https://www.shujikai.jp/" }, "geometry": { "type": "Point", "coordinates": [ 138.426382541209136, 34.951784077220047 ] } },
{ "type": "Feature", "properties": { "内容": "青島整形外科【訪問リハビリテーション】静岡市駿河区池田401-2", "url": "https://www.kaigokensaku.mhlw.go.jp/22/index.php?action_kouhyou_detail_004_kani=true&JigyosyoCd=2214210540-00&ServiceCd=140&Type=search", "url2": "http://meigokai.or.jp/" }, "geometry": { "type": "Point", "coordinates": [ 138.423466742436176, 34.986187608529619 ] } },
{ "type": "Feature", "properties": { "内容": "山の上病院　訪問リハビリテーション事業所【訪問リハビリテーション】草ヶ谷651番地の7", "url": "https://www.kaigokensaku.mhlw.go.jp/22/index.php?action_kouhyou_detail_004_kani=true&JigyosyoCd=2213210301-00&ServiceCd=140&Type=search", "url2": "http://www.yamanoue-hospital.jp/" }, "geometry": { "type": "Point", "coordinates": [ 138.489951799999972, 35.052478 ] } },
{ "type": "Feature", "properties": { "内容": "サルーテ・アリス訪問リハビリテーション【訪問リハビリテーション】草薙二丁目２４－１５", "url": "https://www.kaigokensaku.mhlw.go.jp/22/index.php?action_kouhyou_detail_004_kani=true&JigyosyoCd=2213210335-00&ServiceCd=140&Type=search", "url2": null }, "geometry": { "type": "Point", "coordinates": [ 138.445226, 35.0033826 ] } },
{ "type": "Feature", "properties": { "内容": "浦島メディカルクリニック訪問リハビリテーション【訪問リハビリテーション】静岡県静岡市清水区押切1620", "url": "https://www.kaigokensaku.mhlw.go.jp/22/index.php?action_kouhyou_detail_004_kani=true&JigyosyoCd=2214210730-00&ServiceCd=140&Type=search", "url2": "https://urashima-ryugu.com/rehabilicourt/" }, "geometry": { "type": "Point", "coordinates": [ 138.455132500000019, 35.0297077 ] } },
{ "type": "Feature", "properties": { "内容": "医療法人社団やわらぎ【訪問リハビリテーション】入野町19954-550", "url": "https://www.kaigokensaku.mhlw.go.jp/22/index.php?action_kouhyou_detail_004_kani=true&JigyosyoCd=2217111737-00&ServiceCd=140&Type=search", "url2": "http://www.なかむらクリニック.jp" }, "geometry": { "type": "Point", "coordinates": [ 137.6834771, 34.7027044 ] } },
{ "type": "Feature", "properties": { "内容": "シティークリニック【訪問リハビリテーション】静岡県浜松市中区砂山町329-1グランドガーデンボンサンテ1階Ａ", "url": "https://www.kaigokensaku.mhlw.go.jp/22/index.php?action_kouhyou_detail_004_kani=true&JigyosyoCd=2217210893-00&ServiceCd=140&Type=search", "url2": "http://city-clinic.jp.net/" }, "geometry": { "type": "Point", "coordinates": [ 137.737158200000067, 34.7032295 ] } },
{ "type": "Feature", "properties": { "内容": "医療法人社団　杢人会　たなか整形外科【訪問リハビリテーション】静岡県浜松市北区豊岡町398", "url": "https://www.kaigokensaku.mhlw.go.jp/22/index.php?action_kouhyou_detail_004_kani=true&JigyosyoCd=2217211107-00&ServiceCd=140&Type=search", "url2": "https://www.tanaka-seikeigeka.com" }, "geometry": { "type": "Point", "coordinates": [ 137.7307525, 34.7916141 ] } },
{ "type": "Feature", "properties": { "内容": "介護老人保健施設　三方原ベテルホーム　訪問リハビリテーション【訪問リハビリテーション】細江町中川7421-1介護老人保健施設　三方原ベテルホーム", "url": "https://www.kaigokensaku.mhlw.go.jp/22/index.php?action_kouhyou_detail_004_kani=true&JigyosyoCd=2258180021-00&ServiceCd=140&Type=search", "url2": "http://www.seirei.or.jp/elderlyhome/beteru/" }, "geometry": { "type": "Point", "coordinates": [ 137.6922475, 34.7905306 ] } },
{ "type": "Feature", "properties": { "内容": "かみや整形外科クリニック【訪問リハビリテーション】初生町381-1", "url": "https://www.kaigokensaku.mhlw.go.jp/22/index.php?action_kouhyou_detail_004_kani=true&JigyosyoCd=2217211297-00&ServiceCd=140&Type=search", "url2": "www.kamiya-seikei.com" }, "geometry": { "type": "Point", "coordinates": [ 137.728225899999984, 34.7640761 ] } },
{ "type": "Feature", "properties": { "内容": "たなか整形外科訪問リハビリ【訪問リハビリテーション】静岡県浜松市北区豊岡町398", "url": "https://www.kaigokensaku.mhlw.go.jp/22/index.php?action_kouhyou_detail_004_kani=true&JigyosyoCd=2217211818-00&ServiceCd=140&Type=search", "url2": "https://www.tanaka-seikeigeka.com/" }, "geometry": { "type": "Point", "coordinates": [ 137.7308214, 34.7915413 ] } },
{ "type": "Feature", "properties": { "内容": "JA静岡厚生連遠州病院訪問リハビリステーション【訪問リハビリテーション】浜松市中区中央一丁目1番1号", "url": "https://www.kaigokensaku.mhlw.go.jp/22/index.php?action_kouhyou_detail_004_kani=true&JigyosyoCd=2217110069-00&ServiceCd=140&Type=search", "url2": "enshuhomon@yahoo.co.jp" }, "geometry": { "type": "Point", "coordinates": [ 137.734641900000042, 34.7126344 ] } },
{ "type": "Feature", "properties": { "内容": "ハイマート有玉　訪問リハビリテーション【訪問リハビリテーション】静岡県浜松市中央区有玉南町1436番地", "url": "https://www.kaigokensaku.mhlw.go.jp/22/index.php?action_kouhyou_detail_004_kani=true&JigyosyoCd=2257280129-00&ServiceCd=140&Type=search", "url2": "http://www.okazakikai.or.jp/" }, "geometry": { "type": "Point", "coordinates": [ 137.7535626, 34.7524622 ] } },
{ "type": "Feature", "properties": { "内容": "藤野整形外科医院【訪問リハビリテーション】浜松市中区城北２丁目１５－１２", "url": "https://www.kaigokensaku.mhlw.go.jp/22/index.php?action_kouhyou_detail_004_kani=true&JigyosyoCd=2217105622-00&ServiceCd=140&Type=search", "url2": "http://www.fujino-seikeigeka.jp/" }, "geometry": { "type": "Point", "coordinates": [ 137.719417099999987, 34.7229665 ] } },
{ "type": "Feature", "properties": { "内容": "浜松南病院【訪問リハビリテーション】白羽町26", "url": "https://www.kaigokensaku.mhlw.go.jp/22/index.php?action_kouhyou_detail_004_kani=true&JigyosyoCd=2217210117-00&ServiceCd=140&Type=search", "url2": "http://www.hamamatsu-minami.com/" }, "geometry": { "type": "Point", "coordinates": [ 137.73922289999993, 34.6844411 ] } },
{ "type": "Feature", "properties": { "内容": "老人保健施設西山ウエルケア訪問リハビリテーション【訪問リハビリテーション】静岡県浜松市中央区西山町411-2", "url": "https://www.kaigokensaku.mhlw.go.jp/22/index.php?action_kouhyou_detail_004_kani=true&JigyosyoCd=2257180014-00&ServiceCd=140&Type=search", "url2": "http://www.nishiyama.or.jp" }, "geometry": { "type": "Point", "coordinates": [ 137.690338552778655, 34.736090984009763 ] } },
{ "type": "Feature", "properties": { "内容": "白梅ケアホーム【訪問リハビリテーション】静岡県浜松市中央区大人見町3011-1", "url": "https://www.kaigokensaku.mhlw.go.jp/22/index.php?action_kouhyou_detail_004_kani=true&JigyosyoCd=2257180030-00&ServiceCd=140&Type=search", "url2": "http://www.shiraume.or.jp/" }, "geometry": { "type": "Point", "coordinates": [ 137.658506100000039, 34.7402947 ] } },
{ "type": "Feature", "properties": { "内容": "平安の森記念病院　訪問リハビリテーション【訪問リハビリテーション】静岡県浜松市中央区八幡町181", "url": "https://www.kaigokensaku.mhlw.go.jp/22/index.php?action_kouhyou_detail_004_kani=true&JigyosyoCd=2217112008-00&ServiceCd=140&Type=search", "url2": "https://www.azumakai.or.jp" }, "geometry": { "type": "Point", "coordinates": [ 137.734563400000013, 34.7150331 ] } },
{ "type": "Feature", "properties": { "内容": "介護老人保健施設ケアセンター芳川【訪問リハビリテーション】静岡県浜松市中央区鼡野町24番地", "url": "https://www.kaigokensaku.mhlw.go.jp/22/index.php?action_kouhyou_detail_004_kani=true&JigyosyoCd=2257180105-00&ServiceCd=140&Type=search", "url2": "http://www.yamakawakai.net" }, "geometry": { "type": "Point", "coordinates": [ 137.7634616, 34.6785801 ] } },
{ "type": "Feature", "properties": { "内容": "白梅県居ケアホーム【訪問リハビリテーション】静岡県浜松市中央区東伊場二丁目14番35号", "url": "https://www.kaigokensaku.mhlw.go.jp/22/index.php?action_kouhyou_detail_004_kani=true&JigyosyoCd=2257280038-00&ServiceCd=140&Type=search", "url2": "https://www.shiraume.or.jp" }, "geometry": { "type": "Point", "coordinates": [ 137.71769919999997, 34.6975136 ] } },
{ "type": "Feature", "properties": { "内容": "訪問リハビリテーション大瀬【訪問リハビリテーション】浜松市中央区大瀬町1558", "url": "https://www.kaigokensaku.mhlw.go.jp/22/index.php?action_kouhyou_detail_004_kani=true&JigyosyoCd=2277103376-00&ServiceCd=140&Type=search", "url2": "http://www.hamamatsu-kb.or.jp/" }, "geometry": { "type": "Point", "coordinates": [ 137.766870899999958, 34.7555641 ] } },
{ "type": "Feature", "properties": { "内容": "介護老人保健施設　平安の森　訪問リハビリテーション【訪問リハビリテーション】静岡県浜松市中央区八幡町１８１番地介護法人保健施設　平安の森", "url": "https://www.kaigokensaku.mhlw.go.jp/22/index.php?action_kouhyou_detail_004_kani=true&JigyosyoCd=2277205551-00&ServiceCd=140&Type=search", "url2": "https://www.azumakai.or.jp" }, "geometry": { "type": "Point", "coordinates": [ 137.734573899999987, 34.7150588 ] } },
{ "type": "Feature", "properties": { "内容": "やまうち整形外科【訪問リハビリテーション】静岡県浜松市中央区曳馬5丁目4-48", "url": "https://www.kaigokensaku.mhlw.go.jp/22/index.php?action_kouhyou_detail_004_kani=true&JigyosyoCd=2217210927-00&ServiceCd=140&Type=search", "url2": "http://www.yamauchiseikei.jp/index.html" }, "geometry": { "type": "Point", "coordinates": [ 137.7391103, 34.7305243 ] } },
{ "type": "Feature", "properties": { "内容": "坂の上訪問リハビリテーション曳馬野【訪問リハビリテーション】静岡県浜松市中央区幸4-36-3", "url": "https://www.kaigokensaku.mhlw.go.jp/22/index.php?action_kouhyou_detail_004_kani=true&JigyosyoCd=2257280095-00&ServiceCd=140&Type=search", "url2": "http://www.sakanoue-fc.jp/facility/homevisit-rehabilitation/#hikumano" }, "geometry": { "type": "Point", "coordinates": [ 137.733012499999973, 34.745986500000022 ] } },
{ "type": "Feature", "properties": { "内容": "まつもと整形外科　通所・訪問リハビリテーション　松の実【訪問リハビリテーション】静岡県浜松市中央区天王町1671", "url": "https://www.kaigokensaku.mhlw.go.jp/22/index.php?action_kouhyou_detail_004_kani=true&JigyosyoCd=2217112099-00&ServiceCd=140&Type=search", "url2": "https://matumotoseikei.com/strength04/" }, "geometry": { "type": "Point", "coordinates": [ 137.7666575, 34.7339347 ] } },
{ "type": "Feature", "properties": { "内容": "白脇ケアセンター【訪問リハビリテーション】浜松市中央区白羽町１４２４", "url": "https://www.kaigokensaku.mhlw.go.jp/22/index.php?action_kouhyou_detail_004_kani=true&JigyosyoCd=2257180071-00&ServiceCd=140&Type=search", "url2": "http//www.kotou-wakeikai.com" }, "geometry": { "type": "Point", "coordinates": [ 137.727896099999953, 34.6785667 ] } },
{ "type": "Feature", "properties": { "内容": "ながつるのさと【訪問リハビリテーション】静岡県浜松市中央区長鶴町290", "url": "https://www.kaigokensaku.mhlw.go.jp/22/index.php?action_kouhyou_detail_004_kani=true&JigyosyoCd=2257180139-00&ServiceCd=140&Type=search", "url2": "http://www.nagatsuru.com" }, "geometry": { "type": "Point", "coordinates": [ 137.782813300000072, 34.714666799999989 ] } },
{ "type": "Feature", "properties": { "内容": "介護医療院　湖東病院【訪問リハビリテーション】浜松市中央区伊左地町8151", "url": "https://www.kaigokensaku.mhlw.go.jp/22/index.php?action_kouhyou_detail_004_kani=true&JigyosyoCd=22B7200074-00&ServiceCd=140&Type=search", "url2": "http://www.kotou-wakeikai.com" }, "geometry": { "type": "Point", "coordinates": [ 137.654796, 34.7464783 ] } },
{ "type": "Feature", "properties": { "内容": "訪問リハビリテーション田中整形【訪問リハビリテーション】板屋町１１０－５第一生命日通ビル２F", "url": "https://www.kaigokensaku.mhlw.go.jp/22/index.php?action_kouhyou_detail_004_kani=true&JigyosyoCd=2217112313-00&ServiceCd=140&Type=search", "url2": "http://www.tanaka-seikeigeka.jp" }, "geometry": { "type": "Point", "coordinates": [ 137.735275499999943, 34.706168400000031 ] } },
{ "type": "Feature", "properties": { "内容": "みずほケアセンター【訪問リハビリテーション】静岡県浜松市中央区高丘西2-32-36", "url": "https://www.kaigokensaku.mhlw.go.jp/22/index.php?action_kouhyou_detail_004_kani=true&JigyosyoCd=2257280061-00&ServiceCd=140&Type=search", "url2": "http://www.kotou-wakeikai.com/" }, "geometry": { "type": "Point", "coordinates": [ 137.700192799999968, 34.7603003 ] } },
{ "type": "Feature", "properties": { "内容": "浜松市リハビリテーション病院【訪問リハビリテーション】静岡県浜松市中央区和合北1-6-1", "url": "https://www.kaigokensaku.mhlw.go.jp/22/index.php?action_kouhyou_detail_004_kani=true&JigyosyoCd=2217111802-00&ServiceCd=140&Type=search", "url2": "https://www.hriha.jp/" }, "geometry": { "type": "Point", "coordinates": [ 137.719514900000036, 34.73776070000001 ] } },
{ "type": "Feature", "properties": { "内容": "新緑会　やまだ整形外科【訪問リハビリテーション】下江町457", "url": "https://www.kaigokensaku.mhlw.go.jp/22/index.php?action_kouhyou_detail_004_kani=true&JigyosyoCd=2217210406-00&ServiceCd=140&Type=search", "url2": "https://yamada-seikei.jp/" }, "geometry": { "type": "Point", "coordinates": [ 137.77138930000001, 34.679532199999983 ] } },
{ "type": "Feature", "properties": { "内容": "入野ケアセンター【訪問リハビリテーション】静岡県浜松市中央区入野町6417番地", "url": "https://www.kaigokensaku.mhlw.go.jp/22/index.php?action_kouhyou_detail_004_kani=true&JigyosyoCd=2257180055-00&ServiceCd=140&Type=search", "url2": "http://www.kotou-wakeikai.com/" }, "geometry": { "type": "Point", "coordinates": [ 137.68671310000002, 34.6975162 ] } },
{ "type": "Feature", "properties": { "内容": "みうら整形外科（介護予防）訪問リハビリテーション【訪問リハビリテーション】静岡県浜松市中央区和田町200番地1", "url": "https://www.kaigokensaku.mhlw.go.jp/22/index.php?action_kouhyou_detail_004_kani=true&JigyosyoCd=2217211073-00&ServiceCd=140&Type=search", "url2": "http://www.miura-seikei.com/" }, "geometry": { "type": "Point", "coordinates": [ 137.777310899999947, 34.7172829 ] } },
{ "type": "Feature", "properties": { "内容": "医療法人社団心　坂の上ファミリークリニック　訪問リハビリテーション事業所【訪問リハビリテーション】静岡県浜松市中中央区小豆餅4丁目4-20", "url": "https://www.kaigokensaku.mhlw.go.jp/22/index.php?action_kouhyou_detail_004_kani=true&JigyosyoCd=2217210208-00&ServiceCd=140&Type=search", "url2": "http://www.sakanoue-fc.jp/" }, "geometry": { "type": "Point", "coordinates": [ 137.732823400000029, 34.7505443 ] } },
{ "type": "Feature", "properties": { "内容": "引佐赤十字病院【訪問リハビリテーション】浜松市北区引佐町金指1020", "url": "https://www.kaigokensaku.mhlw.go.jp/22/index.php?action_kouhyou_detail_004_kani=true&JigyosyoCd=2218110043-00&ServiceCd=140&Type=search", "url2": "http://www.inasa.jrc.or.jp/" }, "geometry": { "type": "Point", "coordinates": [ 137.681944899999962, 34.8193964 ] } },
{ "type": "Feature", "properties": { "内容": "十全オアシスクリニック【訪問リハビリテーション】静岡県浜松市浜名区小松1680", "url": "https://www.kaigokensaku.mhlw.go.jp/22/index.php?action_kouhyou_detail_004_kani=true&JigyosyoCd=2217211552-00&ServiceCd=140&Type=search", "url2": "http://j-oasisclinic.com/j-oasisclinic.com/" }, "geometry": { "type": "Point", "coordinates": [ 137.765069436245767, 34.793283573270557 ] } },
{ "type": "Feature", "properties": { "内容": "みどりのまち整形外科【訪問リハビリテーション】静岡県浜松市浜名区横須賀592", "url": "https://www.kaigokensaku.mhlw.go.jp/22/index.php?action_kouhyou_detail_004_kani=true&JigyosyoCd=2217211677-00&ServiceCd=140&Type=search", "url2": "midorinomachi-seikei.com" }, "geometry": { "type": "Point", "coordinates": [ 137.793496, 34.7896092 ] } },
{ "type": "Feature", "properties": { "内容": "花平訪問リハビリテーション【訪問リハビリテーション】静岡県浜松市浜名区引佐町花平708", "url": "https://www.kaigokensaku.mhlw.go.jp/22/index.php?action_kouhyou_detail_004_kani=true&JigyosyoCd=2277206252-00&ServiceCd=140&Type=search", "url2": "http://www.hanadaira.com" }, "geometry": { "type": "Point", "coordinates": [ 137.6722054, 34.8460181 ] } },
{ "type": "Feature", "properties": { "内容": "北斗わかば病院訪問リハビリテーション【訪問リハビリテーション】静岡県浜松市浜名区於呂３１８１-１", "url": "https://www.kaigokensaku.mhlw.go.jp/22/index.php?action_kouhyou_detail_004_kani=true&JigyosyoCd=2217210059-00&ServiceCd=140&Type=search", "url2": "http://kaigo.hokut-wakaba.jp/" }, "geometry": { "type": "Point", "coordinates": [ 137.801957079762246, 34.82940563758784 ] } },
{ "type": "Feature", "properties": { "内容": "十全記念病院【訪問リハビリテーション】浜松市浜名区小松1700", "url": "https://www.kaigokensaku.mhlw.go.jp/22/index.php?action_kouhyou_detail_004_kani=true&JigyosyoCd=2217210471-00&ServiceCd=140&Type=search", "url2": "http://wwwjyuzen-byouin.com/" }, "geometry": { "type": "Point", "coordinates": [ 137.764058674699413, 34.792462123564405 ] } },
{ "type": "Feature", "properties": { "内容": "浜北さくら台病院　訪問リハビリテーション事業所【訪問リハビリテーション】浜松市浜名区四大地９－６８", "url": "https://www.kaigokensaku.mhlw.go.jp/22/index.php?action_kouhyou_detail_004_kani=true&JigyosyoCd=2218310262-00&ServiceCd=140&Type=search", "url2": "http://www.sakuradai.or.jp" }, "geometry": { "type": "Point", "coordinates": [ 137.759351400000014, 34.8379876 ] } },
{ "type": "Feature", "properties": { "内容": "医療法人弘遠会　天竜すずかけ病院【訪問リハビリテーション】静岡県浜松市天竜区二俣町二俣2396-56", "url": "https://www.kaigokensaku.mhlw.go.jp/22/index.php?action_kouhyou_detail_004_kani=true&JigyosyoCd=2216510061-00&ServiceCd=140&Type=search", "url2": "https://www.suzukake.or.jp" }, "geometry": { "type": "Point", "coordinates": [ 137.8138457, 34.857156 ] } },
{ "type": "Feature", "properties": { "内容": "はるのケアセンター訪問リハビリテーション【訪問リハビリテーション】浜松市天竜区春野町気田776-5", "url": "https://www.kaigokensaku.mhlw.go.jp/22/index.php?action_kouhyou_detail_004_kani=true&JigyosyoCd=2257280111-00&ServiceCd=140&Type=search", "url2": "https://www.koukyukai.jp/" }, "geometry": { "type": "Point", "coordinates": [ 137.9072138, 35.0064098 ] } },
{ "type": "Feature", "properties": { "内容": "えがわ医院　訪問リハビリテーション【訪問リハビリテーション】高島本町12-20えがわ医院", "url": "https://www.kaigokensaku.mhlw.go.jp/22/index.php?action_kouhyou_detail_004_kani=true&JigyosyoCd=2211103433-00&ServiceCd=140&Type=search", "url2": "http://egawaiin.com/" }, "geometry": { "type": "Point", "coordinates": [ 138.861225500000046, 35.1099387 ] } },
{ "type": "Feature", "properties": { "内容": "フジ高砂クリニック【訪問リハビリテーション】静岡県沼津市高砂町2-5", "url": "https://www.kaigokensaku.mhlw.go.jp/22/index.php?action_kouhyou_detail_004_kani=true&JigyosyoCd=2211110776-00&ServiceCd=140&Type=search", "url2": "http://www.hakuyu-kai.or.jp/takasago_cl/" }, "geometry": { "type": "Point", "coordinates": [ 138.857527900000036, 35.1307429 ] } },
{ "type": "Feature", "properties": { "内容": "公益財団法人復康会　沼津リハビリテーション病院【訪問リハビリテーション】上香貫蔓陀ヶ原2510-22", "url": "https://www.kaigokensaku.mhlw.go.jp/22/index.php?action_kouhyou_detail_004_kani=true&JigyosyoCd=2211110099-00&ServiceCd=140&Type=search", "url2": "https://www.fukkou-kai.jp/nrh/index.html" }, "geometry": { "type": "Point", "coordinates": [ 138.8837727, 35.0653905 ] } },
{ "type": "Feature", "properties": { "内容": "さとやま整形外科内科【訪問リハビリテーション】静岡県沼津市東原560-1", "url": "https://www.kaigokensaku.mhlw.go.jp/22/index.php?action_kouhyou_detail_004_kani=true&JigyosyoCd=2211110958-00&ServiceCd=140&Type=search", "url2": "https://www.satoyama2.jp" }, "geometry": { "type": "Point", "coordinates": [ 138.8635399, 35.0956068 ] } },
{ "type": "Feature", "properties": { "内容": "瀬尾記念慶友病院【訪問リハビリテーション】静岡県沼津市下香貫島郷2773-1", "url": "https://www.kaigokensaku.mhlw.go.jp/22/index.php?action_kouhyou_detail_004_kani=true&JigyosyoCd=2211110966-00&ServiceCd=140&Type=search", "url2": "https://www.seomh.net/" }, "geometry": { "type": "Point", "coordinates": [ 138.8721008, 35.0749727 ] } },
{ "type": "Feature", "properties": { "内容": "服部医院【訪問リハビリテーション】熱海市網代４６２－８", "url": "https://www.kaigokensaku.mhlw.go.jp/22/index.php?action_kouhyou_detail_004_kani=true&JigyosyoCd=2210510158-00&ServiceCd=140&Type=search", "url2": "http://httr.jp" }, "geometry": { "type": "Point", "coordinates": [ 139.092855500000042, 35.0493943 ] } },
{ "type": "Feature", "properties": { "内容": "医療法人社団律昌会　さくら醫院【訪問リハビリテーション】清水町17-11", "url": "https://www.kaigokensaku.mhlw.go.jp/22/index.php?action_kouhyou_detail_004_kani=true&JigyosyoCd=2210510398-00&ServiceCd=140&Type=search", "url2": "www.sakura-iin.jp" }, "geometry": { "type": "Point", "coordinates": [ 139.069377075045708, 35.094214056553596 ] } },
{ "type": "Feature", "properties": { "内容": "熱海所記念病院【訪問リハビリテーション】静岡県熱海市昭和町２０－２０", "url": "https://www.kaigokensaku.mhlw.go.jp/22/index.php?action_kouhyou_detail_004_kani=true&JigyosyoCd=2210510182-00&ServiceCd=140&Type=search", "url2": "https://atami-tokoro.jp/rehabili/" }, "geometry": { "type": "Point", "coordinates": [ 139.0685244, 35.0915241 ] } },
{ "type": "Feature", "properties": { "内容": "国際医療福祉大学熱海病院【訪問リハビリテーション】静岡県熱海市東海岸町13-1", "url": "https://www.kaigokensaku.mhlw.go.jp/22/index.php?action_kouhyou_detail_004_kani=true&JigyosyoCd=2210510265-00&ServiceCd=140&Type=search", "url2": "http://atami.iuhw.ac.jp/" }, "geometry": { "type": "Point", "coordinates": [ 139.083559299999934, 35.1036783 ] } },
{ "type": "Feature", "properties": { "内容": "医療法人社団　伊豆七海会　熱海　海の見える病院　訪問リハビリテーション事業所【訪問リハビリテーション】静岡県熱海市熱海字上ノ山1843-1", "url": "https://www.kaigokensaku.mhlw.go.jp/22/index.php?action_kouhyou_detail_004_kani=true&JigyosyoCd=2210510380-00&ServiceCd=140&Type=search", "url2": "https://www.tmg.or.jp/uminomieru/" }, "geometry": { "type": "Point", "coordinates": [ 139.0488849, 35.0951298 ] } },
{ "type": "Feature", "properties": { "内容": "訪問リハビリテーション梅名の里【訪問リハビリテーション】三島市梅名５７８", "url": "https://www.kaigokensaku.mhlw.go.jp/22/index.php?action_kouhyou_detail_004_kani=true&JigyosyoCd=2250680010-00&ServiceCd=140&Type=search", "url2": "http://www.umenanosato.com/" }, "geometry": { "type": "Point", "coordinates": [ 138.923246, 35.0977851 ] } },
{ "type": "Feature", "properties": { "内容": "みしまちゅうおうびょういん【訪問リハビリテーション】静岡県三島市緑町1-3", "url": "https://www.kaigokensaku.mhlw.go.jp/22/index.php?action_kouhyou_detail_004_kani=true&JigyosyoCd=2210610362-00&ServiceCd=140&Type=search", "url2": "http://mchp.or.jp/" }, "geometry": { "type": "Point", "coordinates": [ 138.912385204893496, 35.117384862999643 ] } },
{ "type": "Feature", "properties": { "内容": "医療法人　社団　三島慈生会【訪問リハビリテーション】静岡県三島市萩１８８", "url": "https://www.kaigokensaku.mhlw.go.jp/22/index.php?action_kouhyou_detail_004_kani=true&JigyosyoCd=2210610321-00&ServiceCd=140&Type=search", "url2": null }, "geometry": { "type": "Point", "coordinates": [ 138.908044600000039, 35.1482883 ] } },
{ "type": "Feature", "properties": { "内容": "いづの里クリニック【訪問リハビリテーション】静岡県三島市松本294－3", "url": "https://www.kaigokensaku.mhlw.go.jp/22/index.php?action_kouhyou_detail_004_kani=true&JigyosyoCd=2210610636-00&ServiceCd=140&Type=search", "url2": "https://idunosato-cl.jp/" }, "geometry": { "type": "Point", "coordinates": [ 138.916832699999986, 35.0925301 ] } },
{ "type": "Feature", "properties": { "内容": "医療法人社団福仁会　三島東海病院【訪問リハビリテーション】静岡県三島市川原ヶ谷264-12", "url": "https://www.kaigokensaku.mhlw.go.jp/22/index.php?action_kouhyou_detail_004_kani=true&JigyosyoCd=2210610230-00&ServiceCd=140&Type=search", "url2": "http://www.mishimatohkaihp.or.jp/" }, "geometry": { "type": "Point", "coordinates": [ 138.933547199999964, 35.1232356 ] } },
{ "type": "Feature", "properties": { "内容": "富士宮市立病院【訪問リハビリテーション】静岡県富士宮市錦町3番1号富士宮市立病院", "url": "https://www.kaigokensaku.mhlw.go.jp/22/index.php?action_kouhyou_detail_004_kani=true&JigyosyoCd=2212110098-00&ServiceCd=140&Type=search", "url2": "http://fujinomiya-hp.jp/" }, "geometry": { "type": "Point", "coordinates": [ 138.615143499999931, 35.219943 ] } },
{ "type": "Feature", "properties": { "内容": "医療法人社団鵬友会フジヤマ病院【訪問リハビリテーション】静岡県富士宮市原６８３番地の１", "url": "https://www.kaigokensaku.mhlw.go.jp/22/index.php?action_kouhyou_detail_004_kani=true&JigyosyoCd=2212110577-00&ServiceCd=140&Type=search", "url2": "https://www.fujiyama-hosp.com" }, "geometry": { "type": "Point", "coordinates": [ 138.583161100000012, 35.3144863 ] } },
{ "type": "Feature", "properties": { "内容": "一般財団法人　富士脳障害研究所附属病院【訪問リハビリテーション】静岡県富士宮市杉田２７０－１２", "url": "https://www.kaigokensaku.mhlw.go.jp/22/index.php?action_kouhyou_detail_004_kani=true&JigyosyoCd=2212110163-00&ServiceCd=140&Type=search", "url2": "http://www.fuji-nouken.or.jp/" }, "geometry": { "type": "Point", "coordinates": [ 138.663459500000044, 35.2126118 ] } },
{ "type": "Feature", "properties": { "内容": "伊豆高原メディカル　たかやなぎ整形外科【訪問リハビリテーション】静岡県伊東市八幡野1191‐6", "url": "https://www.kaigokensaku.mhlw.go.jp/22/index.php?action_kouhyou_detail_004_kani=true&JigyosyoCd=2210410334-00&ServiceCd=140&Type=search", "url2": null }, "geometry": { "type": "Point", "coordinates": [ 139.103733, 34.8768418 ] } },
{ "type": "Feature", "properties": { "内容": "医療法人社団いずみ会　メディカルはば伊豆高原みなし訪問リハビリテーション【訪問リハビリテーション】静岡県伊東市富戸1317-4117", "url": "https://www.kaigokensaku.mhlw.go.jp/22/index.php?action_kouhyou_detail_004_kani=true&JigyosyoCd=2210410243-00&ServiceCd=140&Type=search", "url2": "http://www.medical-haba.org/" }, "geometry": { "type": "Point", "coordinates": [ 139.108018926983618, 34.899702719058361 ] } },
{ "type": "Feature", "properties": { "内容": "訪問リハビリテーション事業所　エコトープ【訪問リハビリテーション】島田市島534-1", "url": "https://www.kaigokensaku.mhlw.go.jp/22/index.php?action_kouhyou_detail_004_kani=true&JigyosyoCd=2255580017-00&ServiceCd=140&Type=search", "url2": "http://www.ecotope.jp" }, "geometry": { "type": "Point", "coordinates": [ 138.126009899999985, 34.8421675 ] } },
{ "type": "Feature", "properties": { "内容": "島田市立総合医療センター【訪問リハビリテーション】静岡県島田市野田1200－5", "url": "https://www.kaigokensaku.mhlw.go.jp/22/index.php?action_kouhyou_detail_004_kani=true&JigyosyoCd=2215460078-00&ServiceCd=140&Type=search", "url2": "http://www.municipal-hospital.shimada.shizuoka.jp/index.html" }, "geometry": { "type": "Point", "coordinates": [ 138.183168199999955, 34.8461374 ] } },
{ "type": "Feature", "properties": { "内容": "富士いきいき病院【訪問リハビリテーション】富士市天間1640-1", "url": "https://www.kaigokensaku.mhlw.go.jp/22/index.php?action_kouhyou_detail_004_kani=true&JigyosyoCd=2212310805-00&ServiceCd=140&Type=search", "url2": "http://www.iki-iki-hp.com" }, "geometry": { "type": "Point", "coordinates": [ 138.65125809999995, 35.2086954 ] } },
{ "type": "Feature", "properties": { "内容": "富士中央ケアセンター　訪問リハビリテーション【訪問リハビリテーション】静岡県富士市厚原372-1", "url": "https://www.kaigokensaku.mhlw.go.jp/22/index.php?action_kouhyou_detail_004_kani=true&JigyosyoCd=2252380064-00&ServiceCd=140&Type=search", "url2": "https://www.syuuseikai.or.jp/" }, "geometry": { "type": "Point", "coordinates": [ 138.657308300000011, 35.180696 ] } },
{ "type": "Feature", "properties": { "内容": "医療法人財団百葉の会　湖山リハビリテーション病院【訪問リハビリテーション】富士市大渕405番地25", "url": "https://www.kaigokensaku.mhlw.go.jp/22/index.php?action_kouhyou_detail_004_kani=true&JigyosyoCd=2212310599-00&ServiceCd=140&Type=search", "url2": "http://www.momoha.or.jp" }, "geometry": { "type": "Point", "coordinates": [ 138.696839299999965, 35.1961223 ] } },
{ "type": "Feature", "properties": { "内容": "医療法人社団　英志会　富士整形外科病院【訪問リハビリテーション】静岡県富士市錦町1丁目4番地23号富士整形外科病院", "url": "https://www.kaigokensaku.mhlw.go.jp/22/index.php?action_kouhyou_detail_004_kani=true&JigyosyoCd=2212310144-00&ServiceCd=140&Type=search", "url2": "http://www.fujiseikei.com" }, "geometry": { "type": "Point", "coordinates": [ 138.6793533, 35.1595571 ] } },
{ "type": "Feature", "properties": { "内容": "医療法人社団　悠育会　みつけ整形外科【訪問リハビリテーション】静岡県磐田市見付1852-16みつけ整形外科", "url": "https://www.kaigokensaku.mhlw.go.jp/22/index.php?action_kouhyou_detail_004_kani=true&JigyosyoCd=2216910097-00&ServiceCd=140&Type=search", "url2": "mitsuke-seikei.jp" }, "geometry": { "type": "Point", "coordinates": [ 137.859600399999977, 34.7362503 ] } },
{ "type": "Feature", "properties": { "内容": "和田整形外科・外科医院【訪問リハビリテーション】磐田市富士見町1－11－13", "url": "https://www.kaigokensaku.mhlw.go.jp/22/index.php?action_kouhyou_detail_004_kani=true&JigyosyoCd=2216710141-00&ServiceCd=140&Type=search", "url2": "http://www.wadaseikeigeka.com/" }, "geometry": { "type": "Point", "coordinates": [ 137.868697200000042, 34.7304216 ] } },
{ "type": "Feature", "properties": { "内容": "豊田えいせい病院訪問リハビリテーション【訪問リハビリテーション】磐田市小立野132番地", "url": "https://www.kaigokensaku.mhlw.go.jp/22/index.php?action_kouhyou_detail_004_kani=true&JigyosyoCd=2216610366-00&ServiceCd=140&Type=search", "url2": "https://eisei-hospital.jp/" }, "geometry": { "type": "Point", "coordinates": [ 137.82063127686007, 34.727518157439171 ] } },
{ "type": "Feature", "properties": { "内容": "医療法人社団　国府台整形外科リハビリテーションセンター【訪問リハビリテーション】静岡県磐田市国府台41-32", "url": "https://www.kaigokensaku.mhlw.go.jp/22/index.php?action_kouhyou_detail_004_kani=true&JigyosyoCd=2216710216-00&ServiceCd=140&Type=search", "url2": "www.konodai-op.com" }, "geometry": { "type": "Point", "coordinates": [ 137.850236, 34.7203122 ] } },
{ "type": "Feature", "properties": { "内容": "白梅豊岡病院【訪問リハビリテーション】下神増185番地19", "url": "https://www.kaigokensaku.mhlw.go.jp/22/index.php?action_kouhyou_detail_004_kani=true&JigyosyoCd=2276900970-00&ServiceCd=140&Type=search", "url2": "https://www.shiraume.or.jp" }, "geometry": { "type": "Point", "coordinates": [ 137.837297499999977, 34.8071816 ] } },
{ "type": "Feature", "properties": { "内容": "訪問リハビリテーション五洋の里【訪問リハビリテーション】磐田市掛塚3190-1", "url": "https://www.kaigokensaku.mhlw.go.jp/22/index.php?action_kouhyou_detail_004_kani=true&JigyosyoCd=2256980026-00&ServiceCd=140&Type=search", "url2": "http://toyugokokai.com/" }, "geometry": { "type": "Point", "coordinates": [ 137.802963299999988, 34.6655609 ] } },
{ "type": "Feature", "properties": { "内容": "医療法人社団　明徳会　新都市病院【訪問リハビリテーション】中泉御殿703", "url": "https://www.kaigokensaku.mhlw.go.jp/22/index.php?action_kouhyou_detail_004_kani=true&JigyosyoCd=2216910030-00&ServiceCd=140&Type=search", "url2": "https://www.shintoshi-hosp.com/" }, "geometry": { "type": "Point", "coordinates": [ 137.8524501, 34.7087829 ] } },
{ "type": "Feature", "properties": { "内容": "ハートセンター磐田【訪問リハビリテーション】静岡県磐田市見付1819番地91", "url": "https://www.kaigokensaku.mhlw.go.jp/22/index.php?action_kouhyou_detail_004_kani=true&JigyosyoCd=2216910089-00&ServiceCd=140&Type=search", "url2": "https://www.heartcenter-iwata.com/" }, "geometry": { "type": "Point", "coordinates": [ 137.858398599999987, 34.74048 ] } },
{ "type": "Feature", "properties": { "内容": "磐田在宅医療クリニック【訪問リハビリテーション】静岡県磐田市見付1752-5", "url": "https://www.kaigokensaku.mhlw.go.jp/22/index.php?action_kouhyou_detail_004_kani=true&JigyosyoCd=2216910220-00&ServiceCd=140&Type=search", "url2": "http//www.iwata-zaitaku.com" }, "geometry": { "type": "Point", "coordinates": [ 137.857134300000013, 34.7474345 ] } },
{ "type": "Feature", "properties": { "内容": "駿河西病院訪問リハビリテーション【訪問リハビリテーション】中根新田1315番地駿河西病院１階", "url": "https://www.kaigokensaku.mhlw.go.jp/22/index.php?action_kouhyou_detail_004_kani=true&JigyosyoCd=2215110202-00&ServiceCd=140&Type=search", "url2": "www.ryouwa-kai.com" }, "geometry": { "type": "Point", "coordinates": [ 138.286914300000035, 34.8291035 ] } },
{ "type": "Feature", "properties": { "内容": "おおとみリウマチ整形外科【訪問リハビリテーション】静岡県焼津市中新田1-1", "url": "https://www.kaigokensaku.mhlw.go.jp/22/index.php?action_kouhyou_detail_004_kani=true&JigyosyoCd=2215101375-00&ServiceCd=140&Type=search", "url2": "www.otomi.jp/?mode=pc" }, "geometry": { "type": "Point", "coordinates": [ 138.295149, 34.838941 ] } },
{ "type": "Feature", "properties": { "内容": "医療法人社団　綾和会　掛川北病院【訪問リハビリテーション】掛川市下垂木３３５０番地", "url": "https://www.kaigokensaku.mhlw.go.jp/22/index.php?action_kouhyou_detail_004_kani=true&JigyosyoCd=2216210258-00&ServiceCd=140&Type=search", "url2": "http://www.ryouwa-kai.com/" }, "geometry": { "type": "Point", "coordinates": [ 137.9967225, 34.7868547 ] } },
{ "type": "Feature", "properties": { "内容": "あおばケアガーデン訪問リハビリテーション【訪問リハビリテーション】静岡県掛川市大渕４３４５番地", "url": "https://www.kaigokensaku.mhlw.go.jp/22/index.php?action_kouhyou_detail_004_kani=true&JigyosyoCd=2256180023-00&ServiceCd=140&Type=search", "url2": "http://www.aoba-caregarden-mc.com/" }, "geometry": { "type": "Point", "coordinates": [ 138.01641840000002, 34.6694933 ] } },
{ "type": "Feature", "properties": { "内容": "介護老人保健施設エバーグリーン掛川【訪問リハビリテーション】静岡県掛川市大池680", "url": "https://www.kaigokensaku.mhlw.go.jp/22/index.php?action_kouhyou_detail_004_kani=true&JigyosyoCd=2256280013-00&ServiceCd=140&Type=search", "url2": "http://evergreenkakegawa.com/" }, "geometry": { "type": "Point", "coordinates": [ 137.9876382, 34.7753376 ] } },
{ "type": "Feature", "properties": { "内容": "掛川東病院【訪問リハビリテーション】杉谷南1-1-1掛川東病院", "url": "https://www.kaigokensaku.mhlw.go.jp/22/index.php?action_kouhyou_detail_004_kani=true&JigyosyoCd=2217410105-00&ServiceCd=140&Type=search", "url2": "http://www.kakegawa-higashi.com/" }, "geometry": { "type": "Point", "coordinates": [ 138.025785199999973, 34.7635315 ] } },
{ "type": "Feature", "properties": { "内容": "坂本整形外科【訪問リハビリテーション】掛川市下俣６９番地の１７", "url": "https://www.kaigokensaku.mhlw.go.jp/22/index.php?action_kouhyou_detail_004_kani=true&JigyosyoCd=2216210175-00&ServiceCd=140&Type=search", "url2": "https://www.komatsuseikei.com/" }, "geometry": { "type": "Point", "coordinates": [ 138.003429073016406, 34.773486448776715 ] } },
{ "type": "Feature", "properties": { "内容": "ユニケア岡部訪問リハビリテーション【訪問リハビリテーション】岡部町内谷1473-3", "url": "https://www.kaigokensaku.mhlw.go.jp/22/index.php?action_kouhyou_detail_004_kani=true&JigyosyoCd=2275301790-00&ServiceCd=140&Type=search", "url2": "https://www.e-miwasan.com" }, "geometry": { "type": "Point", "coordinates": [ 138.288237799999933, 34.9069849 ] } },
{ "type": "Feature", "properties": { "内容": "藤枝平成記念病院　訪問リハビリテーション【訪問リハビリテーション】藤枝市水上123‐１", "url": "https://www.kaigokensaku.mhlw.go.jp/22/index.php?action_kouhyou_detail_004_kani=true&JigyosyoCd=2215310224-00&ServiceCd=140&Type=search", "url2": "http://www.heiseihp.com" }, "geometry": { "type": "Point", "coordinates": [ 138.242949239286872, 34.854077968414686 ] } },
{ "type": "Feature", "properties": { "内容": "訪問リハビリセンター　フォレスタ藤枝【訪問リハビリテーション】藤枝市小石川町２－８－１３", "url": "https://www.kaigokensaku.mhlw.go.jp/22/index.php?action_kouhyou_detail_004_kani=true&JigyosyoCd=2255380038-00&ServiceCd=140&Type=search", "url2": "http://www.forestafujieda.jp/" }, "geometry": { "type": "Point", "coordinates": [ 138.256497699999954, 34.8567267 ] } },
{ "type": "Feature", "properties": { "内容": "医療法人社団聖稜会　聖稜リハビリテーション病院【訪問リハビリテーション】静岡県藤枝市宮原676-1", "url": "https://www.kaigokensaku.mhlw.go.jp/22/index.php?action_kouhyou_detail_004_kani=true&JigyosyoCd=2215310281-00&ServiceCd=140&Type=search", "url2": "https://www.seiryoukai.or.jp" }, "geometry": { "type": "Point", "coordinates": [ 138.205196500000056, 34.8973809 ] } },
{ "type": "Feature", "properties": { "内容": "訪問リハビリ　ゆめ広場【訪問リハビリテーション】静岡県藤枝市青葉町2丁目1-47", "url": "https://www.kaigokensaku.mhlw.go.jp/22/index.php?action_kouhyou_detail_004_kani=true&JigyosyoCd=2215310661-00&ServiceCd=140&Type=search", "url2": "https://nishikino.net/" }, "geometry": { "type": "Point", "coordinates": [ 138.246545200000014, 34.8456916 ] } },
{ "type": "Feature", "properties": { "内容": "介護老人保健施設あすなろ　訪問リハビリテーション【訪問リハビリテーション】御殿場市川島田１０７６－２", "url": "https://www.kaigokensaku.mhlw.go.jp/22/index.php?action_kouhyou_detail_004_kani=true&JigyosyoCd=2251280026-00&ServiceCd=140&Type=search", "url2": "http://www.toranomon.or.jp/" }, "geometry": { "type": "Point", "coordinates": [ 138.918401852114783, 35.295666379037854 ] } },
{ "type": "Feature", "properties": { "内容": "みつはし医院訪問リハビリテーション【訪問リハビリテーション】袋井市川井８６０－１", "url": "https://www.kaigokensaku.mhlw.go.jp/22/index.php?action_kouhyou_detail_004_kani=true&JigyosyoCd=2216410098-00&ServiceCd=140&Type=search", "url2": "http://www.fukuju-kai.or.jp/" }, "geometry": { "type": "Point", "coordinates": [ 137.91329989999997, 34.7428741 ] } },
{ "type": "Feature", "properties": { "内容": "訪問リハビリテーション　オンフルール【訪問リハビリテーション】静岡県袋井市高尾1439番3介護老人保健施設　ナーシングホーム　オンフルール", "url": "https://www.kaigokensaku.mhlw.go.jp/22/index.php?action_kouhyou_detail_004_kani=true&JigyosyoCd=2257380010-00&ServiceCd=140&Type=search", "url2": "http://koshikai.or.jp/" }, "geometry": { "type": "Point", "coordinates": [ 137.929793, 34.7327728 ] } },
{ "type": "Feature", "properties": { "内容": "小早川デイリハビリセンター【訪問リハビリテーション】静岡県袋井市久能1969", "url": "https://www.kaigokensaku.mhlw.go.jp/22/index.php?action_kouhyou_detail_004_kani=true&JigyosyoCd=2217310172-00&ServiceCd=140&Type=search", "url2": "www.kobayakawa.clinic" }, "geometry": { "type": "Point", "coordinates": [ 137.917, 34.7634113 ] } },
{ "type": "Feature", "properties": { "内容": "袋井市立聖隷袋井市民病院【訪問リハビリテーション】静岡県袋井市久能2515-1", "url": "https://www.kaigokensaku.mhlw.go.jp/22/index.php?action_kouhyou_detail_004_kani=true&JigyosyoCd=2217310099-00&ServiceCd=140&Type=search", "url2": "http://www.seirei.or.jp/fukuroi/index.html" }, "geometry": { "type": "Point", "coordinates": [ 137.9170284, 34.7689304 ] } },
{ "type": "Feature", "properties": { "内容": "下田メディカルセンター【訪問リハビリテーション】静岡県下田市六丁目４－１０", "url": "https://www.kaigokensaku.mhlw.go.jp/22/index.php?action_kouhyou_detail_004_kani=true&JigyosyoCd=2210210221-00&ServiceCd=140&Type=search", "url2": "https://shimoda.s-m-a.or.jp/" }, "geometry": { "type": "Point", "coordinates": [ 138.937995600000022, 34.6742023 ] } },
{ "type": "Feature", "properties": { "内容": "訪問リハビリステーションすその日赤【訪問リハビリテーション】佐野713", "url": "https://www.kaigokensaku.mhlw.go.jp/22/index.php?action_kouhyou_detail_004_kani=true&JigyosyoCd=2271400653-00&ServiceCd=140&Type=search", "url2": null }, "geometry": { "type": "Point", "coordinates": [ 139.8412903, 35.7866828 ] } },
{ "type": "Feature", "properties": { "内容": "医療法人宝美会介護老人保健施設まんさくの里訪問リハビリテーション【訪問リハビリテーション】静岡県湖西市岡崎1353-1", "url": "https://www.kaigokensaku.mhlw.go.jp/22/index.php?action_kouhyou_detail_004_kani=true&JigyosyoCd=2258480025-00&ServiceCd=140&Type=search", "url2": "mansaku@hamanakai.or.jp" }, "geometry": { "type": "Point", "coordinates": [ 137.502575699999966, 34.7170524 ] } },
{ "type": "Feature", "properties": { "内容": "医療法人　全心会　伊豆慶友病院　訪問リハビリテーション【訪問リハビリテーション】月ヶ瀬380-2", "url": "https://www.kaigokensaku.mhlw.go.jp/22/index.php?action_kouhyou_detail_004_kani=true&JigyosyoCd=2210710048-00&ServiceCd=140&Type=search", "url2": "http://www.izukeiyu.or.jp/index.html" }, "geometry": { "type": "Point", "coordinates": [ 138.925075, 34.918215 ] } },
{ "type": "Feature", "properties": { "内容": "訪問リハビリテーション　しろわクリニック【訪問リハビリテーション】静岡県御前崎市白羽3521-10御前崎市家庭医療センターしろわクリニック", "url": "https://www.kaigokensaku.mhlw.go.jp/22/index.php?action_kouhyou_detail_004_kani=true&JigyosyoCd=2215610045-00&ServiceCd=140&Type=search", "url2": "https://omaezaki-hospital.jp/clinic/" }, "geometry": { "type": "Point", "coordinates": [ 138.189981200000034, 34.6118311 ] } },
{ "type": "Feature", "properties": { "内容": "長岡リハビリテーション病院【訪問リハビリテーション】静岡県伊豆の国市長岡946", "url": "https://www.kaigokensaku.mhlw.go.jp/22/index.php?action_kouhyou_detail_004_kani=true&JigyosyoCd=2210310393-00&ServiceCd=140&Type=search", "url2": "http://www.naga-reha.or.jp/index.html" }, "geometry": { "type": "Point", "coordinates": [ 138.930715, 35.037126 ] } },
{ "type": "Feature", "properties": { "内容": "医療法人社団健育会熱川温泉病院【訪問リハビリテーション】静岡県賀茂郡東伊豆町白田４２４", "url": "https://www.kaigokensaku.mhlw.go.jp/22/index.php?action_kouhyou_detail_004_kani=true&JigyosyoCd=2210110165-00&ServiceCd=140&Type=search", "url2": "http://www.atagawa.gr.jp/" }, "geometry": { "type": "Point", "coordinates": [ 139.053580733204626, 34.806668533427271 ] } },
{ "type": "Feature", "properties": { "内容": "康心会伊豆東部病院【訪問リハビリテーション】静岡県賀茂郡東伊豆町稲取17-2", "url": "https://www.kaigokensaku.mhlw.go.jp/22/index.php?action_kouhyou_detail_004_kani=true&JigyosyoCd=2210110306-00&ServiceCd=140&Type=search", "url2": "www.fureai-g.or.jp/izu-toubu/" }, "geometry": { "type": "Point", "coordinates": [ 139.043785500000013, 34.77901 ] } },
{ "type": "Feature", "properties": { "内容": "西伊豆町安良里診療所【訪問リハビリテーション】静岡県賀茂郡西伊豆町安良里332-1", "url": "https://www.kaigokensaku.mhlw.go.jp/22/index.php?action_kouhyou_detail_004_kani=true&JigyosyoCd=2210110405-00&ServiceCd=140&Type=search", "url2": "https://arari.jadecom.or.jp/" }, "geometry": { "type": "Point", "coordinates": [ 138.77205, 34.8268172 ] } },
{ "type": "Feature", "properties": { "内容": "医療法人社団健育会西伊豆健育会病院【訪問リハビリテーション】静岡県賀茂郡西伊豆町仁科138-2", "url": "https://www.kaigokensaku.mhlw.go.jp/22/index.php?action_kouhyou_detail_004_kani=true&JigyosyoCd=2210110249-00&ServiceCd=140&Type=search", "url2": "http://www.nishiizu.gr.jp/" }, "geometry": { "type": "Point", "coordinates": [ 138.780383799999981, 34.7701374 ] } },
{ "type": "Feature", "properties": { "内容": "介護老人保健施設　しおさい【訪問リハビリテーション】賀茂郡西伊豆町仁科243－1", "url": "https://www.kaigokensaku.mhlw.go.jp/22/index.php?action_kouhyou_detail_004_kani=true&JigyosyoCd=2250180029-00&ServiceCd=140&Type=search", "url2": "http://www.kmcb.or.jp/index2.html" }, "geometry": { "type": "Point", "coordinates": [ 138.777589499999976, 34.7696707 ] } },
{ "type": "Feature", "properties": { "内容": "西伊豆町田子診療所【訪問リハビリテーション】静岡県賀茂郡西伊豆町田子943-2", "url": "https://www.kaigokensaku.mhlw.go.jp/22/index.php?action_kouhyou_detail_004_kani=true&JigyosyoCd=2210110397-00&ServiceCd=140&Type=search", "url2": "https//tago.jadecom.or.jp/" }, "geometry": { "type": "Point", "coordinates": [ 138.767498499999988, 34.8101498 ] } },
{ "type": "Feature", "properties": { "内容": "ＮＴＴ東日本伊豆病院　訪問リハビリテーション【訪問リハビリテーション】田方郡函南町平井７５０", "url": "https://www.kaigokensaku.mhlw.go.jp/22/index.php?action_kouhyou_detail_004_kani=true&JigyosyoCd=2210360273-00&ServiceCd=140&Type=search", "url2": "https://www.izu-hospital.ntt-east.co.jp/" }, "geometry": { "type": "Point", "coordinates": [ 138.957137110203547, 35.090231011066962 ] } },
{ "type": "Feature", "properties": { "内容": "薬袋内科クリニック　訪問リハビリテーション【訪問リハビリテーション】静岡県　駿東郡　清水町　徳倉　1004", "url": "https://www.kaigokensaku.mhlw.go.jp/22/index.php?action_kouhyou_detail_004_kani=true&JigyosyoCd=2211310277-00&ServiceCd=140&Type=search", "url2": "http://website2.infomity.net/8122334/" }, "geometry": { "type": "Point", "coordinates": [ 138.899359600000054, 35.0842002 ] } },
{ "type": "Feature", "properties": { "内容": "清泉クリニック整形外科【訪問リハビリテーション】静岡県駿東郡清水町柿田191-1", "url": "https://www.kaigokensaku.mhlw.go.jp/22/index.php?action_kouhyou_detail_004_kani=true&JigyosyoCd=2211310293-00&ServiceCd=140&Type=search", "url2": "https://seisen.info/shizuoka/daycare/" }, "geometry": { "type": "Point", "coordinates": [ 138.897953899999948, 35.1005708 ] } },
{ "type": "Feature", "properties": { "内容": "介護老人保健施設　長泉ケアセンター博寿園【訪問リハビリテーション】静岡県駿東郡長泉町本宿418番地の1", "url": "https://www.kaigokensaku.mhlw.go.jp/22/index.php?action_kouhyou_detail_004_kani=true&JigyosyoCd=2251380016-00&ServiceCd=140&Type=search", "url2": "http://www.ikeda-hp-g.or.jp" }, "geometry": { "type": "Point", "coordinates": [ 138.890045699999973, 35.1208634 ] } },
{ "type": "Feature", "properties": { "内容": "公立森町病院【訪問リハビリテーション】静岡県周智郡草ケ谷391-1", "url": "https://www.kaigokensaku.mhlw.go.jp/22/index.php?action_kouhyou_detail_004_kani=true&JigyosyoCd=2216310082-00&ServiceCd=140&Type=search", "url2": "https://hospital.town.morimachi.shizuoka.jp/" }, "geometry": { "type": "Point", "coordinates": [ 137.9180331, 34.8247918 ] } }
]
}
