{
"type": "FeatureCollection",
"name": "geo_22_介護老人福祉施設",
"crs": { "type": "name", "properties": { "name": "urn:ogc:def:crs:OGC:1.3:CRS84" } },
"features": [
{ "type": "Feature", "properties": { "内容": "特別養護老人ホーム　りんどう【介護老人福祉施設】静岡市葵区水見色360", "url": "https://www.kaigokensaku.mhlw.go.jp/22/index.php?action_kouhyou_detail_004_kani=true&JigyosyoCd=2274100060-00&ServiceCd=510&Type=search", "url2": "http://www.warashinafukushikai.or.jp" }, "geometry": { "type": "Point", "coordinates": [ 138.288623799999982, 35.0366165 ] } },
{ "type": "Feature", "properties": { "内容": "麻機園【介護老人福祉施設】静岡県静岡市葵区東５２７－１", "url": "https://www.kaigokensaku.mhlw.go.jp/22/index.php?action_kouhyou_detail_004_kani=true&JigyosyoCd=2274100045-00&ServiceCd=510&Type=search", "url2": "https://www.sakura.or.jp" }, "geometry": { "type": "Point", "coordinates": [ 138.397685200000069, 35.024167500000011 ] } },
{ "type": "Feature", "properties": { "内容": "特別養護老人ホーム　厚生苑清流の郷【介護老人福祉施設】静岡市葵区柳町185-5", "url": "https://www.kaigokensaku.mhlw.go.jp/22/index.php?action_kouhyou_detail_004_kani=true&JigyosyoCd=2274100078-00&ServiceCd=510&Type=search", "url2": "https://www.shizuoka-kosei.or.jp" }, "geometry": { "type": "Point", "coordinates": [ 138.362751552578743, 34.979481457369047 ] } },
{ "type": "Feature", "properties": { "内容": "特別養護老人ホーム　楽寿の園【介護老人福祉施設】静岡県静岡市葵区与左衛門新田７４－６", "url": "https://www.kaigokensaku.mhlw.go.jp/22/index.php?action_kouhyou_detail_004_kani=true&JigyosyoCd=2274100102-00&ServiceCd=510&Type=search", "url2": "http://www.rakuju.or.jp" }, "geometry": { "type": "Point", "coordinates": [ 138.368957200000068, 35.027303 ] } },
{ "type": "Feature", "properties": { "内容": "特別養護老人ホーム竜爪園【介護老人福祉施設】静岡市葵区長尾89-1", "url": "https://www.kaigokensaku.mhlw.go.jp/22/index.php?action_kouhyou_detail_004_kani=true&JigyosyoCd=2274100169-00&ServiceCd=510&Type=search", "url2": "http://www.love.or.jp" }, "geometry": { "type": "Point", "coordinates": [ 138.4275824, 35.0381501 ] } },
{ "type": "Feature", "properties": { "内容": "特別養護老人ホーム　カリタス21【介護老人福祉施設】静岡市葵区桂山723番地の6", "url": "https://www.kaigokensaku.mhlw.go.jp/22/index.php?action_kouhyou_detail_004_kani=true&JigyosyoCd=2274100201-00&ServiceCd=510&Type=search", "url2": "http://www.c-katura.com" }, "geometry": { "type": "Point", "coordinates": [ 138.344051600000057, 35.1116913 ] } },
{ "type": "Feature", "properties": { "内容": "晃の園【介護老人福祉施設】静岡市葵区富沢1542番地の39", "url": "https://www.kaigokensaku.mhlw.go.jp/22/index.php?action_kouhyou_detail_004_kani=true&JigyosyoCd=2274100219-00&ServiceCd=510&Type=search", "url2": "http://www.surugakai.net/hikari/" }, "geometry": { "type": "Point", "coordinates": [ 138.260174900000038, 35.0197261 ] } },
{ "type": "Feature", "properties": { "内容": "特別養護老人ホーム　吉津園【介護老人福祉施設】静岡市葵区吉津１９９番地", "url": "https://www.kaigokensaku.mhlw.go.jp/22/index.php?action_kouhyou_detail_004_kani=true&JigyosyoCd=2274100896-00&ServiceCd=510&Type=search", "url2": "http://www.yoshizuen.or.jp" }, "geometry": { "type": "Point", "coordinates": [ 138.309686599999964, 34.9795657 ] } },
{ "type": "Feature", "properties": { "内容": "特別養護老人ホーム厚生苑新緑の郷【介護老人福祉施設】静岡市葵区北番町６６－２", "url": "https://www.kaigokensaku.mhlw.go.jp/22/index.php?action_kouhyou_detail_004_kani=true&JigyosyoCd=2274201918-00&ServiceCd=510&Type=search", "url2": "https://www.shizuoka-kosei.or.jp" }, "geometry": { "type": "Point", "coordinates": [ 138.3685385, 34.9797615 ] } },
{ "type": "Feature", "properties": { "内容": "特別養護老人ホーム　羽鳥の森【介護老人福祉施設】静岡市葵区羽鳥７丁目６番３８号", "url": "https://www.kaigokensaku.mhlw.go.jp/22/index.php?action_kouhyou_detail_004_kani=true&JigyosyoCd=2274205430-00&ServiceCd=510&Type=search", "url2": "https://www.hakuju-kai.com/" }, "geometry": { "type": "Point", "coordinates": [ 138.334524800000054, 34.9906024 ] } },
{ "type": "Feature", "properties": { "内容": "特別養護老人ホーム薬師の園【介護老人福祉施設】静岡市葵区薬師１１番地の１特別養護老人ホーム薬師の園", "url": "https://www.kaigokensaku.mhlw.go.jp/22/index.php?action_kouhyou_detail_004_kani=true&JigyosyoCd=2274208178-00&ServiceCd=510&Type=search", "url2": "https://yakushinosono.com/" }, "geometry": { "type": "Point", "coordinates": [ 138.410175423803707, 35.025791431835415 ] } },
{ "type": "Feature", "properties": { "内容": "特別養護老人ホームきずなの街【介護老人福祉施設】静岡県静岡市葵区辰起町9-11", "url": "https://www.kaigokensaku.mhlw.go.jp/22/index.php?action_kouhyou_detail_004_kani=true&JigyosyoCd=2274209069-00&ServiceCd=510&Type=search", "url2": "http//kizuna-m.net/" }, "geometry": { "type": "Point", "coordinates": [ 138.363798299999985, 34.985556 ] } },
{ "type": "Feature", "properties": { "内容": "特別養護老人ホーム　小鹿苑【介護老人福祉施設】静岡県静岡市駿河区小鹿一丁目１番２４号", "url": "https://www.kaigokensaku.mhlw.go.jp/22/index.php?action_kouhyou_detail_004_kani=true&JigyosyoCd=2274100094-00&ServiceCd=510&Type=search", "url2": "https://www.oshikaen.jp" }, "geometry": { "type": "Point", "coordinates": [ 138.414159499999982, 34.975640500000011 ] } },
{ "type": "Feature", "properties": { "内容": "特別養護老人ホーム登呂の家【介護老人福祉施設】静岡市駿河区登呂３丁目４－１", "url": "https://www.kaigokensaku.mhlw.go.jp/22/index.php?action_kouhyou_detail_004_kani=true&JigyosyoCd=2274201892-00&ServiceCd=510&Type=search", "url2": "http://www.tenryu-kohseikai.or.jp/senior/toro/" }, "geometry": { "type": "Point", "coordinates": [ 138.406413499999985, 34.958956 ] } },
{ "type": "Feature", "properties": { "内容": "小鹿なでしこ苑【介護老人福祉施設】静岡市駿河区小鹿402-1", "url": "https://www.kaigokensaku.mhlw.go.jp/22/index.php?action_kouhyou_detail_004_kani=true&JigyosyoCd=2274205679-00&ServiceCd=510&Type=search", "url2": "http://nadeshiko.konjiki.jp/" }, "geometry": { "type": "Point", "coordinates": [ 138.425408599999969, 34.9710246 ] } },
{ "type": "Feature", "properties": { "内容": "特別養護老人ホーム　小坂の郷【介護老人福祉施設】静岡市駿河区小坂1106番地の1", "url": "https://www.kaigokensaku.mhlw.go.jp/22/index.php?action_kouhyou_detail_004_kani=true&JigyosyoCd=2274201249-00&ServiceCd=510&Type=search", "url2": "http://osakanosato.com" }, "geometry": { "type": "Point", "coordinates": [ 138.349977599999988, 34.925187 ] } },
{ "type": "Feature", "properties": { "内容": "特別養護老人ホーム　丸子の里【介護老人福祉施設】静岡市駿河区丸子3000番地の1", "url": "https://www.kaigokensaku.mhlw.go.jp/22/index.php?action_kouhyou_detail_004_kani=true&JigyosyoCd=2274100763-00&ServiceCd=510&Type=search", "url2": "http;//www.marokonosato.org" }, "geometry": { "type": "Point", "coordinates": [ 138.3297682, 34.9493366 ] } },
{ "type": "Feature", "properties": { "内容": "特別養護老人ホーム聖ヨゼフの園【介護老人福祉施設】静岡市駿河区八幡4-6-9", "url": "https://www.kaigokensaku.mhlw.go.jp/22/index.php?action_kouhyou_detail_004_kani=true&JigyosyoCd=2274100193-00&ServiceCd=510&Type=search", "url2": "http://www.joseph-seibofukushikai.jp/" }, "geometry": { "type": "Point", "coordinates": [ 138.397402899999946, 34.9680298 ] } },
{ "type": "Feature", "properties": { "内容": "特別養護老人ホームなごみ【介護老人福祉施設】静岡市駿河区中島２５８０－１", "url": "https://www.kaigokensaku.mhlw.go.jp/22/index.php?action_kouhyou_detail_004_kani=true&JigyosyoCd=2274100391-00&ServiceCd=510&Type=search", "url2": "http://www.wayou-fukushikai.jp/" }, "geometry": { "type": "Point", "coordinates": [ 138.4002898, 34.9338975 ] } },
{ "type": "Feature", "properties": { "内容": "特別養護老人ホーム久能の里【介護老人福祉施設】静岡市駿河区根古屋289-1", "url": "https://www.kaigokensaku.mhlw.go.jp/22/index.php?action_kouhyou_detail_004_kani=true&JigyosyoCd=2274101217-00&ServiceCd=510&Type=search", "url2": "https://sunpuaoikai.or.jp/kunou/" }, "geometry": { "type": "Point", "coordinates": [ 138.470435599999973, 34.9623648 ] } },
{ "type": "Feature", "properties": { "内容": "特別養護老人ホーム久能の里【介護老人福祉施設】根古屋289番地の１", "url": "https://www.kaigokensaku.mhlw.go.jp/22/index.php?action_kouhyou_detail_004_kani=true&JigyosyoCd=2274207196-00&ServiceCd=510&Type=search", "url2": "https://sunpuaoikai.or.jp/kunou/" }, "geometry": { "type": "Point", "coordinates": [ 138.4703412, 34.9623676 ] } },
{ "type": "Feature", "properties": { "内容": "まごころタウン＊静岡【介護老人福祉施設】弥生町4-26", "url": "https://www.kaigokensaku.mhlw.go.jp/22/index.php?action_kouhyou_detail_004_kani=true&JigyosyoCd=2274207766-00&ServiceCd=510&Type=search", "url2": "http://www.magokoro-w.com/" }, "geometry": { "type": "Point", "coordinates": [ 138.436590950910983, 35.004140096574723 ] } },
{ "type": "Feature", "properties": { "内容": "特別養護老人ホーム　好日の園【介護老人福祉施設】静岡市清水区蒲原神沢１３５９－１", "url": "https://www.kaigokensaku.mhlw.go.jp/22/index.php?action_kouhyou_detail_004_kani=true&JigyosyoCd=2273100038-00&ServiceCd=510&Type=search", "url2": "https://www.koujitsu6500.jp" }, "geometry": { "type": "Point", "coordinates": [ 138.571625600000061, 35.1157909 ] } },
{ "type": "Feature", "properties": { "内容": "特別養護老人ホーム　浜石の郷　(従来型)【介護老人福祉施設】静岡市清水区由比阿僧189番地の１", "url": "https://www.kaigokensaku.mhlw.go.jp/22/index.php?action_kouhyou_detail_004_kani=true&JigyosyoCd=2273100046-00&ServiceCd=510&Type=search", "url2": "http://www.jishoukai.com/" }, "geometry": { "type": "Point", "coordinates": [ 138.556242042852745, 35.115032536294855 ] } },
{ "type": "Feature", "properties": { "内容": "特別養護老人ホーム浜石の郷(ユニット型)【介護老人福祉施設】静岡県静岡市清水区由比阿僧189番地の1", "url": "https://www.kaigokensaku.mhlw.go.jp/22/index.php?action_kouhyou_detail_004_kani=true&JigyosyoCd=2274207642-00&ServiceCd=510&Type=search", "url2": "http://www.jisyoukai.com" }, "geometry": { "type": "Point", "coordinates": [ 138.5568214, 35.11523 ] } },
{ "type": "Feature", "properties": { "内容": "特別養護老人ホーム高部陽光園【介護老人福祉施設】静岡県静岡市清水区押切997-1", "url": "https://www.kaigokensaku.mhlw.go.jp/22/index.php?action_kouhyou_detail_004_kani=true&JigyosyoCd=2274208665-00&ServiceCd=510&Type=search", "url2": "https://www.hakuju-kai.com/" }, "geometry": { "type": "Point", "coordinates": [ 138.454299799999944, 35.028066 ] } },
{ "type": "Feature", "properties": { "内容": "介護老人福祉施設巴の園【介護老人福祉施設】静岡市清水区万世町1丁目1番３０号", "url": "https://www.kaigokensaku.mhlw.go.jp/22/index.php?action_kouhyou_detail_004_kani=true&JigyosyoCd=2273200010-00&ServiceCd=510&Type=search", "url2": "http://www.seiunkai-t.or.jp/" }, "geometry": { "type": "Point", "coordinates": [ 138.486988900000028, 35.0131271 ] } },
{ "type": "Feature", "properties": { "内容": "特別養護老人ホームあすなろの家【介護老人福祉施設】静岡市清水区山原８７１－２", "url": "https://www.kaigokensaku.mhlw.go.jp/22/index.php?action_kouhyou_detail_004_kani=true&JigyosyoCd=2273200028-00&ServiceCd=510&Type=search", "url2": "http://www.s-asunaro.net/" }, "geometry": { "type": "Point", "coordinates": [ 138.46189030000005, 35.0448892 ] } },
{ "type": "Feature", "properties": { "内容": "特別養護老人ホーム　羽衣の園【介護老人福祉施設】静岡市清水区折戸5丁目18番36号", "url": "https://www.kaigokensaku.mhlw.go.jp/22/index.php?action_kouhyou_detail_004_kani=true&JigyosyoCd=2273200044-00&ServiceCd=510&Type=search", "url2": "https://sei-sei-kai.jp/" }, "geometry": { "type": "Point", "coordinates": [ 138.518561200000022, 34.9900601 ] } },
{ "type": "Feature", "properties": { "内容": "特別養護老人ホーム　白扇閣【介護老人福祉施設】静岡市清水区承元寺町１３４１番地", "url": "https://www.kaigokensaku.mhlw.go.jp/22/index.php?action_kouhyou_detail_004_kani=true&JigyosyoCd=2273200283-00&ServiceCd=510&Type=search", "url2": "http://hakusenkaku.jp" }, "geometry": { "type": "Point", "coordinates": [ 138.519570207409629, 35.082041875618089 ] } },
{ "type": "Feature", "properties": { "内容": "特別養護老人ホーム　柏尾の里【介護老人福祉施設】静岡市清水区柏尾の里387-2", "url": "https://www.kaigokensaku.mhlw.go.jp/22/index.php?action_kouhyou_detail_004_kani=true&JigyosyoCd=2273200325-00&ServiceCd=510&Type=search", "url2": "http://www.shimizufukushikai/com" }, "geometry": { "type": "Point", "coordinates": [ 138.440903700000035, 35.0384651 ] } },
{ "type": "Feature", "properties": { "内容": "特別養護老人ホーム有度の里【介護老人福祉施設】静岡市清水区長崎新田３１１", "url": "https://www.kaigokensaku.mhlw.go.jp/22/index.php?action_kouhyou_detail_004_kani=true&JigyosyoCd=2274200134-00&ServiceCd=510&Type=search", "url2": "http://www.udonosato.com/" }, "geometry": { "type": "Point", "coordinates": [ 138.44835050000006, 35.0166922 ] } },
{ "type": "Feature", "properties": { "内容": "特別養護老人ホームレジデンス花【介護老人福祉施設】静岡市清水区中河内２７１７", "url": "https://www.kaigokensaku.mhlw.go.jp/22/index.php?action_kouhyou_detail_004_kani=true&JigyosyoCd=2274200671-00&ServiceCd=510&Type=search", "url2": "http://hanazonokai.com" }, "geometry": { "type": "Point", "coordinates": [ 138.472371, 35.1336029 ] } },
{ "type": "Feature", "properties": { "内容": "特別養護老人ホームこもれび【介護老人福祉施設】静岡市清水区吉原1731", "url": "https://www.kaigokensaku.mhlw.go.jp/22/index.php?action_kouhyou_detail_004_kani=true&JigyosyoCd=2274202668-00&ServiceCd=510&Type=search", "url2": "http://www.t-komorebi.com/" }, "geometry": { "type": "Point", "coordinates": [ 138.464406100000019, 35.0832623 ] } },
{ "type": "Feature", "properties": { "内容": "特別養護老人ホーム　いはらの里【介護老人福祉施設】静岡市清水区庵原町578-1", "url": "https://www.kaigokensaku.mhlw.go.jp/22/index.php?action_kouhyou_detail_004_kani=true&JigyosyoCd=2274204151-00&ServiceCd=510&Type=search", "url2": "http://ihara.ja-shizuoka.or.jp/" }, "geometry": { "type": "Point", "coordinates": [ 138.474397599999946, 35.0455451 ] } },
{ "type": "Feature", "properties": { "内容": "特別養護老人ホームベイコート清水【介護老人福祉施設】静岡県静岡市清水区折戸487番地の5", "url": "https://www.kaigokensaku.mhlw.go.jp/22/index.php?action_kouhyou_detail_004_kani=true&JigyosyoCd=2274204250-00&ServiceCd=510&Type=search", "url2": "https://baycourt-shimizu.com/" }, "geometry": { "type": "Point", "coordinates": [ 138.513750533065831, 34.997054610791523 ] } },
{ "type": "Feature", "properties": { "内容": "介護老人福祉施設巴の園和郷【介護老人福祉施設】静岡市清水区万世町1-1-30", "url": "https://www.kaigokensaku.mhlw.go.jp/22/index.php?action_kouhyou_detail_004_kani=true&JigyosyoCd=2274207238-00&ServiceCd=510&Type=search", "url2": "http://seiunkai-t.or.jp" }, "geometry": { "type": "Point", "coordinates": [ 138.486988900000028, 35.0131271 ] } },
{ "type": "Feature", "properties": { "内容": "特別養護老人ホーム蜂ヶ谷園【介護老人福祉施設】蜂ヶ谷460-7", "url": "https://www.kaigokensaku.mhlw.go.jp/22/index.php?action_kouhyou_detail_004_kani=true&JigyosyoCd=2274208566-00&ServiceCd=510&Type=search", "url2": "http://sunpuaoikai.or.jp/hachigaya/" }, "geometry": { "type": "Point", "coordinates": [ 138.457275200000026, 35.0407491 ] } },
{ "type": "Feature", "properties": { "内容": "第三静光園いこい【介護老人福祉施設】浜松市中央区根洗町681-4", "url": "https://www.kaigokensaku.mhlw.go.jp/22/index.php?action_kouhyou_detail_004_kani=true&JigyosyoCd=2277100109-00&ServiceCd=510&Type=search", "url2": "http://www.hikarinosono.or.jp/age/service/#anchor_3" }, "geometry": { "type": "Point", "coordinates": [ 137.698422604893494, 34.796248200000015 ] } },
{ "type": "Feature", "properties": { "内容": "第三静光園あかり【介護老人福祉施設】静岡県浜松市中央区根洗町681番地の4", "url": "https://www.kaigokensaku.mhlw.go.jp/22/index.php?action_kouhyou_detail_004_kani=true&JigyosyoCd=2277203796-00&ServiceCd=510&Type=search", "url2": "http://http://www.hikarinosono.or.jp/age/service/#anchor_3" }, "geometry": { "type": "Point", "coordinates": [ 137.698012344705148, 34.795914599842817 ] } },
{ "type": "Feature", "properties": { "内容": "特別養護老人ホームやすらぎの里【介護老人福祉施設】静岡県浜松市中央区大山町１５０５番地の１", "url": "https://www.kaigokensaku.mhlw.go.jp/22/index.php?action_kouhyou_detail_004_kani=true&JigyosyoCd=2277100117-00&ServiceCd=510&Type=search", "url2": "http://www.seiyuu-kai.com/" }, "geometry": { "type": "Point", "coordinates": [ 137.677080599999982, 34.7802938 ] } },
{ "type": "Feature", "properties": { "内容": "特別養護老人ホームあづきもち【介護老人福祉施設】小豆餅三丁目20番22号特別養護老人ホームあづきもち", "url": "https://www.kaigokensaku.mhlw.go.jp/22/index.php?action_kouhyou_detail_004_kani=true&JigyosyoCd=2277202616-00&ServiceCd=510&Type=search", "url2": "http://www.jikeikai.info/" }, "geometry": { "type": "Point", "coordinates": [ 137.729156530688471, 34.754129984419379 ] } },
{ "type": "Feature", "properties": { "内容": "特別養護老人ホーム　第二長上苑【介護老人福祉施設】浜松市中央区中田町５９０番地", "url": "https://www.kaigokensaku.mhlw.go.jp/22/index.php?action_kouhyou_detail_004_kani=true&JigyosyoCd=2277102733-00&ServiceCd=510&Type=search", "url2": "https://www.nanakeikai.jp/" }, "geometry": { "type": "Point", "coordinates": [ 137.759648, 34.7364517 ] } },
{ "type": "Feature", "properties": { "内容": "特別養護老人ホーム　天竜厚生会城北の家【介護老人福祉施設】静岡県浜松市中央区城北１丁目２４番５号天竜厚生会城北の家", "url": "https://www.kaigokensaku.mhlw.go.jp/22/index.php?action_kouhyou_detail_004_kani=true&JigyosyoCd=2277204075-00&ServiceCd=510&Type=search", "url2": "https://www.tenryu-kohseikai.or.jp/" }, "geometry": { "type": "Point", "coordinates": [ 137.723593110975713, 34.721823856738673 ] } },
{ "type": "Feature", "properties": { "内容": "指定介護老人福祉施設　第二砂丘寮【介護老人福祉施設】静岡県浜松市中央区田尻町１１８２番地指定介護老人福祉施設　第二砂丘寮", "url": "https://www.kaigokensaku.mhlw.go.jp/22/index.php?action_kouhyou_detail_004_kani=true&JigyosyoCd=2277100349-00&ServiceCd=510&Type=search", "url2": "https://mitsuwakai-sunaoka.jp/" }, "geometry": { "type": "Point", "coordinates": [ 137.723255099999932, 34.6669014 ] } },
{ "type": "Feature", "properties": { "内容": "指定介護老人福祉施設　芳川の里【介護老人福祉施設】浜松市中央区石原町739", "url": "https://www.kaigokensaku.mhlw.go.jp/22/index.php?action_kouhyou_detail_004_kani=true&JigyosyoCd=2277100067-00&ServiceCd=510&Type=search", "url2": "https://www.tanpopo-kai.jp/" }, "geometry": { "type": "Point", "coordinates": [ 137.769306300000039, 34.688178 ] } },
{ "type": "Feature", "properties": { "内容": "特別養護老人ホーム西島寮【介護老人福祉施設】浜松市中央区西島町101番地", "url": "https://www.kaigokensaku.mhlw.go.jp/22/index.php?action_kouhyou_detail_004_kani=true&JigyosyoCd=2277100299-00&ServiceCd=510&Type=search", "url2": "http://www.jikeikai.info" }, "geometry": { "type": "Point", "coordinates": [ 137.764134499999983, 34.672094 ] } },
{ "type": "Feature", "properties": { "内容": "特別養護老人ホーム　舘山寺の里【介護老人福祉施設】浜松市中央区舘山寺町463-1", "url": "https://www.kaigokensaku.mhlw.go.jp/22/index.php?action_kouhyou_detail_004_kani=true&JigyosyoCd=2277102097-00&ServiceCd=510&Type=search", "url2": "http://kanzanji-no-sato.shoeikai.or.jp/" }, "geometry": { "type": "Point", "coordinates": [ 137.619432611639468, 34.760790953709922 ] } },
{ "type": "Feature", "properties": { "内容": "まほら舞阪【介護老人福祉施設】静岡県浜松市中央区舞阪町弁天島３４８１番地の２６", "url": "https://www.kaigokensaku.mhlw.go.jp/22/index.php?action_kouhyou_detail_004_kani=true&JigyosyoCd=2277103434-00&ServiceCd=510&Type=search", "url2": "http://www.seiyuu-kai.com/" }, "geometry": { "type": "Point", "coordinates": [ 137.590831799999933, 34.6950291 ] } },
{ "type": "Feature", "properties": { "内容": "ユニット型特別養護老人ホーム山崎園【介護老人福祉施設】静岡県浜松市中央区雄踏町山崎２８２９番地", "url": "https://www.kaigokensaku.mhlw.go.jp/22/index.php?action_kouhyou_detail_004_kani=true&JigyosyoCd=2277201931-00&ServiceCd=510&Type=search", "url2": "https://www.sankoukai.or.jp/" }, "geometry": { "type": "Point", "coordinates": [ 137.627202, 34.7171902 ] } },
{ "type": "Feature", "properties": { "内容": "特別養護老人ホーム上大瀬【介護老人福祉施設】静岡県浜松市中央区大島町959-1", "url": "https://www.kaigokensaku.mhlw.go.jp/22/index.php?action_kouhyou_detail_004_kani=true&JigyosyoCd=2277203804-00&ServiceCd=510&Type=search", "url2": "http://www.youshoukai.or.jp/" }, "geometry": { "type": "Point", "coordinates": [ 137.781963499999932, 34.7662136 ] } },
{ "type": "Feature", "properties": { "内容": "特別養護老人ホーム湖東の杜【介護老人福祉施設】静岡県浜松市中央区湖東町1074湖東の杜", "url": "https://www.kaigokensaku.mhlw.go.jp/22/index.php?action_kouhyou_detail_004_kani=true&JigyosyoCd=2277204760-00&ServiceCd=510&Type=search", "url2": "https://www.kotou-no-mori.jp" }, "geometry": { "type": "Point", "coordinates": [ 137.660955100000052, 34.761082 ] } },
{ "type": "Feature", "properties": { "内容": "特別養護老人ホーム　山崎園【介護老人福祉施設】静岡県浜松市中央区雄踏町山崎２８２９番地", "url": "https://www.kaigokensaku.mhlw.go.jp/22/index.php?action_kouhyou_detail_004_kani=true&JigyosyoCd=2278200106-00&ServiceCd=510&Type=search", "url2": "https://www.sankoukai.or.jp/" }, "geometry": { "type": "Point", "coordinates": [ 137.627193700000021, 34.7172096 ] } },
{ "type": "Feature", "properties": { "内容": "静光園【介護老人福祉施設】浜松市中央区小沢渡町1300-1", "url": "https://www.kaigokensaku.mhlw.go.jp/22/index.php?action_kouhyou_detail_004_kani=true&JigyosyoCd=2277100331-00&ServiceCd=510&Type=search", "url2": "http://www.hikarinosono.or.jp" }, "geometry": { "type": "Point", "coordinates": [ 137.6781281, 34.6854813 ] } },
{ "type": "Feature", "properties": { "内容": "特別養護老人ホーム　ふるさと庵【介護老人福祉施設】静岡県浜松市中央区豊岡町273-2", "url": "https://www.kaigokensaku.mhlw.go.jp/22/index.php?action_kouhyou_detail_004_kani=true&JigyosyoCd=2277102171-00&ServiceCd=510&Type=search", "url2": "http://www.yuutainosato.com" }, "geometry": { "type": "Point", "coordinates": [ 137.724189300000035, 34.7904084 ] } },
{ "type": "Feature", "properties": { "内容": "浜松中央長上苑【介護老人福祉施設】静岡県浜松市中央区中島二丁目7番1号", "url": "https://www.kaigokensaku.mhlw.go.jp/22/index.php?action_kouhyou_detail_004_kani=true&JigyosyoCd=2277203275-00&ServiceCd=510&Type=search", "url2": "https://www.nanakeikai.jp/" }, "geometry": { "type": "Point", "coordinates": [ 137.746000837295469, 34.701585829218786 ] } },
{ "type": "Feature", "properties": { "内容": "特別養護老人ホーム藤乃花【介護老人福祉施設】静岡県浜松市中央区幸四丁目21番1号", "url": "https://www.kaigokensaku.mhlw.go.jp/22/index.php?action_kouhyou_detail_004_kani=true&JigyosyoCd=2277204315-00&ServiceCd=510&Type=search", "url2": "http://www.fujihanakai.com" }, "geometry": { "type": "Point", "coordinates": [ 137.7299357, 34.74395 ] } },
{ "type": "Feature", "properties": { "内容": "特別養護老人ホーム　宇布見の里【介護老人福祉施設】静岡県浜松市中央区雄踏町宇布見9481-1社会福祉施設　宇布見の里", "url": "https://www.kaigokensaku.mhlw.go.jp/22/index.php?action_kouhyou_detail_004_kani=true&JigyosyoCd=2277204745-00&ServiceCd=510&Type=search", "url2": "http://www.ubuminosato＠soleil.ocn.ne.jp" }, "geometry": { "type": "Point", "coordinates": [ 137.628731792447638, 34.70687700972789 ] } },
{ "type": "Feature", "properties": { "内容": "特別養護老人ホーム　三幸の園【介護老人福祉施設】浜松市中央区大平台一丁目３４番３０号", "url": "https://www.kaigokensaku.mhlw.go.jp/22/index.php?action_kouhyou_detail_004_kani=true&JigyosyoCd=2277100174-00&ServiceCd=510&Type=search", "url2": "https://www.sankoukai.or.jp/" }, "geometry": { "type": "Point", "coordinates": [ 137.682829099999907, 34.718683 ] } },
{ "type": "Feature", "properties": { "内容": "特別養護老人ホーム　グリーンヒルズ東山【介護老人福祉施設】大山町2958番地の1", "url": "https://www.kaigokensaku.mhlw.go.jp/22/index.php?action_kouhyou_detail_004_kani=true&JigyosyoCd=2277101479-00&ServiceCd=510&Type=search", "url2": "http://www.keiseikai6001.or.jp" }, "geometry": { "type": "Point", "coordinates": [ 137.681086199999982, 34.7737614 ] } },
{ "type": "Feature", "properties": { "内容": "特別養護老人ホームおおしま【介護老人福祉施設】浜松市中央区大島町891番地", "url": "https://www.kaigokensaku.mhlw.go.jp/22/index.php?action_kouhyou_detail_004_kani=true&JigyosyoCd=2277103327-00&ServiceCd=510&Type=search", "url2": "http://www.youshoukai.or.jp" }, "geometry": { "type": "Point", "coordinates": [ 137.779077700000016, 34.7649914 ] } },
{ "type": "Feature", "properties": { "内容": "介護老人福祉施設　一空園【介護老人福祉施設】静岡県浜松市中央区安新町38-1", "url": "https://www.kaigokensaku.mhlw.go.jp/22/index.php?action_kouhyou_detail_004_kani=true&JigyosyoCd=2277100083-00&ServiceCd=510&Type=search", "url2": "http://www.hashoukai.jp" }, "geometry": { "type": "Point", "coordinates": [ 137.7902270485489, 34.726183188210008 ] } },
{ "type": "Feature", "properties": { "内容": "特別養護老人ホーム神久呂の園【介護老人福祉施設】静岡県浜松市中央区神ケ谷町6611番地", "url": "https://www.kaigokensaku.mhlw.go.jp/22/index.php?action_kouhyou_detail_004_kani=true&JigyosyoCd=2277100141-00&ServiceCd=510&Type=search", "url2": "http://tootsu.jp" }, "geometry": { "type": "Point", "coordinates": [ 137.678345700000023, 34.730231500000016 ] } },
{ "type": "Feature", "properties": { "内容": "特別養護老人ホーム　和合愛光園【介護老人福祉施設】浜松市中央区和合町555番地", "url": "https://www.kaigokensaku.mhlw.go.jp/22/index.php?action_kouhyou_detail_004_kani=true&JigyosyoCd=2277100158-00&ServiceCd=510&Type=search", "url2": "http://www.seirei.or.jp/elderlyhome/wagou/index.html" }, "geometry": { "type": "Point", "coordinates": [ 137.701492899999948, 34.7422639 ] } },
{ "type": "Feature", "properties": { "内容": "特別養護老人ホーム　神田ふるさと庵【介護老人福祉施設】神田町510-1", "url": "https://www.kaigokensaku.mhlw.go.jp/22/index.php?action_kouhyou_detail_004_kani=true&JigyosyoCd=2277201949-00&ServiceCd=510&Type=search", "url2": "http://www.yuutainosato.com" }, "geometry": { "type": "Point", "coordinates": [ 137.718718800000033, 34.6900092 ] } },
{ "type": "Feature", "properties": { "内容": "特別養護老人ホーム　ケアホーム三方原【介護老人福祉施設】東三方町239", "url": "https://www.kaigokensaku.mhlw.go.jp/22/index.php?action_kouhyou_detail_004_kani=true&JigyosyoCd=2277204281-00&ServiceCd=510&Type=search", "url2": "http://www.siawase-k.com/wp/" }, "geometry": { "type": "Point", "coordinates": [ 137.723359, 34.7828067 ] } },
{ "type": "Feature", "properties": { "内容": "特別養護老人ホーム　和合愛光園（ユニット型）【介護老人福祉施設】浜松市中央区和合町555番地", "url": "https://www.kaigokensaku.mhlw.go.jp/22/index.php?action_kouhyou_detail_004_kani=true&JigyosyoCd=2277205353-00&ServiceCd=510&Type=search", "url2": "http://www.seirei.or.jp/elderlyhome/wagou/index.html" }, "geometry": { "type": "Point", "coordinates": [ 137.7013475, 34.7422678 ] } },
{ "type": "Feature", "properties": { "内容": "特別養護老人ホーム朝霧の園【介護老人福祉施設】浜松市中央区庄和町2476-1", "url": "https://www.kaigokensaku.mhlw.go.jp/22/index.php?action_kouhyou_detail_004_kani=true&JigyosyoCd=2277100018-00&ServiceCd=510&Type=search", "url2": "http://www.asagirinosono.hybs.jp/" }, "geometry": { "type": "Point", "coordinates": [ 137.604540400000019, 34.7315706 ] } },
{ "type": "Feature", "properties": { "内容": "特別養護老人ホ－ム浜名湖園【介護老人福祉施設】浜松市中央区古人見町1212番地老人ホーム浜名湖園", "url": "https://www.kaigokensaku.mhlw.go.jp/22/index.php?action_kouhyou_detail_004_kani=true&JigyosyoCd=2277100240-00&ServiceCd=510&Type=search", "url2": "https://www.hamanakoen.net" }, "geometry": { "type": "Point", "coordinates": [ 137.637503199999969, 34.7300085 ] } },
{ "type": "Feature", "properties": { "内容": "特別養護老人ホーム南風【介護老人福祉施設】静岡県浜松市中央区倉松町593番地", "url": "https://www.kaigokensaku.mhlw.go.jp/22/index.php?action_kouhyou_detail_004_kani=true&JigyosyoCd=2277101636-00&ServiceCd=510&Type=search", "url2": "https://www.h-minamikaze.com" }, "geometry": { "type": "Point", "coordinates": [ 137.696948900000052, 34.6758996 ] } },
{ "type": "Feature", "properties": { "内容": "特別養護老人ホーム第二南風【介護老人福祉施設】静岡県浜松市中央区倉松町598番地", "url": "https://www.kaigokensaku.mhlw.go.jp/22/index.php?action_kouhyou_detail_004_kani=true&JigyosyoCd=2277200586-00&ServiceCd=510&Type=search", "url2": "http://www.h-minamikaze.com" }, "geometry": { "type": "Point", "coordinates": [ 137.697072214155583, 34.675291448479904 ] } },
{ "type": "Feature", "properties": { "内容": "特別養護老人ホーム葵の里【介護老人福祉施設】静岡県浜松市中区葵西六丁目１０番６２号", "url": "https://www.kaigokensaku.mhlw.go.jp/22/index.php?action_kouhyou_detail_004_kani=true&JigyosyoCd=2277201980-00&ServiceCd=510&Type=search", "url2": "https://www.kouwakai-swc.com" }, "geometry": { "type": "Point", "coordinates": [ 137.701128833729513, 34.768226073262895 ] } },
{ "type": "Feature", "properties": { "内容": "さぎの宮寮【介護老人福祉施設】浜松市東区小池町３８番地の1", "url": "https://www.kaigokensaku.mhlw.go.jp/22/index.php?action_kouhyou_detail_004_kani=true&JigyosyoCd=2277100265-00&ServiceCd=510&Type=search", "url2": "http：/houeikai5710.ｊｐ" }, "geometry": { "type": "Point", "coordinates": [ 137.76400179999996, 34.754028 ] } },
{ "type": "Feature", "properties": { "内容": "特別養護老人ホーム　白梅下石田ホーム【介護老人福祉施設】下石田町1588-1", "url": "https://www.kaigokensaku.mhlw.go.jp/22/index.php?action_kouhyou_detail_004_kani=true&JigyosyoCd=2277202608-00&ServiceCd=510&Type=search", "url2": "https://www.shiraume.or.jp/" }, "geometry": { "type": "Point", "coordinates": [ 137.783037679523432, 34.734472513743242 ] } },
{ "type": "Feature", "properties": { "内容": "特別養護老人ホーム　白萩荘【介護老人福祉施設】浜松市中央区鴨江3丁目6番12号", "url": "https://www.kaigokensaku.mhlw.go.jp/22/index.php?action_kouhyou_detail_004_kani=true&JigyosyoCd=2277100133-00&ServiceCd=510&Type=search", "url2": "http://www.jihian.or.jp" }, "geometry": { "type": "Point", "coordinates": [ 137.714731859524619, 34.706062649997165 ] } },
{ "type": "Feature", "properties": { "内容": "特別養護老人ホーム細江の苑【介護老人福祉施設】静岡県浜松市浜名区細江町中川7500-1", "url": "https://www.kaigokensaku.mhlw.go.jp/22/index.php?action_kouhyou_detail_004_kani=true&JigyosyoCd=2277205080-00&ServiceCd=510&Type=search", "url2": "http://www.daichi-hosoe.jp/" }, "geometry": { "type": "Point", "coordinates": [ 137.661899689619958, 34.806847995274815 ] } },
{ "type": "Feature", "properties": { "内容": "介護老人福祉施設　きじの里【介護老人福祉施設】染地台五丁目４番３号", "url": "https://www.kaigokensaku.mhlw.go.jp/22/index.php?action_kouhyou_detail_004_kani=true&JigyosyoCd=2277201485-00&ServiceCd=510&Type=search", "url2": "sougou.kijinosato@peach.ocn.ne.jp" }, "geometry": { "type": "Point", "coordinates": [ 137.750120299999907, 34.7914567 ] } },
{ "type": "Feature", "properties": { "内容": "浜松十字の園【介護老人福祉施設】浜松市浜名区細江町中川7220-11", "url": "https://www.kaigokensaku.mhlw.go.jp/22/index.php?action_kouhyou_detail_004_kani=true&JigyosyoCd=2278100058-00&ServiceCd=510&Type=search", "url2": "http://www.jyuji.or.jp/hamamatsu/" }, "geometry": { "type": "Point", "coordinates": [ 137.69450889999996, 34.7918903 ] } },
{ "type": "Feature", "properties": { "内容": "特別養護老人ホームみずうみ【介護老人福祉施設】浜松市浜名区三ヶ日町三ヶ日1148-2", "url": "https://www.kaigokensaku.mhlw.go.jp/22/index.php?action_kouhyou_detail_004_kani=true&JigyosyoCd=2278100231-00&ServiceCd=510&Type=search", "url2": "https://matsukaze.uh-oh.jp" }, "geometry": { "type": "Point", "coordinates": [ 137.552363799999966, 34.8022402 ] } },
{ "type": "Feature", "properties": { "内容": "特別養護老人ホーム　翠松苑【介護老人福祉施設】浜松市浜名区於呂4201-6", "url": "https://www.kaigokensaku.mhlw.go.jp/22/index.php?action_kouhyou_detail_004_kani=true&JigyosyoCd=2278300039-00&ServiceCd=510&Type=search", "url2": "http://www.tenryu-kohseikai.or.jp/senior/suisyouen/" }, "geometry": { "type": "Point", "coordinates": [ 137.793735112828045, 34.855191498646406 ] } },
{ "type": "Feature", "properties": { "内容": "特別養護老人ホームしんぱらの家【介護老人福祉施設】浜松市浜名区新原４０９２－２", "url": "https://www.kaigokensaku.mhlw.go.jp/22/index.php?action_kouhyou_detail_004_kani=true&JigyosyoCd=2278300278-00&ServiceCd=510&Type=search", "url2": "http://www.tenryu-kohseikai.or.jp/senior/shinpara" }, "geometry": { "type": "Point", "coordinates": [ 137.772389800000042, 34.8128108 ] } },
{ "type": "Feature", "properties": { "内容": "ユニット型特別養護老人ホーム　多喜の園【介護老人福祉施設】浜松市浜名区中瀬3829-1", "url": "https://www.kaigokensaku.mhlw.go.jp/22/index.php?action_kouhyou_detail_004_kani=true&JigyosyoCd=2277201972-00&ServiceCd=510&Type=search", "url2": "http://www.daizen-f.com" }, "geometry": { "type": "Point", "coordinates": [ 137.812089448548932, 34.820268455701523 ] } },
{ "type": "Feature", "properties": { "内容": "特別養護老人ホーム　多喜の園【介護老人福祉施設】浜松市浜名区中瀬3829-1", "url": "https://www.kaigokensaku.mhlw.go.jp/22/index.php?action_kouhyou_detail_004_kani=true&JigyosyoCd=2278300062-00&ServiceCd=510&Type=search", "url2": "http://www.daizen-f.com" }, "geometry": { "type": "Point", "coordinates": [ 137.81162274418034, 34.820308090830835 ] } },
{ "type": "Feature", "properties": { "内容": "介護老人福祉施設　しあわせの園【介護老人福祉施設】浜松市北区都田町1854番地", "url": "https://www.kaigokensaku.mhlw.go.jp/22/index.php?action_kouhyou_detail_004_kani=true&JigyosyoCd=2277100257-00&ServiceCd=510&Type=search", "url2": "http://www.siawase-k.com" }, "geometry": { "type": "Point", "coordinates": [ 137.7164891, 34.8191237 ] } },
{ "type": "Feature", "properties": { "内容": "ケアホームしあわせ【介護老人福祉施設】静岡県浜松市浜名区都田町9220-1", "url": "https://www.kaigokensaku.mhlw.go.jp/22/index.php?action_kouhyou_detail_004_kani=true&JigyosyoCd=2277102221-00&ServiceCd=510&Type=search", "url2": "http://www.siawase-k.com/" }, "geometry": { "type": "Point", "coordinates": [ 137.743314500000054, 34.8171726 ] } },
{ "type": "Feature", "properties": { "内容": "介護老人福祉施設　引佐みやまの里【介護老人福祉施設】静岡県浜松市浜名区引佐町奥山1576-81", "url": "https://www.kaigokensaku.mhlw.go.jp/22/index.php?action_kouhyou_detail_004_kani=true&JigyosyoCd=2277204877-00&ServiceCd=510&Type=search", "url2": "http:www.inasa-miyama.jp" }, "geometry": { "type": "Point", "coordinates": [ 137.619688736245763, 34.846515141203128 ] } },
{ "type": "Feature", "properties": { "内容": "いなさ愛光園【介護老人福祉施設】静岡県浜松市浜名区引佐町東黒田37番2号", "url": "https://www.kaigokensaku.mhlw.go.jp/22/index.php?action_kouhyou_detail_004_kani=true&JigyosyoCd=2278100066-00&ServiceCd=510&Type=search", "url2": "http://www.seirei.or.jp/elderlyhome/inasa" }, "geometry": { "type": "Point", "coordinates": [ 137.662730799999963, 34.886710800000017 ] } },
{ "type": "Feature", "properties": { "内容": "介護老人福祉施設　第二九重荘【介護老人福祉施設】浜松市北区都田町16番地の5", "url": "https://www.kaigokensaku.mhlw.go.jp/22/index.php?action_kouhyou_detail_004_kani=true&JigyosyoCd=2277100125-00&ServiceCd=510&Type=search", "url2": "http://www.jihian.or.jp" }, "geometry": { "type": "Point", "coordinates": [ 137.714325700000018, 34.809872 ] } },
{ "type": "Feature", "properties": { "内容": "浜北愛光園【介護老人福祉施設】浜松市浜名区高薗208-2", "url": "https://www.kaigokensaku.mhlw.go.jp/22/index.php?action_kouhyou_detail_004_kani=true&JigyosyoCd=2277201998-00&ServiceCd=510&Type=search", "url2": "http://www.seirei.or.jp/elderlyhome" }, "geometry": { "type": "Point", "coordinates": [ 137.812000399999988, 34.7862272 ] } },
{ "type": "Feature", "properties": { "内容": "介護老人福祉施設　第二九重荘（ユニット型）【介護老人福祉施設】都田町16-5", "url": "https://www.kaigokensaku.mhlw.go.jp/22/index.php?action_kouhyou_detail_004_kani=true&JigyosyoCd=2277202624-00&ServiceCd=510&Type=search", "url2": "http://www.jihian.or.jp/facilities/dainikokonoe_unit.php" }, "geometry": { "type": "Point", "coordinates": [ 137.714325700000018, 34.809872 ] } },
{ "type": "Feature", "properties": { "内容": "特別養護老人ホーム　鶴寿の里【介護老人福祉施設】静岡県浜松市浜名区平口2438番地", "url": "https://www.kaigokensaku.mhlw.go.jp/22/index.php?action_kouhyou_detail_004_kani=true&JigyosyoCd=2277205072-00&ServiceCd=510&Type=search", "url2": "www.houyu-kai.com" }, "geometry": { "type": "Point", "coordinates": [ 137.767347526061627, 34.795049295485725 ] } },
{ "type": "Feature", "properties": { "内容": "浜北愛光園【介護老人福祉施設】静岡県浜松市浜名区高薗208-2", "url": "https://www.kaigokensaku.mhlw.go.jp/22/index.php?action_kouhyou_detail_004_kani=true&JigyosyoCd=2278300047-00&ServiceCd=510&Type=search", "url2": "http://www.seirei.or.jp/elderlyhome/hamakita/" }, "geometry": { "type": "Point", "coordinates": [ 137.811989300000022, 34.7862022 ] } },
{ "type": "Feature", "properties": { "内容": "特別養護老人ホームさくまの里【介護老人福祉施設】静岡県浜松市天竜区佐久間町中部18-15", "url": "https://www.kaigokensaku.mhlw.go.jp/22/index.php?action_kouhyou_detail_004_kani=true&JigyosyoCd=2276600083-00&ServiceCd=510&Type=search", "url2": "http://www.seirei.or.jp/rel/sakuma/" }, "geometry": { "type": "Point", "coordinates": [ 137.799884099999986, 35.0835611 ] } },
{ "type": "Feature", "properties": { "内容": "特別養護老人ホーム百々山【介護老人福祉施設】静岡県浜松市天竜区渡ヶ島217-3", "url": "https://www.kaigokensaku.mhlw.go.jp/22/index.php?action_kouhyou_detail_004_kani=true&JigyosyoCd=2276500051-00&ServiceCd=510&Type=search", "url2": "http://www.tenryu-kohseikai.or.jp/senior/momoyama/" }, "geometry": { "type": "Point", "coordinates": [ 137.796355799999986, 34.8569393 ] } },
{ "type": "Feature", "properties": { "内容": "特別養護老人ホーム秋葉の苑【介護老人福祉施設】浜松市天竜区春野町堀之内７１", "url": "https://www.kaigokensaku.mhlw.go.jp/22/index.php?action_kouhyou_detail_004_kani=true&JigyosyoCd=2276300031-00&ServiceCd=510&Type=search", "url2": "https://akihanosono.webu.jp" }, "geometry": { "type": "Point", "coordinates": [ 137.890875899999969, 34.9550664 ] } },
{ "type": "Feature", "properties": { "内容": "特別養護老人ホーム　みさくぼの里【介護老人福祉施設】静岡県浜松市天竜区水窪町奥領家2356番地の4", "url": "https://www.kaigokensaku.mhlw.go.jp/22/index.php?action_kouhyou_detail_004_kani=true&JigyosyoCd=2277204786-00&ServiceCd=510&Type=search", "url2": "http://www.misakubo1010.com/" }, "geometry": { "type": "Point", "coordinates": [ 137.8668821, 35.1533639 ] } },
{ "type": "Feature", "properties": { "内容": "特別養護老人ホーム炉暖の郷【介護老人福祉施設】沼津市足高字尾上２４－２４", "url": "https://www.kaigokensaku.mhlw.go.jp/22/index.php?action_kouhyou_detail_004_kani=true&JigyosyoCd=2271100808-00&ServiceCd=510&Type=search", "url2": "http://www.rodankai.com./pc/" }, "geometry": { "type": "Point", "coordinates": [ 138.845820648951758, 35.147530442006321 ] } },
{ "type": "Feature", "properties": { "内容": "特別養護老人ホーム炉暖の郷【介護老人福祉施設】静岡県沼津市足高字尾上24-24", "url": "https://www.kaigokensaku.mhlw.go.jp/22/index.php?action_kouhyou_detail_004_kani=true&JigyosyoCd=2271102879-00&ServiceCd=510&Type=search", "url2": "http://www.rodankai.com/pc/index.html" }, "geometry": { "type": "Point", "coordinates": [ 138.845809920115698, 35.147653259341006 ] } },
{ "type": "Feature", "properties": { "内容": "特別養護老人ホームぬまづホーム【介護老人福祉施設】沼津市下香貫猪沼981-2", "url": "https://www.kaigokensaku.mhlw.go.jp/22/index.php?action_kouhyou_detail_004_kani=true&JigyosyoCd=2271100097-00&ServiceCd=510&Type=search", "url2": "http://www.shinai-kai.jp/numazuhome/" }, "geometry": { "type": "Point", "coordinates": [ 138.882872300000031, 35.0814889 ] } },
{ "type": "Feature", "properties": { "内容": "特別養護老人ホ－ム　和みの郷【介護老人福祉施設】沼津市大平1538-1", "url": "https://www.kaigokensaku.mhlw.go.jp/22/index.php?action_kouhyou_detail_004_kani=true&JigyosyoCd=2271100568-00&ServiceCd=510&Type=search", "url2": "http://www.shinai-kai.jp/nagomi/" }, "geometry": { "type": "Point", "coordinates": [ 138.9045731, 35.0750318 ] } },
{ "type": "Feature", "properties": { "内容": "介護老人福祉施設　みはるの丘浮島【介護老人福祉施設】沼津市平沼９２９-１", "url": "https://www.kaigokensaku.mhlw.go.jp/22/index.php?action_kouhyou_detail_004_kani=true&JigyosyoCd=2271100972-00&ServiceCd=510&Type=search", "url2": "http://www.shunpuukai.com" }, "geometry": { "type": "Point", "coordinates": [ 138.781246600000031, 35.149157 ] } },
{ "type": "Feature", "properties": { "内容": "社会福祉法人　春風会　あしたかホーム【介護老人福祉施設】沼津市東椎路1742-1", "url": "https://www.kaigokensaku.mhlw.go.jp/22/index.php?action_kouhyou_detail_004_kani=true&JigyosyoCd=2271100147-00&ServiceCd=510&Type=search", "url2": "http://www.shunpuukai.com" }, "geometry": { "type": "Point", "coordinates": [ 138.8313829, 35.1273474 ] } },
{ "type": "Feature", "properties": { "内容": "社会福祉法人　春風会　ニューあしたかホーム【介護老人福祉施設】沼津市東椎路1742-1", "url": "https://www.kaigokensaku.mhlw.go.jp/22/index.php?action_kouhyou_detail_004_kani=true&JigyosyoCd=2271102127-00&ServiceCd=510&Type=search", "url2": "http://www.shunpuukai.com" }, "geometry": { "type": "Point", "coordinates": [ 138.8313829, 35.1273474 ] } },
{ "type": "Feature", "properties": { "内容": "特別養護老人ホーム高砂【介護老人福祉施設】静岡県沼津市高砂町１－５", "url": "https://www.kaigokensaku.mhlw.go.jp/22/index.php?action_kouhyou_detail_004_kani=true&JigyosyoCd=2271102051-00&ServiceCd=510&Type=search", "url2": "http://www.hakuyu-kai.or.jp/takasago/facility" }, "geometry": { "type": "Point", "coordinates": [ 138.85694460000002, 35.1304096 ] } },
{ "type": "Feature", "properties": { "内容": "介護老人福祉施設　沼津フジビューホーム【介護老人福祉施設】沼津市大岡字柏葉尾3571番地の1", "url": "https://www.kaigokensaku.mhlw.go.jp/22/index.php?action_kouhyou_detail_004_kani=true&JigyosyoCd=2271100030-00&ServiceCd=510&Type=search", "url2": "https://care-net.biz/22/suruga/" }, "geometry": { "type": "Point", "coordinates": [ 138.882097010311867, 35.138931063831336 ] } },
{ "type": "Feature", "properties": { "内容": "特別養護老人ホーム　ひだまりの郷【介護老人福祉施設】沼津市内浦重須624", "url": "https://www.kaigokensaku.mhlw.go.jp/22/index.php?action_kouhyou_detail_004_kani=true&JigyosyoCd=2271100113-00&ServiceCd=510&Type=search", "url2": null }, "geometry": { "type": "Point", "coordinates": [ 138.883811799999989, 35.0174992 ] } },
{ "type": "Feature", "properties": { "内容": "特別養護老人ホーム　陽光園【介護老人福祉施設】沼津市岡宮字下松沢1417番地の1", "url": "https://www.kaigokensaku.mhlw.go.jp/22/index.php?action_kouhyou_detail_004_kani=true&JigyosyoCd=2271101509-00&ServiceCd=510&Type=search", "url2": "http://hakujukai-gp.jp/" }, "geometry": { "type": "Point", "coordinates": [ 138.863321205804482, 35.131511960509982 ] } },
{ "type": "Feature", "properties": { "内容": "特別養護老人ホーム　一本松【介護老人福祉施設】沼津市一本松175", "url": "https://www.kaigokensaku.mhlw.go.jp/22/index.php?action_kouhyou_detail_004_kani=true&JigyosyoCd=2271101764-00&ServiceCd=510&Type=search", "url2": "http://www.daijoukai.com/" }, "geometry": { "type": "Point", "coordinates": [ 138.7747693, 35.1297619 ] } },
{ "type": "Feature", "properties": { "内容": "特別養護老人ホーム　姫の沢荘【介護老人福祉施設】熱海市西熱海町２丁目２４－８", "url": "https://www.kaigokensaku.mhlw.go.jp/22/index.php?action_kouhyou_detail_004_kani=true&JigyosyoCd=2270500057-00&ServiceCd=510&Type=search", "url2": "http://www.ideyunosono.or.jp" }, "geometry": { "type": "Point", "coordinates": [ 139.04990650000002, 35.1142629 ] } },
{ "type": "Feature", "properties": { "内容": "特別養護老人ホーム海光園【介護老人福祉施設】熱海市上多賀1016-10", "url": "https://www.kaigokensaku.mhlw.go.jp/22/index.php?action_kouhyou_detail_004_kani=true&JigyosyoCd=2270500065-00&ServiceCd=510&Type=search", "url2": "https://www.kaikoukai-atami.org/" }, "geometry": { "type": "Point", "coordinates": [ 139.066299399999906, 35.0708125 ] } },
{ "type": "Feature", "properties": { "内容": "特別養護老人ホーム熱海伊豆海の郷【介護老人福祉施設】熱海市伊豆山７１７－１", "url": "https://www.kaigokensaku.mhlw.go.jp/22/index.php?action_kouhyou_detail_004_kani=true&JigyosyoCd=2270500313-00&ServiceCd=510&Type=search", "url2": "http://www.s-koseikai.jp/" }, "geometry": { "type": "Point", "coordinates": [ 139.084736600000042, 35.1165021 ] } },
{ "type": "Feature", "properties": { "内容": "玉澍園【介護老人福祉施設】静岡県三島市玉沢80番地", "url": "https://www.kaigokensaku.mhlw.go.jp/22/index.php?action_kouhyou_detail_004_kani=true&JigyosyoCd=2270600915-00&ServiceCd=510&Type=search", "url2": "http://www.syahuku-izu.jp" }, "geometry": { "type": "Point", "coordinates": [ 138.960164500000019, 35.122264 ] } },
{ "type": "Feature", "properties": { "内容": "特別養護老人ホーム　北上の郷【介護老人福祉施設】三島市徳倉1148番地の2", "url": "https://www.kaigokensaku.mhlw.go.jp/22/index.php?action_kouhyou_detail_004_kani=true&JigyosyoCd=2270600337-00&ServiceCd=510&Type=search", "url2": "http://www.kitauenosato.or.jp/" }, "geometry": { "type": "Point", "coordinates": [ 138.918753700000025, 35.1496854 ] } },
{ "type": "Feature", "properties": { "内容": "特別養護老人ホームあかなすの里【介護老人福祉施設】三島市玉川４２５－１", "url": "https://www.kaigokensaku.mhlw.go.jp/22/index.php?action_kouhyou_detail_004_kani=true&JigyosyoCd=2270600261-00&ServiceCd=510&Type=search", "url2": "http://akanasuno55.wix.com/akanasunosato" }, "geometry": { "type": "Point", "coordinates": [ 138.91385230000003, 35.1055398 ] } },
{ "type": "Feature", "properties": { "内容": "特別養護老人ホーム南二日町【介護老人福祉施設】静岡県三島市南二日町5番41号", "url": "https://www.kaigokensaku.mhlw.go.jp/22/index.php?action_kouhyou_detail_004_kani=true&JigyosyoCd=2270601210-00&ServiceCd=510&Type=search", "url2": "http://kashokai.or.jp" }, "geometry": { "type": "Point", "coordinates": [ 138.923166452253781, 35.109167816216761 ] } },
{ "type": "Feature", "properties": { "内容": "特別養護老人ホーム「ふるさとの丘」【介護老人福祉施設】三島市徳倉208-1", "url": "https://www.kaigokensaku.mhlw.go.jp/22/index.php?action_kouhyou_detail_004_kani=true&JigyosyoCd=2270600345-00&ServiceCd=510&Type=search", "url2": "http://www.furusatonooka.or.jp/" }, "geometry": { "type": "Point", "coordinates": [ 138.923295, 35.1425974 ] } },
{ "type": "Feature", "properties": { "内容": "特別養護老人ホ－ム御寿園【介護老人福祉施設】三島市御園５８０番地", "url": "https://www.kaigokensaku.mhlw.go.jp/22/index.php?action_kouhyou_detail_004_kani=true&JigyosyoCd=2270600022-00&ServiceCd=510&Type=search", "url2": "daijoukai.com" }, "geometry": { "type": "Point", "coordinates": [ 138.923529300000041, 35.0782403 ] } },
{ "type": "Feature", "properties": { "内容": "特別養護老人ホームいづテラス【介護老人福祉施設】三島市松本２９２－１", "url": "https://www.kaigokensaku.mhlw.go.jp/22/index.php?action_kouhyou_detail_004_kani=true&JigyosyoCd=2270600667-00&ServiceCd=510&Type=search", "url2": "http://www.wellnesscare.or.jp/" }, "geometry": { "type": "Point", "coordinates": [ 138.9173882, 35.0924162 ] } },
{ "type": "Feature", "properties": { "内容": "特別養護老人ホーム　富士宮荘【介護老人福祉施設】静岡県富士宮市上井出２０２９－１", "url": "https://www.kaigokensaku.mhlw.go.jp/22/index.php?action_kouhyou_detail_004_kani=true&JigyosyoCd=2272100013-00&ServiceCd=510&Type=search", "url2": "http://www.fujikoseikai.or.jp/fujinomiyasou/" }, "geometry": { "type": "Point", "coordinates": [ 138.607156499999974, 35.3092847 ] } },
{ "type": "Feature", "properties": { "内容": "特別養護老人ホーム　百恵の郷【介護老人福祉施設】静岡県富士宮市大鹿窪143-1", "url": "https://www.kaigokensaku.mhlw.go.jp/22/index.php?action_kouhyou_detail_004_kani=true&JigyosyoCd=2272200011-00&ServiceCd=510&Type=search", "url2": "http://www.s-koseikai.jp/" }, "geometry": { "type": "Point", "coordinates": [ 138.556695399999967, 35.2533794 ] } },
{ "type": "Feature", "properties": { "内容": "特別養護老人ホーム　星の郷【介護老人福祉施設】静岡県富士宮市星山1058番", "url": "https://www.kaigokensaku.mhlw.go.jp/22/index.php?action_kouhyou_detail_004_kani=true&JigyosyoCd=2272100179-00&ServiceCd=510&Type=search", "url2": "http://www.hoshi-no-sato.co.jp/" }, "geometry": { "type": "Point", "coordinates": [ 138.618088100000023, 35.20432 ] } },
{ "type": "Feature", "properties": { "内容": "特別養護老人ホームしらいと【介護老人福祉施設】富士宮市上井出１２８５－１", "url": "https://www.kaigokensaku.mhlw.go.jp/22/index.php?action_kouhyou_detail_004_kani=true&JigyosyoCd=2272100062-00&ServiceCd=510&Type=search", "url2": "https://www.tenryu-kohseikai.or.jp/kourei/shiraito/" }, "geometry": { "type": "Point", "coordinates": [ 138.596279699999968, 35.310226 ] } },
{ "type": "Feature", "properties": { "内容": "特別養護老人ホーム　高原荘【介護老人福祉施設】静岡県富士宮市貫戸１０３番地の２", "url": "https://www.kaigokensaku.mhlw.go.jp/22/index.php?action_kouhyou_detail_004_kani=true&JigyosyoCd=2272100021-00&ServiceCd=510&Type=search", "url2": "http://www.takaharasou.jp/" }, "geometry": { "type": "Point", "coordinates": [ 138.623205884655789, 35.203572183840031 ] } },
{ "type": "Feature", "properties": { "内容": "特別養護老人ホーム楓の丘【介護老人福祉施設】富士宮市羽鮒２５０５－１", "url": "https://www.kaigokensaku.mhlw.go.jp/22/index.php?action_kouhyou_detail_004_kani=true&JigyosyoCd=2272101193-00&ServiceCd=510&Type=search", "url2": "http://s-koseikai.jp/" }, "geometry": { "type": "Point", "coordinates": [ 138.582502200000022, 35.2142483 ] } },
{ "type": "Feature", "properties": { "内容": "特別養護老人ホーム　うさみの園【介護老人福祉施設】伊東市宇佐美2403-1", "url": "https://www.kaigokensaku.mhlw.go.jp/22/index.php?action_kouhyou_detail_004_kani=true&JigyosyoCd=2270400316-00&ServiceCd=510&Type=search", "url2": "http://www.kansekien.com" }, "geometry": { "type": "Point", "coordinates": [ 139.065860199999946, 35.0010242 ] } },
{ "type": "Feature", "properties": { "内容": "特別養護老人ホーム　伊豆の瞳【介護老人福祉施設】静岡県伊東市吉田821-19", "url": "https://www.kaigokensaku.mhlw.go.jp/22/index.php?action_kouhyou_detail_004_kani=true&JigyosyoCd=2270401025-00&ServiceCd=510&Type=search", "url2": "http://hakujukai-gp.jp/" }, "geometry": { "type": "Point", "coordinates": [ 139.107612900000049, 34.9317485 ] } },
{ "type": "Feature", "properties": { "内容": "特別養護老人ホーム　伊豆の瞳プラス【介護老人福祉施設】静岡県伊東市吉田８２１―１９", "url": "https://www.kaigokensaku.mhlw.go.jp/22/index.php?action_kouhyou_detail_004_kani=true&JigyosyoCd=2270401280-00&ServiceCd=510&Type=search", "url2": "https://www.hakuju-kai.com/" }, "geometry": { "type": "Point", "coordinates": [ 139.107206924467476, 34.932190496550334 ] } },
{ "type": "Feature", "properties": { "内容": "特別養護老人ホーム　城ヶ崎いこいの園【介護老人福祉施設】伊東市富戸1219番地の5", "url": "https://www.kaigokensaku.mhlw.go.jp/22/index.php?action_kouhyou_detail_004_kani=true&JigyosyoCd=2270400043-00&ServiceCd=510&Type=search", "url2": "http://www.ikoinosato.jp/" }, "geometry": { "type": "Point", "coordinates": [ 139.1363758, 34.9135226 ] } },
{ "type": "Feature", "properties": { "内容": "特別養護老人ホーム　奥野苑【介護老人福祉施設】伊東市荻７７２－１", "url": "https://www.kaigokensaku.mhlw.go.jp/22/index.php?action_kouhyou_detail_004_kani=true&JigyosyoCd=2270400050-00&ServiceCd=510&Type=search", "url2": "http://www.h2.dion.ne.jp/~ikoi/" }, "geometry": { "type": "Point", "coordinates": [ 139.074248, 34.9371691 ] } },
{ "type": "Feature", "properties": { "内容": "伊豆高原十字の園【介護老人福祉施設】伊東市八幡野１０２８番地の４", "url": "https://www.kaigokensaku.mhlw.go.jp/22/index.php?action_kouhyou_detail_004_kani=true&JigyosyoCd=2270400068-00&ServiceCd=510&Type=search", "url2": "http://www.jyuji.or.jp/ito_city/izukougen/" }, "geometry": { "type": "Point", "coordinates": [ 139.11648260000004, 34.8752683 ] } },
{ "type": "Feature", "properties": { "内容": "特別養護老人ホーム　あすか【介護老人福祉施設】島田市中河町326番地の１", "url": "https://www.kaigokensaku.mhlw.go.jp/22/index.php?action_kouhyou_detail_004_kani=true&JigyosyoCd=2275400196-00&ServiceCd=510&Type=search", "url2": "http://care-net.biz/22/asuka/" }, "geometry": { "type": "Point", "coordinates": [ 138.17735760000005, 34.8395576 ] } },
{ "type": "Feature", "properties": { "内容": "特別養護老人ホーム　かなや【介護老人福祉施設】静岡県島田市島５３６番１", "url": "https://www.kaigokensaku.mhlw.go.jp/22/index.php?action_kouhyou_detail_004_kani=true&JigyosyoCd=2275400378-00&ServiceCd=510&Type=search", "url2": "https://www.tokuyou-kanaya.com" }, "geometry": { "type": "Point", "coordinates": [ 138.1268265, 34.841987 ] } },
{ "type": "Feature", "properties": { "内容": "特別養護老人ホームひぎり【介護老人福祉施設】静岡県島田市島829-2", "url": "https://www.kaigokensaku.mhlw.go.jp/22/index.php?action_kouhyou_detail_004_kani=true&JigyosyoCd=2275400972-00&ServiceCd=510&Type=search", "url2": "http://www.youshoukai.or.jp" }, "geometry": { "type": "Point", "coordinates": [ 138.1226881, 34.8387179 ] } },
{ "type": "Feature", "properties": { "内容": "特別養護老人ホームみどりの園【介護老人福祉施設】島田市中河375番地の１", "url": "https://www.kaigokensaku.mhlw.go.jp/22/index.php?action_kouhyou_detail_004_kani=true&JigyosyoCd=2275400022-00&ServiceCd=510&Type=search", "url2": "http://care-net.biz/22/midori/" }, "geometry": { "type": "Point", "coordinates": [ 138.2356218, 34.8073841 ] } },
{ "type": "Feature", "properties": { "内容": "特別養護老人ホームとこは【介護老人福祉施設】静岡県島田市川根町家山4168番地の1", "url": "https://www.kaigokensaku.mhlw.go.jp/22/index.php?action_kouhyou_detail_004_kani=true&JigyosyoCd=2275500482-00&ServiceCd=510&Type=search", "url2": "http://www.tokohafukushikai.or.jp" }, "geometry": { "type": "Point", "coordinates": [ 138.082594400000062, 34.919951 ] } },
{ "type": "Feature", "properties": { "内容": "特別養護老人ホーム　本田山荘【介護老人福祉施設】島田市牛尾1102番地の1", "url": "https://www.kaigokensaku.mhlw.go.jp/22/index.php?action_kouhyou_detail_004_kani=true&JigyosyoCd=2275500151-00&ServiceCd=510&Type=search", "url2": "http://hondenyamaso.jp/" }, "geometry": { "type": "Point", "coordinates": [ 138.128395599999976, 34.850786 ] } },
{ "type": "Feature", "properties": { "内容": "永福荘【介護老人福祉施設】島田市大草１０番地", "url": "https://www.kaigokensaku.mhlw.go.jp/22/index.php?action_kouhyou_detail_004_kani=true&JigyosyoCd=2275400014-00&ServiceCd=510&Type=search", "url2": "https://www.eifukuso.or.jp" }, "geometry": { "type": "Point", "coordinates": [ 138.180338300000017, 34.8601328 ] } },
{ "type": "Feature", "properties": { "内容": "特別養護老人ホーム　ほたるの丘【介護老人福祉施設】静岡県島田市阪本2449番地の2", "url": "https://www.kaigokensaku.mhlw.go.jp/22/index.php?action_kouhyou_detail_004_kani=true&JigyosyoCd=2275400436-00&ServiceCd=510&Type=search", "url2": "www.hotaru-oka.com" }, "geometry": { "type": "Point", "coordinates": [ 138.207371200000011, 34.806181100000011 ] } },
{ "type": "Feature", "properties": { "内容": "特別養護老人ホーム月のあかり【介護老人福祉施設】富士市大淵８４７番地4", "url": "https://www.kaigokensaku.mhlw.go.jp/22/index.php?action_kouhyou_detail_004_kani=true&JigyosyoCd=2272302684-00&ServiceCd=510&Type=search", "url2": "http://s-koseikai.jp/tsukinoakari/index.html" }, "geometry": { "type": "Point", "coordinates": [ 138.697900066500893, 35.202848182992007 ] } },
{ "type": "Feature", "properties": { "内容": "特別養護老人ホーム　富士楽寿園【介護老人福祉施設】静岡県富士市大淵2087-1", "url": "https://www.kaigokensaku.mhlw.go.jp/22/index.php?action_kouhyou_detail_004_kani=true&JigyosyoCd=2272303310-00&ServiceCd=510&Type=search", "url2": "https://www.seishinkai.info/" }, "geometry": { "type": "Point", "coordinates": [ 138.685687669814371, 35.228320282119341 ] } },
{ "type": "Feature", "properties": { "内容": "特別養護老人ホームみぎわ園【介護老人福祉施設】富士市今泉2210なし", "url": "https://www.kaigokensaku.mhlw.go.jp/22/index.php?action_kouhyou_detail_004_kani=true&JigyosyoCd=2272300852-00&ServiceCd=510&Type=search", "url2": "http://www.fuyoukai.org" }, "geometry": { "type": "Point", "coordinates": [ 138.686174599999958, 35.1723721 ] } },
{ "type": "Feature", "properties": { "内容": "特別養護老人ホーム　すどの杜【介護老人福祉施設】富士市増川510-1", "url": "https://www.kaigokensaku.mhlw.go.jp/22/index.php?action_kouhyou_detail_004_kani=true&JigyosyoCd=2272300092-00&ServiceCd=510&Type=search", "url2": "http://www.miyoshikai.or.jp" }, "geometry": { "type": "Point", "coordinates": [ 138.746932300000026, 35.1584442 ] } },
{ "type": "Feature", "properties": { "内容": "特別養護老人ホーム　加島の郷【介護老人福祉施設】静岡県富士市水戸島本町7番8号", "url": "https://www.kaigokensaku.mhlw.go.jp/22/index.php?action_kouhyou_detail_004_kani=true&JigyosyoCd=2272303138-00&ServiceCd=510&Type=search", "url2": "http;//kajimanosato.com/" }, "geometry": { "type": "Point", "coordinates": [ 138.6486099, 35.1472296 ] } },
{ "type": "Feature", "properties": { "内容": "特別養護老人ホーム　シャローム富士川【介護老人福祉施設】富士市北松野１０７１", "url": "https://www.kaigokensaku.mhlw.go.jp/22/index.php?action_kouhyou_detail_004_kani=true&JigyosyoCd=2273100186-00&ServiceCd=510&Type=search", "url2": "http://www.fujikoseikai.or.jp/shalorm/index.html" }, "geometry": { "type": "Point", "coordinates": [ 138.587757499999952, 35.1892038 ] } },
{ "type": "Feature", "properties": { "内容": "特別養護老人ホーム　加島の郷【介護老人福祉施設】富士市水戸島本町7番8号", "url": "https://www.kaigokensaku.mhlw.go.jp/22/index.php?action_kouhyou_detail_004_kani=true&JigyosyoCd=2272300613-00&ServiceCd=510&Type=search", "url2": "http;//kajimanosato.com/" }, "geometry": { "type": "Point", "coordinates": [ 138.648576715869126, 35.147309751161039 ] } },
{ "type": "Feature", "properties": { "内容": "特別養護老人ホーム　ヴィラージュ富士【介護老人福祉施設】富士市厚原359-8", "url": "https://www.kaigokensaku.mhlw.go.jp/22/index.php?action_kouhyou_detail_004_kani=true&JigyosyoCd=2272300977-00&ServiceCd=510&Type=search", "url2": "https://www.syuuseikai.or.jp/facility04/" }, "geometry": { "type": "Point", "coordinates": [ 138.657185600000048, 35.180249 ] } },
{ "type": "Feature", "properties": { "内容": "特別養護老人ホーム富士まかど【介護老人福祉施設】静岡県富士市間門226番の1", "url": "https://www.kaigokensaku.mhlw.go.jp/22/index.php?action_kouhyou_detail_004_kani=true&JigyosyoCd=2272302114-00&ServiceCd=510&Type=search", "url2": "https://kansekien.com./makado/" }, "geometry": { "type": "Point", "coordinates": [ 138.724286399999983, 35.1872241 ] } },
{ "type": "Feature", "properties": { "内容": "特別養護老人ホーム鑑石園【介護老人福祉施設】富士市原田1350-16", "url": "https://www.kaigokensaku.mhlw.go.jp/22/index.php?action_kouhyou_detail_004_kani=true&JigyosyoCd=2272300076-00&ServiceCd=510&Type=search", "url2": "https://kansekien.com" }, "geometry": { "type": "Point", "coordinates": [ 138.713585299999977, 35.1717869 ] } },
{ "type": "Feature", "properties": { "内容": "特別養護老人ホーム　天間荘【介護老人福祉施設】静岡県富士市天間1602", "url": "https://www.kaigokensaku.mhlw.go.jp/22/index.php?action_kouhyou_detail_004_kani=true&JigyosyoCd=2272300027-00&ServiceCd=510&Type=search", "url2": "http://shinai-kai.jp/" }, "geometry": { "type": "Point", "coordinates": [ 138.648091600000043, 35.2066206 ] } },
{ "type": "Feature", "properties": { "内容": "特別養護老人ホーム岩本園【介護老人福祉施設】富士市岩本１１８４－１", "url": "https://www.kaigokensaku.mhlw.go.jp/22/index.php?action_kouhyou_detail_004_kani=true&JigyosyoCd=2272300118-00&ServiceCd=510&Type=search", "url2": "http://gakuyoukai.or.jp" }, "geometry": { "type": "Point", "coordinates": [ 138.632842699999969, 35.1800705 ] } },
{ "type": "Feature", "properties": { "内容": "特別養護老人ホーム西貝の郷【介護老人福祉施設】磐田市西貝塚2111番地1", "url": "https://www.kaigokensaku.mhlw.go.jp/22/index.php?action_kouhyou_detail_004_kani=true&JigyosyoCd=2276700181-00&ServiceCd=510&Type=search", "url2": "http://www.saishinkai.or.jp" }, "geometry": { "type": "Point", "coordinates": [ 137.872475099999974, 34.7177928 ] } },
{ "type": "Feature", "properties": { "内容": "特別養護老人ホーム　西之島の郷【介護老人福祉施設】磐田市西之島26番地1", "url": "https://www.kaigokensaku.mhlw.go.jp/22/index.php?action_kouhyou_detail_004_kani=true&JigyosyoCd=2276900228-00&ServiceCd=510&Type=search", "url2": "http://saishinkai.or.jp/nishinoshima" }, "geometry": { "type": "Point", "coordinates": [ 137.879803199999969, 34.6984537 ] } },
{ "type": "Feature", "properties": { "内容": "特別養護老人ホーム　第二白寿園【介護老人福祉施設】静岡県磐田市掛塚　3160-1", "url": "https://www.kaigokensaku.mhlw.go.jp/22/index.php?action_kouhyou_detail_004_kani=true&JigyosyoCd=2276901036-00&ServiceCd=510&Type=search", "url2": "http://www.hakuju.jp/index.php" }, "geometry": { "type": "Point", "coordinates": [ 137.803958200000011, 34.6638972 ] } },
{ "type": "Feature", "properties": { "内容": "社会福祉法人　丹穂会　福寿荘【介護老人福祉施設】磐田市宇兵衛新田１８７", "url": "https://www.kaigokensaku.mhlw.go.jp/22/index.php?action_kouhyou_detail_004_kani=true&JigyosyoCd=2276600059-00&ServiceCd=510&Type=search", "url2": null }, "geometry": { "type": "Point", "coordinates": [ 137.860792400000037, 34.6752565 ] } },
{ "type": "Feature", "properties": { "内容": "特別養護老人ホーム　中泉の里【介護老人福祉施設】磐田市中泉2414-1", "url": "https://www.kaigokensaku.mhlw.go.jp/22/index.php?action_kouhyou_detail_004_kani=true&JigyosyoCd=2276900582-00&ServiceCd=510&Type=search", "url2": "http://nakaizuminosato.web.fc2.com/" }, "geometry": { "type": "Point", "coordinates": [ 137.8446113, 34.7141815 ] } },
{ "type": "Feature", "properties": { "内容": "特別養護老人ホーム　中泉の里第２【介護老人福祉施設】磐田市中泉2414-1", "url": "https://www.kaigokensaku.mhlw.go.jp/22/index.php?action_kouhyou_detail_004_kani=true&JigyosyoCd=2276900590-00&ServiceCd=510&Type=search", "url2": "http://nakaizuminosato.web.fc2.com/" }, "geometry": { "type": "Point", "coordinates": [ 137.8446113, 34.7141815 ] } },
{ "type": "Feature", "properties": { "内容": "特別養護老人ホーム白寿園【介護老人福祉施設】磐田市掛塚3172番地", "url": "https://www.kaigokensaku.mhlw.go.jp/22/index.php?action_kouhyou_detail_004_kani=true&JigyosyoCd=2276600034-00&ServiceCd=510&Type=search", "url2": "http://www.hakuju.jp" }, "geometry": { "type": "Point", "coordinates": [ 137.8039387, 34.6642444 ] } },
{ "type": "Feature", "properties": { "内容": "特別養護老人ホーム豊田ゆうあいの里【介護老人福祉施設】静岡県磐田市下万能700番地", "url": "https://www.kaigokensaku.mhlw.go.jp/22/index.php?action_kouhyou_detail_004_kani=true&JigyosyoCd=2276900053-00&ServiceCd=510&Type=search", "url2": "http://www.enchu-fukushikai.or.jp/" }, "geometry": { "type": "Point", "coordinates": [ 137.83107080000002, 34.7150751 ] } },
{ "type": "Feature", "properties": { "内容": "介護老人福祉施設梅香の里【介護老人福祉施設】磐田市下野部363-1", "url": "https://www.kaigokensaku.mhlw.go.jp/22/index.php?action_kouhyou_detail_004_kani=true&JigyosyoCd=2276900186-00&ServiceCd=510&Type=search", "url2": "http://www.hashoukai.jp" }, "geometry": { "type": "Point", "coordinates": [ 137.8464401, 34.8350333 ] } },
{ "type": "Feature", "properties": { "内容": "特別養護老人ホーム豊仙苑【介護老人福祉施設】磐田市敷地83番地8", "url": "https://www.kaigokensaku.mhlw.go.jp/22/index.php?action_kouhyou_detail_004_kani=true&JigyosyoCd=2276600075-00&ServiceCd=510&Type=search", "url2": "http://www.housenen.or.jp/" }, "geometry": { "type": "Point", "coordinates": [ 137.861167099999989, 34.8218302 ] } },
{ "type": "Feature", "properties": { "内容": "特別養護老人ホーム豊田一空園【介護老人福祉施設】磐田市東原207-1", "url": "https://www.kaigokensaku.mhlw.go.jp/22/index.php?action_kouhyou_detail_004_kani=true&JigyosyoCd=2276600018-00&ServiceCd=510&Type=search", "url2": "http://hashoukai.or.jp" }, "geometry": { "type": "Point", "coordinates": [ 137.84438810000006, 34.743222 ] } },
{ "type": "Feature", "properties": { "内容": "特別養護老人ホーム遠州の園【介護老人福祉施設】磐田市大久保522-1", "url": "https://www.kaigokensaku.mhlw.go.jp/22/index.php?action_kouhyou_detail_004_kani=true&JigyosyoCd=2276700032-00&ServiceCd=510&Type=search", "url2": "http://www.tohtoumi-kouseien.or.jp" }, "geometry": { "type": "Point", "coordinates": [ 137.853249065992685, 34.767761441770091 ] } },
{ "type": "Feature", "properties": { "内容": "特別養護老人ﾎｰﾑ遠州の園【介護老人福祉施設】大久保522-1", "url": "https://www.kaigokensaku.mhlw.go.jp/22/index.php?action_kouhyou_detail_004_kani=true&JigyosyoCd=2276900624-00&ServiceCd=510&Type=search", "url2": "www.tohtoumi-kouseien.or.jp/" }, "geometry": { "type": "Point", "coordinates": [ 137.853311599999984, 34.7676777 ] } },
{ "type": "Feature", "properties": { "内容": "特別養護老人ホーム第二遠州の園【介護老人福祉施設】磐田市鮫島１８０４－１", "url": "https://www.kaigokensaku.mhlw.go.jp/22/index.php?action_kouhyou_detail_004_kani=true&JigyosyoCd=2276700024-00&ServiceCd=510&Type=search", "url2": "https://www.tohtoumi-kouseien.or.jp/" }, "geometry": { "type": "Point", "coordinates": [ 137.8478854, 34.6678015 ] } },
{ "type": "Feature", "properties": { "内容": "特別養護老人ホーム　つばさ【介護老人福祉施設】焼津市田尻北７９２－１", "url": "https://www.kaigokensaku.mhlw.go.jp/22/index.php?action_kouhyou_detail_004_kani=true&JigyosyoCd=2275100184-00&ServiceCd=510&Type=search", "url2": "http://www.tubasa.or.jp" }, "geometry": { "type": "Point", "coordinates": [ 138.330058300000019, 34.8343994 ] } },
{ "type": "Feature", "properties": { "内容": "特別養護老人ホーム福聚荘【介護老人福祉施設】静岡県焼津市大島649", "url": "https://www.kaigokensaku.mhlw.go.jp/22/index.php?action_kouhyou_detail_004_kani=true&JigyosyoCd=2275100077-00&ServiceCd=510&Type=search", "url2": "http://www.eiikukai.jp/" }, "geometry": { "type": "Point", "coordinates": [ 138.2822261, 34.8214597 ] } },
{ "type": "Feature", "properties": { "内容": "特別養護老人ホームあおい荘【介護老人福祉施設】焼津市一色４３５番地", "url": "https://www.kaigokensaku.mhlw.go.jp/22/index.php?action_kouhyou_detail_004_kani=true&JigyosyoCd=2275100069-00&ServiceCd=510&Type=search", "url2": "https://www.aoiso.net" }, "geometry": { "type": "Point", "coordinates": [ 138.31477730000006, 34.8239092 ] } },
{ "type": "Feature", "properties": { "内容": "特別養護老人ホーム　大富陽光園【介護老人福祉施設】静岡県焼津市三右衛門新田675-1", "url": "https://www.kaigokensaku.mhlw.go.jp/22/index.php?action_kouhyou_detail_004_kani=true&JigyosyoCd=2275101455-00&ServiceCd=510&Type=search", "url2": "https://www.hakuju-kai.com/" }, "geometry": { "type": "Point", "coordinates": [ 138.292678078706786, 34.846362042206458 ] } },
{ "type": "Feature", "properties": { "内容": "特別養護老人ホーム大井川睦園【介護老人福祉施設】静岡県焼津市高新田2326番58", "url": "https://www.kaigokensaku.mhlw.go.jp/22/index.php?action_kouhyou_detail_004_kani=true&JigyosyoCd=2275200018-00&ServiceCd=510&Type=search", "url2": "https://www.mutumien.jp" }, "geometry": { "type": "Point", "coordinates": [ 138.31272869999998, 34.8021234 ] } },
{ "type": "Feature", "properties": { "内容": "特別養護老人ホーム　つばさ豊田【介護老人福祉施設】焼津市保福島１２０２", "url": "https://www.kaigokensaku.mhlw.go.jp/22/index.php?action_kouhyou_detail_004_kani=true&JigyosyoCd=2275100648-00&ServiceCd=510&Type=search", "url2": "http:/tubasatoyoda.jp/" }, "geometry": { "type": "Point", "coordinates": [ 138.287691699999982, 34.8692533 ] } },
{ "type": "Feature", "properties": { "内容": "特別養護老人ホーム　高麓【介護老人福祉施設】焼津市坂本385-1", "url": "https://www.kaigokensaku.mhlw.go.jp/22/index.php?action_kouhyou_detail_004_kani=true&JigyosyoCd=2275100044-00&ServiceCd=510&Type=search", "url2": "http://www.kouroku.com/" }, "geometry": { "type": "Point", "coordinates": [ 138.309513299999907, 34.8910122 ] } },
{ "type": "Feature", "properties": { "内容": "ユニット型特別養護老人ホーム高麓【介護老人福祉施設】静岡県焼津市坂本385番地の1", "url": "https://www.kaigokensaku.mhlw.go.jp/22/index.php?action_kouhyou_detail_004_kani=true&JigyosyoCd=2275101281-00&ServiceCd=510&Type=search", "url2": "http://www.kouroku.com/" }, "geometry": { "type": "Point", "coordinates": [ 138.309513299999907, 34.8910122 ] } },
{ "type": "Feature", "properties": { "内容": "大東苑【介護老人福祉施設】掛川市下土方3584番地の1", "url": "https://www.kaigokensaku.mhlw.go.jp/22/index.php?action_kouhyou_detail_004_kani=true&JigyosyoCd=2276100035-00&ServiceCd=510&Type=search", "url2": "http://www.daitofukushikai.com" }, "geometry": { "type": "Point", "coordinates": [ 138.043141, 34.6903472 ] } },
{ "type": "Feature", "properties": { "内容": "特別養護老人ホーム掛川福祉ノ郷【介護老人福祉施設】掛川市上西郷７９２１－１", "url": "https://www.kaigokensaku.mhlw.go.jp/22/index.php?action_kouhyou_detail_004_kani=true&JigyosyoCd=2277400137-00&ServiceCd=510&Type=search", "url2": "http://www.daizen-f.com/" }, "geometry": { "type": "Point", "coordinates": [ 138.023578199999946, 34.8186229 ] } },
{ "type": "Feature", "properties": { "内容": "特別養護老人ホーム　さやの家【介護老人福祉施設】掛川市長谷1673", "url": "https://www.kaigokensaku.mhlw.go.jp/22/index.php?action_kouhyou_detail_004_kani=true&JigyosyoCd=2276200017-00&ServiceCd=510&Type=search", "url2": "http://www.tenryu-kohseikai.or.jp" }, "geometry": { "type": "Point", "coordinates": [ 137.990346499999987, 34.7695638 ] } },
{ "type": "Feature", "properties": { "内容": "特別養護老人ホーム　さやの家【介護老人福祉施設】掛川市長谷1673", "url": "https://www.kaigokensaku.mhlw.go.jp/22/index.php?action_kouhyou_detail_004_kani=true&JigyosyoCd=2277400384-00&ServiceCd=510&Type=search", "url2": "http://www.tenryu-kohseikai.or.jp" }, "geometry": { "type": "Point", "coordinates": [ 137.990346499999987, 34.7695638 ] } },
{ "type": "Feature", "properties": { "内容": "特別養護老人ホーム　くにやす苑【介護老人福祉施設】掛川市国安１７１７－１", "url": "https://www.kaigokensaku.mhlw.go.jp/22/index.php?action_kouhyou_detail_004_kani=true&JigyosyoCd=2276100431-00&ServiceCd=510&Type=search", "url2": "http://daitofukushikai.com/" }, "geometry": { "type": "Point", "coordinates": [ 138.06642080000006, 34.6564432 ] } },
{ "type": "Feature", "properties": { "内容": "特別養護老人ホームおおすか苑(従来型)【介護老人福祉施設】静岡県掛川市大渕４８９５番地おおすか苑", "url": "https://www.kaigokensaku.mhlw.go.jp/22/index.php?action_kouhyou_detail_004_kani=true&JigyosyoCd=2277400491-00&ServiceCd=510&Type=search", "url2": "http://www.oosukaen.or.jp" }, "geometry": { "type": "Point", "coordinates": [ 138.016149, 34.6686712 ] } },
{ "type": "Feature", "properties": { "内容": "特別養護老人ホームおおすか苑（ユニット型）【介護老人福祉施設】静岡県掛川市大渕4895番地", "url": "https://www.kaigokensaku.mhlw.go.jp/22/index.php?action_kouhyou_detail_004_kani=true&JigyosyoCd=2277400509-00&ServiceCd=510&Type=search", "url2": "www.oosukaen.or.jp" }, "geometry": { "type": "Point", "coordinates": [ 138.016149, 34.6686712 ] } },
{ "type": "Feature", "properties": { "内容": "特別養護老人ホームかけがわ苑【介護老人福祉施設】静岡県掛川市大池６４８番地", "url": "https://www.kaigokensaku.mhlw.go.jp/22/index.php?action_kouhyou_detail_004_kani=true&JigyosyoCd=2276200033-00&ServiceCd=510&Type=search", "url2": "http://www.kake-en.or.jp" }, "geometry": { "type": "Point", "coordinates": [ 137.987903718385269, 34.774824897484251 ] } },
{ "type": "Feature", "properties": { "内容": "特別養護老人ホーム　ラスール掛川【介護老人福祉施設】静岡県掛川市杉谷南1-1-20特別養護老人ホーム　ラスール掛川", "url": "https://www.kaigokensaku.mhlw.go.jp/22/index.php?action_kouhyou_detail_004_kani=true&JigyosyoCd=2277400723-00&ServiceCd=510&Type=search", "url2": "momoha-bloom.or.jp/lasoeur.html" }, "geometry": { "type": "Point", "coordinates": [ 138.028091598147597, 34.760440663913037 ] } },
{ "type": "Feature", "properties": { "内容": "ユニット型亀寿の郷指定介護老人福祉施設【介護老人福祉施設】静岡県藤枝市岡部町内谷１３３４番地の４", "url": "https://www.kaigokensaku.mhlw.go.jp/22/index.php?action_kouhyou_detail_004_kani=true&JigyosyoCd=2275301865-00&ServiceCd=510&Type=search", "url2": "http://hadukikai.jp/kijyunosato/" }, "geometry": { "type": "Point", "coordinates": [ 138.289707522090168, 34.9085128 ] } },
{ "type": "Feature", "properties": { "内容": "亀寿の郷指定介護老人福祉施設【介護老人福祉施設】静岡県藤枝市岡部町内谷１３３４番地の４", "url": "https://www.kaigokensaku.mhlw.go.jp/22/index.php?action_kouhyou_detail_004_kani=true&JigyosyoCd=2275200026-00&ServiceCd=510&Type=search", "url2": "http://hadukikai.jp/kijyunosato/" }, "geometry": { "type": "Point", "coordinates": [ 138.289700453967271, 34.908500218873577 ] } },
{ "type": "Feature", "properties": { "内容": "特別養護老人ホーム愛華の郷【介護老人福祉施設】静岡県藤枝市大東町58番地", "url": "https://www.kaigokensaku.mhlw.go.jp/22/index.php?action_kouhyou_detail_004_kani=true&JigyosyoCd=2275300446-00&ServiceCd=510&Type=search", "url2": "http://aikanosato.com/" }, "geometry": { "type": "Point", "coordinates": [ 138.262400399999933, 34.8248331 ] } },
{ "type": "Feature", "properties": { "内容": "特別養護老人ホームふじトピア【介護老人福祉施設】藤枝市時ヶ谷417番地2", "url": "https://www.kaigokensaku.mhlw.go.jp/22/index.php?action_kouhyou_detail_004_kani=true&JigyosyoCd=2275300172-00&ServiceCd=510&Type=search", "url2": "https://fujitopia.jp/" }, "geometry": { "type": "Point", "coordinates": [ 138.258649900000023, 34.8858675 ] } },
{ "type": "Feature", "properties": { "内容": "特別養護老人ホームきらら藤枝【介護老人福祉施設】藤枝市八幡198番地", "url": "https://www.kaigokensaku.mhlw.go.jp/22/index.php?action_kouhyou_detail_004_kani=true&JigyosyoCd=2275300818-00&ServiceCd=510&Type=search", "url2": "http://www.kenminkouseikai.net." }, "geometry": { "type": "Point", "coordinates": [ 138.274598200000014, 34.8856595 ] } },
{ "type": "Feature", "properties": { "内容": "介護老人福祉施設開寿園ユニット葉梨【介護老人福祉施設】静岡県藤枝市中ノ合２５２－１", "url": "https://www.kaigokensaku.mhlw.go.jp/22/index.php?action_kouhyou_detail_004_kani=true&JigyosyoCd=2275301808-00&ServiceCd=510&Type=search", "url2": "http://www.fusuikai.jp" }, "geometry": { "type": "Point", "coordinates": [ 138.250588900000025, 34.9048828 ] } },
{ "type": "Feature", "properties": { "内容": "介護老人福祉施設　開寿園【介護老人福祉施設】藤枝市中ノ合252番地の1特別養護老人ホーム　開寿園", "url": "https://www.kaigokensaku.mhlw.go.jp/22/index.php?action_kouhyou_detail_004_kani=true&JigyosyoCd=2275300065-00&ServiceCd=510&Type=search", "url2": "http://www.fusuikai.jp" }, "geometry": { "type": "Point", "coordinates": [ 138.250361699999985, 34.904734 ] } },
{ "type": "Feature", "properties": { "内容": "特別養護老人ホーム菜の花【介護老人福祉施設】藤枝市内瀬戸194番地の1", "url": "https://www.kaigokensaku.mhlw.go.jp/22/index.php?action_kouhyou_detail_004_kani=true&JigyosyoCd=2275301196-00&ServiceCd=510&Type=search", "url2": "http://seikeikai.info/" }, "geometry": { "type": "Point", "coordinates": [ 138.233782900000051, 34.8530013 ] } },
{ "type": "Feature", "properties": { "内容": "介護老人福祉施設　第2開寿園【介護老人福祉施設】藤枝市青南町1-12-13", "url": "https://www.kaigokensaku.mhlw.go.jp/22/index.php?action_kouhyou_detail_004_kani=true&JigyosyoCd=2275300073-00&ServiceCd=510&Type=search", "url2": "http://www.fusuikai.jp/" }, "geometry": { "type": "Point", "coordinates": [ 138.240627099999983, 34.8363586 ] } },
{ "type": "Feature", "properties": { "内容": "指定介護老人福祉施設　オレンジシャトー富岳【介護老人福祉施設】静岡県御殿場市神山１９２５番地の１１９３", "url": "https://www.kaigokensaku.mhlw.go.jp/22/index.php?action_kouhyou_detail_004_kani=true&JigyosyoCd=2271200046-00&ServiceCd=510&Type=search", "url2": "http://www.fugakukai.com/" }, "geometry": { "type": "Point", "coordinates": [ 138.9023532, 35.2347848 ] } },
{ "type": "Feature", "properties": { "内容": "特別養護老人ホームふじあざみ【介護老人福祉施設】静岡県御殿場市印野字程塚1549番地の1", "url": "https://www.kaigokensaku.mhlw.go.jp/22/index.php?action_kouhyou_detail_004_kani=true&JigyosyoCd=2271200806-00&ServiceCd=510&Type=search", "url2": "http://www.hakuyu-kai.or.jp/fujiazami/" }, "geometry": { "type": "Point", "coordinates": [ 138.809566499999988, 35.3060284 ] } },
{ "type": "Feature", "properties": { "内容": "特別養護老人ホーム　ふじあざみ【介護老人福祉施設】静岡県御殿場市印野字程塚1549番地の1", "url": "https://www.kaigokensaku.mhlw.go.jp/22/index.php?action_kouhyou_detail_004_kani=true&JigyosyoCd=2271200814-00&ServiceCd=510&Type=search", "url2": "http://www.hakuyu-kai.or.jp/fujiazami/" }, "geometry": { "type": "Point", "coordinates": [ 138.809566499999988, 35.3060284 ] } },
{ "type": "Feature", "properties": { "内容": "御殿場十字の園【介護老人福祉施設】御殿場市深沢1465番地の１", "url": "https://www.kaigokensaku.mhlw.go.jp/22/index.php?action_kouhyou_detail_004_kani=true&JigyosyoCd=2271200053-00&ServiceCd=510&Type=search", "url2": "http://www.jyuji.or.jp/" }, "geometry": { "type": "Point", "coordinates": [ 138.959625299999971, 35.3122431 ] } },
{ "type": "Feature", "properties": { "内容": "特別養護老人ホーム白雪【介護老人福祉施設】御殿場市川島田字南原２７０番地", "url": "https://www.kaigokensaku.mhlw.go.jp/22/index.php?action_kouhyou_detail_004_kani=true&JigyosyoCd=2271200277-00&ServiceCd=510&Type=search", "url2": "http://www.hakuyu-kai.or.jp/shirayuki/" }, "geometry": { "type": "Point", "coordinates": [ 138.9258125, 35.2946678 ] } },
{ "type": "Feature", "properties": { "内容": "特別養護老人ホーム　すずらん【介護老人福祉施設】上小林字西野原1527-19", "url": "https://www.kaigokensaku.mhlw.go.jp/22/index.php?action_kouhyou_detail_004_kani=true&JigyosyoCd=2271200533-00&ServiceCd=510&Type=search", "url2": "www.hakuyu-kai.or.jp/suzuran." }, "geometry": { "type": "Point", "coordinates": [ 138.902809700000034, 35.3435627 ] } },
{ "type": "Feature", "properties": { "内容": "特別養護老人ホーム　すずらん【介護老人福祉施設】上小林字西野原1527-19", "url": "https://www.kaigokensaku.mhlw.go.jp/22/index.php?action_kouhyou_detail_004_kani=true&JigyosyoCd=2271200541-00&ServiceCd=510&Type=search", "url2": "www.hakuyu-kai.or.jp/suzuran." }, "geometry": { "type": "Point", "coordinates": [ 138.897616943347202, 35.344962926287536 ] } },
{ "type": "Feature", "properties": { "内容": "紫雲の園【介護老人福祉施設】袋井市浅名１５７７－１", "url": "https://www.kaigokensaku.mhlw.go.jp/22/index.php?action_kouhyou_detail_004_kani=true&JigyosyoCd=2276600042-00&ServiceCd=510&Type=search", "url2": "http://www.sanpo-kai.jp/" }, "geometry": { "type": "Point", "coordinates": [ 137.9373015, 34.7131144 ] } },
{ "type": "Feature", "properties": { "内容": "特別養護老人ホーム　明和苑【介護老人福祉施設】袋井市宇刈８５０－１", "url": "https://www.kaigokensaku.mhlw.go.jp/22/index.php?action_kouhyou_detail_004_kani=true&JigyosyoCd=2276400039-00&ServiceCd=510&Type=search", "url2": "http:www.meiwakai.jp" }, "geometry": { "type": "Point", "coordinates": [ 137.922245400000065, 34.7923073 ] } },
{ "type": "Feature", "properties": { "内容": "介護老人福祉施設　萩の花【介護老人福祉施設】袋井市高尾1439-1", "url": "https://www.kaigokensaku.mhlw.go.jp/22/index.php?action_kouhyou_detail_004_kani=true&JigyosyoCd=2276400104-00&ServiceCd=510&Type=search", "url2": "http://koshikai.or.jp" }, "geometry": { "type": "Point", "coordinates": [ 137.929312500000037, 34.7327284 ] } },
{ "type": "Feature", "properties": { "内容": "特別養護老人ホーム袋井ゆうあいの里【介護老人福祉施設】静岡県袋井市小山1410-1", "url": "https://www.kaigokensaku.mhlw.go.jp/22/index.php?action_kouhyou_detail_004_kani=true&JigyosyoCd=2277300451-00&ServiceCd=510&Type=search", "url2": "http://www.enchu-fukushikai.or.jp/" }, "geometry": { "type": "Point", "coordinates": [ 137.889041380009559, 34.750084161194735 ] } },
{ "type": "Feature", "properties": { "内容": "特別養護老人ホーム　ディアコニア【介護老人福祉施設】袋井市山崎5902番地の167", "url": "https://www.kaigokensaku.mhlw.go.jp/22/index.php?action_kouhyou_detail_004_kani=true&JigyosyoCd=2276400138-00&ServiceCd=510&Type=search", "url2": "http//www.denmark-bokujyo.or.jp" }, "geometry": { "type": "Point", "coordinates": [ 137.974092400000018, 34.7090543 ] } },
{ "type": "Feature", "properties": { "内容": "特別養護老人ホーム萬松の里【介護老人福祉施設】袋井市久能2914-4", "url": "https://www.kaigokensaku.mhlw.go.jp/22/index.php?action_kouhyou_detail_004_kani=true&JigyosyoCd=2276400237-00&ServiceCd=510&Type=search", "url2": "http://www.banshoukai.com/" }, "geometry": { "type": "Point", "coordinates": [ 137.921498700000029, 34.7770619 ] } },
{ "type": "Feature", "properties": { "内容": "特別養護老人ホーム　梓の里【介護老人福祉施設】下田市加増野181番地の1", "url": "https://www.kaigokensaku.mhlw.go.jp/22/index.php?action_kouhyou_detail_004_kani=true&JigyosyoCd=2270200047-00&ServiceCd=510&Type=search", "url2": "http://www.shiyuukai.or.jp/" }, "geometry": { "type": "Point", "coordinates": [ 138.875893099999985, 34.7194836 ] } },
{ "type": "Feature", "properties": { "内容": "介護老人福祉施設　みくらの里【介護老人福祉施設】下田市吉佐美１０８６番地", "url": "https://www.kaigokensaku.mhlw.go.jp/22/index.php?action_kouhyou_detail_004_kani=true&JigyosyoCd=2270200179-00&ServiceCd=510&Type=search", "url2": "http://www.shiyuukai.or.jp" }, "geometry": { "type": "Point", "coordinates": [ 138.914027900000065, 34.6719507 ] } },
{ "type": "Feature", "properties": { "内容": "特別養護老人ホーム　茶畑ヒルズ【介護老人福祉施設】裾野市茶畑1428-1", "url": "https://www.kaigokensaku.mhlw.go.jp/22/index.php?action_kouhyou_detail_004_kani=true&JigyosyoCd=2271400216-00&ServiceCd=510&Type=search", "url2": "http://kashokai.or.jp" }, "geometry": { "type": "Point", "coordinates": [ 138.928394, 35.1759658 ] } },
{ "type": "Feature", "properties": { "内容": "社会福祉法人　富岳会　富岳一ノ瀬荘【介護老人福祉施設】裾野市茶畑1707番地の3", "url": "https://www.kaigokensaku.mhlw.go.jp/22/index.php?action_kouhyou_detail_004_kani=true&JigyosyoCd=2271400026-00&ServiceCd=510&Type=search", "url2": "https://fugakukai.com/ichinoseso" }, "geometry": { "type": "Point", "coordinates": [ 138.939573399999972, 35.1734303 ] } },
{ "type": "Feature", "properties": { "内容": "特別養護老人ホーム　富岳ダイヤモンドライフすその【介護老人福祉施設】静岡県裾野市須山2949２丁目１番地、２番地、３番地、５番地、３丁目１番地、２番地、３番地、５番地、６番地、７番地", "url": "https://www.kaigokensaku.mhlw.go.jp/22/index.php?action_kouhyou_detail_004_kani=true&JigyosyoCd=2271400455-00&ServiceCd=510&Type=search", "url2": "fugaku-dls@fugakukai.com" }, "geometry": { "type": "Point", "coordinates": [ 138.8608941, 35.2578856 ] } },
{ "type": "Feature", "properties": { "内容": "特別養護老人ホーム燦光【介護老人福祉施設】湖西市新居町新居1800番地の1", "url": "https://www.kaigokensaku.mhlw.go.jp/22/index.php?action_kouhyou_detail_004_kani=true&JigyosyoCd=2278200049-00&ServiceCd=510&Type=search", "url2": "http://shinwakai-shizuoka.or.jp" }, "geometry": { "type": "Point", "coordinates": [ 137.57625280000002, 34.6861375 ] } },
{ "type": "Feature", "properties": { "内容": "特別養護老人ホーム恵翔苑【介護老人福祉施設】湖西市新居町中之郷3636番地21", "url": "https://www.kaigokensaku.mhlw.go.jp/22/index.php?action_kouhyou_detail_004_kani=true&JigyosyoCd=2278400276-00&ServiceCd=510&Type=search", "url2": "http://juhoukai.jp" }, "geometry": { "type": "Point", "coordinates": [ 137.557470800000033, 34.709818 ] } },
{ "type": "Feature", "properties": { "内容": "光湖苑【介護老人福祉施設】湖西市新所岡崎梅田入会地17-20", "url": "https://www.kaigokensaku.mhlw.go.jp/22/index.php?action_kouhyou_detail_004_kani=true&JigyosyoCd=2278400011-00&ServiceCd=510&Type=search", "url2": "https://m-hamanakokai.jp/" }, "geometry": { "type": "Point", "coordinates": [ 137.50126709999995, 34.7158398 ] } },
{ "type": "Feature", "properties": { "内容": "特別養護老人ホーム　湖西白萩【介護老人福祉施設】湖西市太田450-1", "url": "https://www.kaigokensaku.mhlw.go.jp/22/index.php?action_kouhyou_detail_004_kani=true&JigyosyoCd=2278400136-00&ServiceCd=510&Type=search", "url2": "http://www.jihian.or.jp" }, "geometry": { "type": "Point", "coordinates": [ 137.510673, 34.7553658 ] } },
{ "type": "Feature", "properties": { "内容": "土肥ホーム【介護老人福祉施設】伊豆市小土肥７８７－２", "url": "https://www.kaigokensaku.mhlw.go.jp/22/index.php?action_kouhyou_detail_004_kani=true&JigyosyoCd=2270300052-00&ServiceCd=510&Type=search", "url2": "http://www.shinai-kai.jp/toihome/" }, "geometry": { "type": "Point", "coordinates": [ 138.791311899999982, 34.923828 ] } },
{ "type": "Feature", "properties": { "内容": "特別養護老人ホーム中伊豆【介護老人福祉施設】伊豆市八幡123", "url": "https://www.kaigokensaku.mhlw.go.jp/22/index.php?action_kouhyou_detail_004_kani=true&JigyosyoCd=2270700160-00&ServiceCd=510&Type=search", "url2": "http://www.wbs.ne.jp/bt/ayamekai/" }, "geometry": { "type": "Point", "coordinates": [ 139.000266399999987, 34.9575315 ] } },
{ "type": "Feature", "properties": { "内容": "伊豆中央ケアセンター【介護老人福祉施設】伊豆市大野304", "url": "https://www.kaigokensaku.mhlw.go.jp/22/index.php?action_kouhyou_detail_004_kani=true&JigyosyoCd=2270300094-00&ServiceCd=510&Type=search", "url2": "http://www.shunpuukai.com" }, "geometry": { "type": "Point", "coordinates": [ 138.977754, 34.9838142 ] } },
{ "type": "Feature", "properties": { "内容": "特別養護老人ホーム　天城の杜【介護老人福祉施設】静岡県伊豆市湯ヶ島939番41", "url": "https://www.kaigokensaku.mhlw.go.jp/22/index.php?action_kouhyou_detail_004_kani=true&JigyosyoCd=2270700251-00&ServiceCd=510&Type=search", "url2": "http://www.swc-aisei.or.jp/" }, "geometry": { "type": "Point", "coordinates": [ 138.921368799999982, 34.8693131 ] } },
{ "type": "Feature", "properties": { "内容": "ユニット型特別養護老人ホーム　天城の杜【介護老人福祉施設】静岡県伊豆市湯ヶ島９３９番４１", "url": "https://www.kaigokensaku.mhlw.go.jp/22/index.php?action_kouhyou_detail_004_kani=true&JigyosyoCd=2270700269-00&ServiceCd=510&Type=search", "url2": "http://www.swc-aisei.or.jp/" }, "geometry": { "type": "Point", "coordinates": [ 138.921368799999982, 34.8693131 ] } },
{ "type": "Feature", "properties": { "内容": "特別養護老人ホーム　灯光園【介護老人福祉施設】御前崎市御前崎３５－３７", "url": "https://www.kaigokensaku.mhlw.go.jp/22/index.php?action_kouhyou_detail_004_kani=true&JigyosyoCd=2275500060-00&ServiceCd=510&Type=search", "url2": "http://toukouen.sakura.ne.jp/" }, "geometry": { "type": "Point", "coordinates": [ 138.2228649, 34.6005881 ] } },
{ "type": "Feature", "properties": { "内容": "特別養護老人ホーム　　　東海清風園【介護老人福祉施設】静岡県御前崎市池新田４０９４", "url": "https://www.kaigokensaku.mhlw.go.jp/22/index.php?action_kouhyou_detail_004_kani=true&JigyosyoCd=2276100100-00&ServiceCd=510&Type=search", "url2": "http://www.san-ikukai.or.jp/" }, "geometry": { "type": "Point", "coordinates": [ 138.131890399999946, 34.6417085 ] } },
{ "type": "Feature", "properties": { "内容": "特別養護老人ホーム松寿園【介護老人福祉施設】静岡県菊川市棚草1261", "url": "https://www.kaigokensaku.mhlw.go.jp/22/index.php?action_kouhyou_detail_004_kani=true&JigyosyoCd=2276100092-00&ServiceCd=510&Type=search", "url2": "http://washoukai.or.jp/" }, "geometry": { "type": "Point", "coordinates": [ 138.1046711, 34.7032381 ] } },
{ "type": "Feature", "properties": { "内容": "特別養護老人ホーム　松秀園【介護老人福祉施設】菊川市高橋2774-1", "url": "https://www.kaigokensaku.mhlw.go.jp/22/index.php?action_kouhyou_detail_004_kani=true&JigyosyoCd=2276800105-00&ServiceCd=510&Type=search", "url2": "http:www.washoukai.or.jp" }, "geometry": { "type": "Point", "coordinates": [ 138.1064639, 34.6741009 ] } },
{ "type": "Feature", "properties": { "内容": "特別養護老人ホーム　喜久の園【介護老人福祉施設】菊川市仲島二丁目4番地の16", "url": "https://www.kaigokensaku.mhlw.go.jp/22/index.php?action_kouhyou_detail_004_kani=true&JigyosyoCd=2276800089-00&ServiceCd=510&Type=search", "url2": "http://www.hakuo.or.jp/" }, "geometry": { "type": "Point", "coordinates": [ 138.092647700000072, 34.754388399999989 ] } },
{ "type": "Feature", "properties": { "内容": "社会福祉法人　春風会　ぬくもりの里【介護老人福祉施設】伊豆の国市田京1259-29", "url": "https://www.kaigokensaku.mhlw.go.jp/22/index.php?action_kouhyou_detail_004_kani=true&JigyosyoCd=2270300086-00&ServiceCd=510&Type=search", "url2": "http://www.shunpuukai.com/" }, "geometry": { "type": "Point", "coordinates": [ 138.97113760000002, 35.0081584 ] } },
{ "type": "Feature", "properties": { "内容": "特別養護老人ホーム韮山・ぶなの森【介護老人福祉施設】伊豆の国市韮山山木391-1", "url": "https://www.kaigokensaku.mhlw.go.jp/22/index.php?action_kouhyou_detail_004_kani=true&JigyosyoCd=2270800184-00&ServiceCd=510&Type=search", "url2": "http://www.buna-no-mori.jp" }, "geometry": { "type": "Point", "coordinates": [ 138.961374100000057, 35.0629431 ] } },
{ "type": "Feature", "properties": { "内容": "特別養護老人ホーム　いちごの里【介護老人福祉施設】伊豆の国市北江間４５－１", "url": "https://www.kaigokensaku.mhlw.go.jp/22/index.php?action_kouhyou_detail_004_kani=true&JigyosyoCd=2270300474-00&ServiceCd=510&Type=search", "url2": "http//www.wbs.ne.jp./bt/ayamekai" }, "geometry": { "type": "Point", "coordinates": [ 138.932420500000035, 35.0579124 ] } },
{ "type": "Feature", "properties": { "内容": "特別養護老人ホーム　うたしあ【介護老人福祉施設】静岡県牧之原市道場43番地", "url": "https://www.kaigokensaku.mhlw.go.jp/22/index.php?action_kouhyou_detail_004_kani=true&JigyosyoCd=2275500714-00&ServiceCd=510&Type=search", "url2": "https://utashia.or.jp" }, "geometry": { "type": "Point", "coordinates": [ 138.217828300000065, 34.7300774 ] } },
{ "type": "Feature", "properties": { "内容": "相良清風園【介護老人福祉施設】牧之原市西萩間695-6", "url": "https://www.kaigokensaku.mhlw.go.jp/22/index.php?action_kouhyou_detail_004_kani=true&JigyosyoCd=2275500425-00&ServiceCd=510&Type=search", "url2": "https://www.san-ikukai.or.jp/tokai/sagara/" }, "geometry": { "type": "Point", "coordinates": [ 138.155801099999962, 34.7346175 ] } },
{ "type": "Feature", "properties": { "内容": "特別養護老人ホーム海山荘【介護老人福祉施設】牧之原市片浜1013番地の1", "url": "https://www.kaigokensaku.mhlw.go.jp/22/index.php?action_kouhyou_detail_004_kani=true&JigyosyoCd=2275800015-00&ServiceCd=510&Type=search", "url2": "http：//kaizansou.com/" }, "geometry": { "type": "Point", "coordinates": [ 138.2125355, 34.7180489 ] } },
{ "type": "Feature", "properties": { "内容": "特別養護老人ホーム聖ルカホーム【介護老人福祉施設】静岡県牧之原市坂口2766番地1", "url": "https://www.kaigokensaku.mhlw.go.jp/22/index.php?action_kouhyou_detail_004_kani=true&JigyosyoCd=2275800270-00&ServiceCd=510&Type=search", "url2": "https://yamabatogakuen.jp/office/seiruka" }, "geometry": { "type": "Point", "coordinates": [ 138.196547600000031, 34.7820868 ] } },
{ "type": "Feature", "properties": { "内容": "湯ヶ岡の郷【介護老人福祉施設】静岡県賀茂郡東伊豆町白田1200", "url": "https://www.kaigokensaku.mhlw.go.jp/22/index.php?action_kouhyou_detail_004_kani=true&JigyosyoCd=2270100023-00&ServiceCd=510&Type=search", "url2": "http://www.yugaokanosato.jp" }, "geometry": { "type": "Point", "coordinates": [ 139.040576500000071, 34.808521 ] } },
{ "type": "Feature", "properties": { "内容": "特別養護老人ホーム　サンシニア河津【介護老人福祉施設】賀茂郡河津町田中520-1", "url": "https://www.kaigokensaku.mhlw.go.jp/22/index.php?action_kouhyou_detail_004_kani=true&JigyosyoCd=2270100338-00&ServiceCd=510&Type=search", "url2": "http://www.sunsenior-kawazu.jp/" }, "geometry": { "type": "Point", "coordinates": [ 138.993645600000036, 34.7553022 ] } },
{ "type": "Feature", "properties": { "内容": "介護老人福祉施設エクレシア南伊豆【介護老人福祉施設】静岡県賀茂郡南伊豆町加納７９２番地", "url": "https://www.kaigokensaku.mhlw.go.jp/22/index.php?action_kouhyou_detail_004_kani=true&JigyosyoCd=2270100825-00&ServiceCd=510&Type=search", "url2": "http://www.shiyuukai.or.jp" }, "geometry": { "type": "Point", "coordinates": [ 138.855424299999981, 34.6554305 ] } },
{ "type": "Feature", "properties": { "内容": "特別養護老人ホーム　みなとの園【介護老人福祉施設】賀茂郡南伊豆町湊６３８－１", "url": "https://www.kaigokensaku.mhlw.go.jp/22/index.php?action_kouhyou_detail_004_kani=true&JigyosyoCd=2270100080-00&ServiceCd=510&Type=search", "url2": "http://www.shiyuukai.or.jp/" }, "geometry": { "type": "Point", "coordinates": [ 138.8932039, 34.6396641 ] } },
{ "type": "Feature", "properties": { "内容": "特別養護老人ホーム松崎十字の園【介護老人福祉施設】静岡県賀茂郡松崎町江奈１５７", "url": "https://www.kaigokensaku.mhlw.go.jp/22/index.php?action_kouhyou_detail_004_kani=true&JigyosyoCd=2270100262-00&ServiceCd=510&Type=search", "url2": "http://www.jyuji.or.jp/matsuzaki_city/" }, "geometry": { "type": "Point", "coordinates": [ 138.780562, 34.756957600000014 ] } },
{ "type": "Feature", "properties": { "内容": "特別養護老人ホーム　ヒューマンヴィラ伊豆【介護老人福祉施設】賀茂郡西伊豆町宇久須２０３０－１", "url": "https://www.kaigokensaku.mhlw.go.jp/22/index.php?action_kouhyou_detail_004_kani=true&JigyosyoCd=2270100122-00&ServiceCd=510&Type=search", "url2": "https://www.syuuseikai.or.jp/facility02/" }, "geometry": { "type": "Point", "coordinates": [ 138.803040600000031, 34.8411511 ] } },
{ "type": "Feature", "properties": { "内容": "特別養護老人ホーム　太陽の里【介護老人福祉施設】静岡県賀茂郡西伊豆町仁科１１３４", "url": "https://www.kaigokensaku.mhlw.go.jp/22/index.php?action_kouhyou_detail_004_kani=true&JigyosyoCd=2270100247-00&ServiceCd=510&Type=search", "url2": "http://www.shiyuukai.or.jp/" }, "geometry": { "type": "Point", "coordinates": [ 138.776439399999958, 34.772526 ] } },
{ "type": "Feature", "properties": { "内容": "特別養護老人ホーム　函南・ぶなの森【介護老人福祉施設】田方郡函南町仁田２８４－５", "url": "https://www.kaigokensaku.mhlw.go.jp/22/index.php?action_kouhyou_detail_004_kani=true&JigyosyoCd=2270300656-00&ServiceCd=510&Type=search", "url2": "http://www.buna-no-mori.jp" }, "geometry": { "type": "Point", "coordinates": [ 138.941044799999986, 35.075966 ] } },
{ "type": "Feature", "properties": { "内容": "みどりが丘ホーム【介護老人福祉施設】田方郡函南町大竹20-15", "url": "https://www.kaigokensaku.mhlw.go.jp/22/index.php?action_kouhyou_detail_004_kani=true&JigyosyoCd=2270300151-00&ServiceCd=510&Type=search", "url2": "http://nihonminsei.jp/" }, "geometry": { "type": "Point", "coordinates": [ 138.96173680000004, 35.1157311 ] } },
{ "type": "Feature", "properties": { "内容": "特別養護老人ホーム伊豆白寿園【介護老人福祉施設】田方郡函南町平井７５０", "url": "https://www.kaigokensaku.mhlw.go.jp/22/index.php?action_kouhyou_detail_004_kani=true&JigyosyoCd=2270300078-00&ServiceCd=510&Type=search", "url2": "https://kyosaifukushikai.jp" }, "geometry": { "type": "Point", "coordinates": [ 138.954696300000023, 35.0889449 ] } },
{ "type": "Feature", "properties": { "内容": "特別養護老人ホーム　柿田川ホーム【介護老人福祉施設】駿東郡清水町戸田54番地11", "url": "https://www.kaigokensaku.mhlw.go.jp/22/index.php?action_kouhyou_detail_004_kani=true&JigyosyoCd=2271300101-00&ServiceCd=510&Type=search", "url2": "https://kakita-home.jp" }, "geometry": { "type": "Point", "coordinates": [ 138.9123664, 35.0979323 ] } },
{ "type": "Feature", "properties": { "内容": "特別養護老人ホームかわせみ【介護老人福祉施設】駿東郡清水町的場188－6", "url": "https://www.kaigokensaku.mhlw.go.jp/22/index.php?action_kouhyou_detail_004_kani=true&JigyosyoCd=2271300176-00&ServiceCd=510&Type=search", "url2": "http://www.kawasemi.or.jp" }, "geometry": { "type": "Point", "coordinates": [ 138.906828200000064, 35.0870889 ] } },
{ "type": "Feature", "properties": { "内容": "特別養護老人ホーム　さつき園【介護老人福祉施設】静岡県駿東郡長泉町下土狩４５７番地の２", "url": "https://www.kaigokensaku.mhlw.go.jp/22/index.php?action_kouhyou_detail_004_kani=true&JigyosyoCd=2271300201-00&ServiceCd=510&Type=search", "url2": "http://www.satsukien.or.jp/" }, "geometry": { "type": "Point", "coordinates": [ 138.899394600000051, 35.1279239 ] } },
{ "type": "Feature", "properties": { "内容": "ながいずみホーム【介護老人福祉施設】静岡県駿東郡長泉町元長窪８８８－６９", "url": "https://www.kaigokensaku.mhlw.go.jp/22/index.php?action_kouhyou_detail_004_kani=true&JigyosyoCd=2271300028-00&ServiceCd=510&Type=search", "url2": "http//www.nagaizumi-home.jp" }, "geometry": { "type": "Point", "coordinates": [ 138.865690800000039, 35.1685992 ] } },
{ "type": "Feature", "properties": { "内容": "特別養護老人ホーム徳風園【介護老人福祉施設】静岡県駿東郡小山町小山255-2", "url": "https://www.kaigokensaku.mhlw.go.jp/22/index.php?action_kouhyou_detail_004_kani=true&JigyosyoCd=2271301166-00&ServiceCd=510&Type=search", "url2": "http://jukohkai.moon.bindcloud.jp/" }, "geometry": { "type": "Point", "coordinates": [ 138.987684, 35.3558078 ] } },
{ "type": "Feature", "properties": { "内容": "特別養護老人ホーム片岡杉の子園【介護老人福祉施設】榛原郡吉田町片岡2895番地", "url": "https://www.kaigokensaku.mhlw.go.jp/22/index.php?action_kouhyou_detail_004_kani=true&JigyosyoCd=2275500011-00&ServiceCd=510&Type=search", "url2": "http://s-suginoko.or.jp/" }, "geometry": { "type": "Point", "coordinates": [ 138.241390899999942, 34.7720524 ] } },
{ "type": "Feature", "properties": { "内容": "特別養護老人ホーム住吉杉の子園【介護老人福祉施設】榛原郡吉田町住吉３２３９番地", "url": "https://www.kaigokensaku.mhlw.go.jp/22/index.php?action_kouhyou_detail_004_kani=true&JigyosyoCd=2275500615-00&ServiceCd=510&Type=search", "url2": "http://s-suginoko.or.jp" }, "geometry": { "type": "Point", "coordinates": [ 138.251342600000044, 34.7523579 ] } },
{ "type": "Feature", "properties": { "内容": "特別養護老人ホーム　あかいしの郷【介護老人福祉施設】榛原郡川根本町徳山1620番地の１", "url": "https://www.kaigokensaku.mhlw.go.jp/22/index.php?action_kouhyou_detail_004_kani=true&JigyosyoCd=2275500466-00&ServiceCd=510&Type=search", "url2": "https://kojinkai-fukushi.com/akaishinosato/" }, "geometry": { "type": "Point", "coordinates": [ 138.115965800000026, 35.0750412 ] } },
{ "type": "Feature", "properties": { "内容": "特別養護老人ホーム　あかいしの郷（ユニット型）【介護老人福祉施設】静岡県榛原郡川根本町徳山1620番地の1", "url": "https://www.kaigokensaku.mhlw.go.jp/22/index.php?action_kouhyou_detail_004_kani=true&JigyosyoCd=2275500888-00&ServiceCd=510&Type=search", "url2": "https://kojinkai-fukushi.com/akaishinosato/" }, "geometry": { "type": "Point", "coordinates": [ 138.116038099999969, 35.075119 ] } },
{ "type": "Feature", "properties": { "内容": "森町愛光園【介護老人福祉施設】周智郡森町一宮３１５０番地", "url": "https://www.kaigokensaku.mhlw.go.jp/22/index.php?action_kouhyou_detail_004_kani=true&JigyosyoCd=2276300023-00&ServiceCd=510&Type=search", "url2": "http://www.seirei.or.jp/elderlyhome/morimachi/" }, "geometry": { "type": "Point", "coordinates": [ 137.891694700000016, 34.8255416 ] } }
]
}
