{
"type": "FeatureCollection",
"name": "geo_22_特定福祉用具販売",
"crs": { "type": "name", "properties": { "name": "urn:ogc:def:crs:OGC:1.3:CRS84" } },
"features": [
{ "type": "Feature", "properties": { "内容": "ひかり介護サービス【特定福祉用具販売】静岡市葵区城東町３５－１", "url": "https://www.kaigokensaku.mhlw.go.jp/22/index.php?action_kouhyou_detail_004_kani=true&JigyosyoCd=2274201851-00&ServiceCd=410&Type=search", "url2": null }, "geometry": { "type": "Point", "coordinates": [ 138.390494699999977, 34.9846054 ] } },
{ "type": "Feature", "properties": { "内容": "ホームレントLLC.【特定福祉用具販売】静岡県静岡市葵区瀬名川一丁目４番２０号", "url": "https://www.kaigokensaku.mhlw.go.jp/22/index.php?action_kouhyou_detail_004_kani=true&JigyosyoCd=2274209424-00&ServiceCd=410&Type=search", "url2": "https://homerentllc.wixsite.com/website1" }, "geometry": { "type": "Point", "coordinates": [ 138.424576800000011, 35.0018515 ] } },
{ "type": "Feature", "properties": { "内容": "有限会社　岩本薬局　福祉用具事業部【特定福祉用具販売】静岡市葵区巴町６０", "url": "https://www.kaigokensaku.mhlw.go.jp/22/index.php?action_kouhyou_detail_004_kani=true&JigyosyoCd=2244110165-00&ServiceCd=410&Type=search", "url2": "http://iwamotoyakkyoku.jp/" }, "geometry": { "type": "Point", "coordinates": [ 138.394408200000044, 34.9851055 ] } },
{ "type": "Feature", "properties": { "内容": "介護ショップアルファケアプラン【特定福祉用具販売】静岡市葵区緑町１番５号", "url": "https://www.kaigokensaku.mhlw.go.jp/22/index.php?action_kouhyou_detail_004_kani=true&JigyosyoCd=2274201041-00&ServiceCd=410&Type=search", "url2": null }, "geometry": { "type": "Point", "coordinates": [ 138.391883399999983, 34.9861719 ] } },
{ "type": "Feature", "properties": { "内容": "株式会社たすくフィールド【特定福祉用具販売】一番町６７", "url": "https://www.kaigokensaku.mhlw.go.jp/22/index.php?action_kouhyou_detail_004_kani=true&JigyosyoCd=2274210299-00&ServiceCd=410&Type=search", "url2": "http://hp.kaipoke.biz/ddz/" }, "geometry": { "type": "Point", "coordinates": [ 140.8733842, 38.2586427 ] } },
{ "type": "Feature", "properties": { "内容": "セントケアりまいん静岡【特定福祉用具販売】静岡市葵区竜南1-1-36", "url": "https://www.kaigokensaku.mhlw.go.jp/22/index.php?action_kouhyou_detail_004_kani=true&JigyosyoCd=2274210638-00&ServiceCd=410&Type=search", "url2": null }, "geometry": { "type": "Point", "coordinates": [ 138.3989161, 34.9962538 ] } },
{ "type": "Feature", "properties": { "内容": "ダスキンヘルスレント静岡駿府ステーション【特定福祉用具販売】千代田7丁目8-6", "url": "https://www.kaigokensaku.mhlw.go.jp/22/index.php?action_kouhyou_detail_004_kani=true&JigyosyoCd=2274208095-00&ServiceCd=410&Type=search", "url2": "http://www.seio.co.jp" }, "geometry": { "type": "Point", "coordinates": [ 138.406451227994268, 35.000858194723222 ] } },
{ "type": "Feature", "properties": { "内容": "ケア・フリー静岡株式会社【特定福祉用具販売】静岡市葵区沓谷5-2-1", "url": "https://www.kaigokensaku.mhlw.go.jp/22/index.php?action_kouhyou_detail_004_kani=true&JigyosyoCd=2274100375-00&ServiceCd=410&Type=search", "url2": "https//care-free.co.jp" }, "geometry": { "type": "Point", "coordinates": [ 138.407495599999947, 34.995388 ] } },
{ "type": "Feature", "properties": { "内容": "合同会社介護ショップゆう【特定福祉用具販売】静岡県静岡市葵区千代一丁目11-19", "url": "https://www.kaigokensaku.mhlw.go.jp/22/index.php?action_kouhyou_detail_004_kani=true&JigyosyoCd=2274209291-00&ServiceCd=410&Type=search", "url2": "http://hp.kaipoke.biz/62a/" }, "geometry": { "type": "Point", "coordinates": [ 138.350435299999958, 34.9798318 ] } },
{ "type": "Feature", "properties": { "内容": "フランスベッド株式会社　メディカル静岡営業所【特定福祉用具販売】静岡県静岡市葵区流通センター10-4", "url": "https://www.kaigokensaku.mhlw.go.jp/22/index.php?action_kouhyou_detail_004_kani=true&JigyosyoCd=2274100250-00&ServiceCd=410&Type=search", "url2": "https://www.francebed.co.jp/" }, "geometry": { "type": "Point", "coordinates": [ 138.405348354614262, 35.016295400226994 ] } },
{ "type": "Feature", "properties": { "内容": "メディカルエンジニアリング有限会社【特定福祉用具販売】静岡市葵区北安東四丁目22番5号", "url": "https://www.kaigokensaku.mhlw.go.jp/22/index.php?action_kouhyou_detail_004_kani=true&JigyosyoCd=2274100573-00&ServiceCd=410&Type=search", "url2": "https://medical-eng.jp/" }, "geometry": { "type": "Point", "coordinates": [ 138.387947199999985, 35.0041752 ] } },
{ "type": "Feature", "properties": { "内容": "有限会社エヌ・アール　介護ショップ猫の手【特定福祉用具販売】静岡市葵区千代田6丁目19-17", "url": "https://www.kaigokensaku.mhlw.go.jp/22/index.php?action_kouhyou_detail_004_kani=true&JigyosyoCd=2274100995-00&ServiceCd=410&Type=search", "url2": "http://kaigo-nekonote.ftw.jp/" }, "geometry": { "type": "Point", "coordinates": [ 138.407820500000071, 34.998757 ] } },
{ "type": "Feature", "properties": { "内容": "ベルメディカルケア株式会社　葵の森営業所【特定福祉用具販売】静岡県静岡市葵区柳町193-1", "url": "https://www.kaigokensaku.mhlw.go.jp/22/index.php?action_kouhyou_detail_004_kani=true&JigyosyoCd=2274206784-00&ServiceCd=410&Type=search", "url2": "http//www.bellmc.co.jp/" }, "geometry": { "type": "Point", "coordinates": [ 138.3633112, 34.979431 ] } },
{ "type": "Feature", "properties": { "内容": "サンケアこまがた【特定福祉用具販売】静岡県静岡市葵区駒形通6丁目6-6", "url": "https://www.kaigokensaku.mhlw.go.jp/22/index.php?action_kouhyou_detail_004_kani=true&JigyosyoCd=2274210646-00&ServiceCd=410&Type=search", "url2": "http://www.mediesta.co.jp" }, "geometry": { "type": "Point", "coordinates": [ 138.374585200000013, 34.9628847 ] } },
{ "type": "Feature", "properties": { "内容": "株式会社スマイルリンク【特定福祉用具販売】静岡県静岡市葵区上土２丁目１７番１６号", "url": "https://www.kaigokensaku.mhlw.go.jp/22/index.php?action_kouhyou_detail_004_kani=true&JigyosyoCd=2274205273-00&ServiceCd=410&Type=search", "url2": "http://smilelink.co.jp" }, "geometry": { "type": "Point", "coordinates": [ 138.409928132540898, 35.005433749628082 ] } },
{ "type": "Feature", "properties": { "内容": "ライフレビュー　たのみあん【特定福祉用具販売】静岡県静岡市駿河区稲川2-3-132F", "url": "https://www.kaigokensaku.mhlw.go.jp/22/index.php?action_kouhyou_detail_004_kani=true&JigyosyoCd=2274209275-00&ServiceCd=410&Type=search", "url2": null }, "geometry": { "type": "Point", "coordinates": [ 138.393736600000011, 34.9686935 ] } },
{ "type": "Feature", "properties": { "内容": "介護ショップ　ダイワ【特定福祉用具販売】静岡市駿河区小鹿一丁目53番11号", "url": "https://www.kaigokensaku.mhlw.go.jp/22/index.php?action_kouhyou_detail_004_kani=true&JigyosyoCd=2274100623-00&ServiceCd=410&Type=search", "url2": "http://www16.plala.or.jp/daiwa-ka/" }, "geometry": { "type": "Point", "coordinates": [ 138.421200499999941, 34.975849 ] } },
{ "type": "Feature", "properties": { "内容": "株式会社ミカサ【特定福祉用具販売】静岡市駿河区東新田94", "url": "https://www.kaigokensaku.mhlw.go.jp/22/index.php?action_kouhyou_detail_004_kani=true&JigyosyoCd=2274101472-00&ServiceCd=410&Type=search", "url2": "http://www.mikasa-kun.com/" }, "geometry": { "type": "Point", "coordinates": [ 138.3697635595245, 34.951996439391209 ] } },
{ "type": "Feature", "properties": { "内容": "介護デザイン　ライム【特定福祉用具販売】静岡市駿河区登呂四丁目20-20105", "url": "https://www.kaigokensaku.mhlw.go.jp/22/index.php?action_kouhyou_detail_004_kani=true&JigyosyoCd=2274203922-00&ServiceCd=410&Type=search", "url2": null }, "geometry": { "type": "Point", "coordinates": [ 138.412009584716742, 34.956837593118259 ] } },
{ "type": "Feature", "properties": { "内容": "有限会社こころ【特定福祉用具販売】西脇1225番地1", "url": "https://www.kaigokensaku.mhlw.go.jp/22/index.php?action_kouhyou_detail_004_kani=true&JigyosyoCd=2274200506-00&ServiceCd=410&Type=search", "url2": null }, "geometry": { "type": "Point", "coordinates": [ 138.39862549999998, 34.9520511 ] } },
{ "type": "Feature", "properties": { "内容": "JN福祉サービス【特定福祉用具販売】静岡県静岡市駿河区みずほ3丁目10番地3", "url": "https://www.kaigokensaku.mhlw.go.jp/22/index.php?action_kouhyou_detail_004_kani=true&JigyosyoCd=2274211016-00&ServiceCd=410&Type=search", "url2": "https://www.jn-shizuoka.site/" }, "geometry": { "type": "Point", "coordinates": [ 138.368312300000014, 34.9363031 ] } },
{ "type": "Feature", "properties": { "内容": "あいトレ福祉用具サービス【特定福祉用具販売】静岡県静岡市駿河区新川2-6-6-2あいﾈｯﾄﾋﾞﾙ2F", "url": "https://www.kaigokensaku.mhlw.go.jp/22/index.php?action_kouhyou_detail_004_kani=true&JigyosyoCd=2274210141-00&ServiceCd=410&Type=search", "url2": null }, "geometry": { "type": "Point", "coordinates": [ 138.384365800000012, 34.9619292 ] } },
{ "type": "Feature", "properties": { "内容": "協和医科器械株式会社　静岡支店【特定福祉用具販売】静岡市駿河区池田156-2", "url": "https://www.kaigokensaku.mhlw.go.jp/22/index.php?action_kouhyou_detail_004_kani=true&JigyosyoCd=2274100243-00&ServiceCd=410&Type=search", "url2": "https://www.kyowaika.co.jp" }, "geometry": { "type": "Point", "coordinates": [ 138.421714100000031, 34.986406100000025 ] } },
{ "type": "Feature", "properties": { "内容": "株式会社ヤマシタ静岡営業所【特定福祉用具販売】静岡市駿河区登呂5-6-17", "url": "https://www.kaigokensaku.mhlw.go.jp/22/index.php?action_kouhyou_detail_004_kani=true&JigyosyoCd=2274100300-00&ServiceCd=410&Type=search", "url2": "http://www.ycota.jp/" }, "geometry": { "type": "Point", "coordinates": [ 138.40607754045871, 34.956642217028445 ] } },
{ "type": "Feature", "properties": { "内容": "（株）八神製作所　ヤガミホームヘルスセンター静岡【特定福祉用具販売】静岡市駿河区国吉田1丁目10-20", "url": "https://www.kaigokensaku.mhlw.go.jp/22/index.php?action_kouhyou_detail_004_kani=true&JigyosyoCd=2274100979-00&ServiceCd=410&Type=search", "url2": "https://www.yagami.co.jp/yhhc/" }, "geometry": { "type": "Point", "coordinates": [ 138.427436774590973, 35.000642755304234 ] } },
{ "type": "Feature", "properties": { "内容": "株式会社トーカイ　静岡支店【特定福祉用具販売】静岡市駿河区宮竹一丁目4番26号", "url": "https://www.kaigokensaku.mhlw.go.jp/22/index.php?action_kouhyou_detail_004_kani=true&JigyosyoCd=2274203161-00&ServiceCd=410&Type=search", "url2": "https://www.tokai-corp.com/" }, "geometry": { "type": "Point", "coordinates": [ 138.414593182757585, 34.953069068883273 ] } },
{ "type": "Feature", "properties": { "内容": "まごころショップ【特定福祉用具販売】静岡市駿河区弥生町4-26まごころタウン静岡1F", "url": "https://www.kaigokensaku.mhlw.go.jp/22/index.php?action_kouhyou_detail_004_kani=true&JigyosyoCd=2274203518-00&ServiceCd=410&Type=search", "url2": "http://www.magokorokaigo.com" }, "geometry": { "type": "Point", "coordinates": [ 138.436650800000052, 35.0039747 ] } },
{ "type": "Feature", "properties": { "内容": "株式会社イノベイションオブメディカルサービス　静岡営業所【特定福祉用具販売】高松1-6-5", "url": "https://www.kaigokensaku.mhlw.go.jp/22/index.php?action_kouhyou_detail_004_kani=true&JigyosyoCd=2274204904-00&ServiceCd=410&Type=search", "url2": "http://www.ims-inc.co.jp/" }, "geometry": { "type": "Point", "coordinates": [ 138.417781282713321, 34.956109855072505 ] } },
{ "type": "Feature", "properties": { "内容": "株式会社フロンティア　静岡中央営業所【特定福祉用具販売】静岡県静岡市駿河区八幡2-2-12八幡ビル", "url": "https://www.kaigokensaku.mhlw.go.jp/22/index.php?action_kouhyou_detail_004_kani=true&JigyosyoCd=2274210448-00&ServiceCd=410&Type=search", "url2": "https://www.frontier-ph.com/" }, "geometry": { "type": "Point", "coordinates": [ 138.3948614, 34.9695868 ] } },
{ "type": "Feature", "properties": { "内容": "アクタガワ　ぺんぎんショップ【特定福祉用具販売】静岡市駿河区馬渕1-8-1", "url": "https://www.kaigokensaku.mhlw.go.jp/22/index.php?action_kouhyou_detail_004_kani=true&JigyosyoCd=2274100276-00&ServiceCd=410&Type=search", "url2": "https://www.akutagawa-heartlife.jp" }, "geometry": { "type": "Point", "coordinates": [ 138.38422909999997, 34.9686406 ] } },
{ "type": "Feature", "properties": { "内容": "あーす介護ショップ静岡【特定福祉用具販売】静岡県静岡市駿河区登呂5丁目2-44", "url": "https://www.kaigokensaku.mhlw.go.jp/22/index.php?action_kouhyou_detail_004_kani=true&JigyosyoCd=2274210778-00&ServiceCd=410&Type=search", "url2": null }, "geometry": { "type": "Point", "coordinates": [ 138.4071921, 34.9525735 ] } },
{ "type": "Feature", "properties": { "内容": "株式会社トマト　シルバーショップ雅【特定福祉用具販売】静岡市清水区渋川1-6-20", "url": "https://www.kaigokensaku.mhlw.go.jp/22/index.php?action_kouhyou_detail_004_kani=true&JigyosyoCd=2273200127-00&ServiceCd=410&Type=search", "url2": "http://www.tomato-miyabi.co.jp" }, "geometry": { "type": "Point", "coordinates": [ 138.4699597, 35.0217256 ] } },
{ "type": "Feature", "properties": { "内容": "バディ【特定福祉用具販売】静岡県静岡市清水区駒越東町２番５５号", "url": "https://www.kaigokensaku.mhlw.go.jp/22/index.php?action_kouhyou_detail_004_kani=true&JigyosyoCd=2274211156-00&ServiceCd=410&Type=search", "url2": null }, "geometry": { "type": "Point", "coordinates": [ 138.5017932, 34.9824009 ] } },
{ "type": "Feature", "properties": { "内容": "株式会社　日本ケアサービス【特定福祉用具販売】静岡市清水区南矢部565番地の3", "url": "https://www.kaigokensaku.mhlw.go.jp/22/index.php?action_kouhyou_detail_004_kani=true&JigyosyoCd=2273200119-00&ServiceCd=410&Type=search", "url2": "http://care-net.biz/22/nihon-care/" }, "geometry": { "type": "Point", "coordinates": [ 138.475040400000012, 34.9985284 ] } },
{ "type": "Feature", "properties": { "内容": "ケアショップ　銀のすず【特定福祉用具販売】静岡市清水区永楽町１４－３３", "url": "https://www.kaigokensaku.mhlw.go.jp/22/index.php?action_kouhyou_detail_004_kani=true&JigyosyoCd=2274201801-00&ServiceCd=410&Type=search", "url2": null }, "geometry": { "type": "Point", "coordinates": [ 138.473673100000042, 35.0244726 ] } },
{ "type": "Feature", "properties": { "内容": "ベルメディカルケア株式会社　静岡営業所【特定福祉用具販売】静岡市清水区松原町5番22号", "url": "https://www.kaigokensaku.mhlw.go.jp/22/index.php?action_kouhyou_detail_004_kani=true&JigyosyoCd=2274205174-00&ServiceCd=410&Type=search", "url2": "http://www.bellmc.co.jp/" }, "geometry": { "type": "Point", "coordinates": [ 138.490461543960578, 35.011599180499097 ] } },
{ "type": "Feature", "properties": { "内容": "パナソニックエイジフリーショップ静清【特定福祉用具販売】静岡県静岡市清水区青葉町3-1", "url": "https://www.kaigokensaku.mhlw.go.jp/22/index.php?action_kouhyou_detail_004_kani=true&JigyosyoCd=2274211305-00&ServiceCd=410&Type=search", "url2": "https://sumai.panasonic.jp/agefree/shop/" }, "geometry": { "type": "Point", "coordinates": [ 138.4750166, 35.0099534 ] } },
{ "type": "Feature", "properties": { "内容": "株式会社　ファイン【特定福祉用具販売】静岡県浜松市中区葵西　5-7-40", "url": "https://www.kaigokensaku.mhlw.go.jp/22/index.php?action_kouhyou_detail_004_kani=true&JigyosyoCd=2277201253-00&ServiceCd=410&Type=search", "url2": null }, "geometry": { "type": "Point", "coordinates": [ 137.704422353372962, 34.777499537141672 ] } },
{ "type": "Feature", "properties": { "内容": "株式会社WELLACTIVE元気サポート浜松【特定福祉用具販売】細島町5番地2ビジネスパーク細島1号", "url": "https://www.kaigokensaku.mhlw.go.jp/22/index.php?action_kouhyou_detail_004_kani=true&JigyosyoCd=2277203440-00&ServiceCd=410&Type=search", "url2": "http://wellactive.hp.gogo.jp/" }, "geometry": { "type": "Point", "coordinates": [ 137.750599100000045, 34.7225642 ] } },
{ "type": "Feature", "properties": { "内容": "カナン福祉用具【特定福祉用具販売】静岡県浜松市中区曳馬3-39-22", "url": "https://www.kaigokensaku.mhlw.go.jp/22/index.php?action_kouhyou_detail_004_kani=true&JigyosyoCd=2277206047-00&ServiceCd=410&Type=search", "url2": null }, "geometry": { "type": "Point", "coordinates": [ 137.7457997, 34.7279953 ] } },
{ "type": "Feature", "properties": { "内容": "RH福祉用具センター【特定福祉用具販売】浜松市中区文丘町29-40", "url": "https://www.kaigokensaku.mhlw.go.jp/22/index.php?action_kouhyou_detail_004_kani=true&JigyosyoCd=2277206187-00&ServiceCd=410&Type=search", "url2": null }, "geometry": { "type": "Point", "coordinates": [ 137.715026599999987, 34.7272799 ] } },
{ "type": "Feature", "properties": { "内容": "株式会社イトウレント【特定福祉用具販売】浜松市南区中田島町1009-1", "url": "https://www.kaigokensaku.mhlw.go.jp/22/index.php?action_kouhyou_detail_004_kani=true&JigyosyoCd=2277206203-00&ServiceCd=410&Type=search", "url2": null }, "geometry": { "type": "Point", "coordinates": [ 137.7407672, 34.6689152 ] } },
{ "type": "Feature", "properties": { "内容": "すまいとかいご【特定福祉用具販売】静岡県浜松市中区中島1-3-12", "url": "https://www.kaigokensaku.mhlw.go.jp/22/index.php?action_kouhyou_detail_004_kani=true&JigyosyoCd=2277205833-00&ServiceCd=410&Type=search", "url2": null }, "geometry": { "type": "Point", "coordinates": [ 137.7141402, 34.7732737 ] } },
{ "type": "Feature", "properties": { "内容": "聖隷コミュニティケアセンター【特定福祉用具販売】浜松市中区高丘西１－１７－２３", "url": "https://www.kaigokensaku.mhlw.go.jp/22/index.php?action_kouhyou_detail_004_kani=true&JigyosyoCd=2277100679-00&ServiceCd=410&Type=search", "url2": null }, "geometry": { "type": "Point", "coordinates": [ 137.701631600000042, 34.7578229 ] } },
{ "type": "Feature", "properties": { "内容": "レンタルテラスAnge【特定福祉用具販売】萩丘五丁目８番16号", "url": "https://www.kaigokensaku.mhlw.go.jp/22/index.php?action_kouhyou_detail_004_kani=true&JigyosyoCd=2277203283-00&ServiceCd=410&Type=search", "url2": "http://hp.kaipoke.biz/uxe/" }, "geometry": { "type": "Point", "coordinates": [ 137.7345315, 34.7525969 ] } },
{ "type": "Feature", "properties": { "内容": "株式会社星医療酸器　浜松営業所【特定福祉用具販売】飯田町２７０－４", "url": "https://www.kaigokensaku.mhlw.go.jp/22/index.php?action_kouhyou_detail_004_kani=true&JigyosyoCd=2277206591-00&ServiceCd=410&Type=search", "url2": "https://www.hosi.co.jp/" }, "geometry": { "type": "Point", "coordinates": [ 137.779158, 34.7116691 ] } },
{ "type": "Feature", "properties": { "内容": "協和医科器械株式会社浜松支店【特定福祉用具販売】浜松市中央区篠ヶ瀬町４００", "url": "https://www.kaigokensaku.mhlw.go.jp/22/index.php?action_kouhyou_detail_004_kani=true&JigyosyoCd=2277100471-00&ServiceCd=410&Type=search", "url2": "http://www.kyowaika.jp" }, "geometry": { "type": "Point", "coordinates": [ 137.774733, 34.7299506 ] } },
{ "type": "Feature", "properties": { "内容": "ヤガミホ－ムヘルスセンタ－浜松【特定福祉用具販売】静岡県浜松市中央区高丘北2丁目15番6号", "url": "https://www.kaigokensaku.mhlw.go.jp/22/index.php?action_kouhyou_detail_004_kani=true&JigyosyoCd=2277100190-00&ServiceCd=410&Type=search", "url2": "http://www.yagami.co.jp/YHHC" }, "geometry": { "type": "Point", "coordinates": [ 137.7019716, 34.763223300000014 ] } },
{ "type": "Feature", "properties": { "内容": "(有)敬愛会　すみれ福祉用具サービス【特定福祉用具販売】静岡県浜松市西区篠原町3967-1", "url": "https://www.kaigokensaku.mhlw.go.jp/22/index.php?action_kouhyou_detail_004_kani=true&JigyosyoCd=2277100034-00&ServiceCd=410&Type=search", "url2": null }, "geometry": { "type": "Point", "coordinates": [ 137.66190517235259, 34.685920621005288 ] } },
{ "type": "Feature", "properties": { "内容": "株式会社レンティック中部介護ショップちゅーぶ浜松西【特定福祉用具販売】静岡県浜松市中央区高丘北2-14-5", "url": "https://www.kaigokensaku.mhlw.go.jp/22/index.php?action_kouhyou_detail_004_kani=true&JigyosyoCd=2277206732-00&ServiceCd=410&Type=search", "url2": "http://www.rentic-chubu.co.jp" }, "geometry": { "type": "Point", "coordinates": [ 137.701991532540887, 34.762756453539829 ] } },
{ "type": "Feature", "properties": { "内容": "はまとく【特定福祉用具販売】浜松市中区曳馬3丁目13-12", "url": "https://www.kaigokensaku.mhlw.go.jp/22/index.php?action_kouhyou_detail_004_kani=true&JigyosyoCd=2277100836-00&ServiceCd=410&Type=search", "url2": null }, "geometry": { "type": "Point", "coordinates": [ 137.743231754131301, 34.72724665121509 ] } },
{ "type": "Feature", "properties": { "内容": "ベルメディカルケア株式会社　浜松営業所【特定福祉用具販売】静岡県浜松市中央区将監町19-1", "url": "https://www.kaigokensaku.mhlw.go.jp/22/index.php?action_kouhyou_detail_004_kani=true&JigyosyoCd=2277202681-00&ServiceCd=410&Type=search", "url2": "http://www.bellmc.co.jp/" }, "geometry": { "type": "Point", "coordinates": [ 137.755421164418038, 34.713802338356004 ] } },
{ "type": "Feature", "properties": { "内容": "介護ショップ　あいの手【特定福祉用具販売】浜松市中央区葵西5-19-41", "url": "https://www.kaigokensaku.mhlw.go.jp/22/index.php?action_kouhyou_detail_004_kani=true&JigyosyoCd=2277103707-00&ServiceCd=410&Type=search", "url2": null }, "geometry": { "type": "Point", "coordinates": [ 137.702123240600599, 34.774689767193394 ] } },
{ "type": "Feature", "properties": { "内容": "セントケアりまいん浜松【特定福祉用具販売】静岡県浜松市中央区鴨江3-73-23", "url": "https://www.kaigokensaku.mhlw.go.jp/22/index.php?action_kouhyou_detail_004_kani=true&JigyosyoCd=2277206427-00&ServiceCd=410&Type=search", "url2": "https://www.saint-care.com/center/4668/" }, "geometry": { "type": "Point", "coordinates": [ 137.7087029, 34.707528699999983 ] } },
{ "type": "Feature", "properties": { "内容": "福祉用具みちしるべ【特定福祉用具販売】静岡県浜松市中央区幸四丁目6番8号", "url": "https://www.kaigokensaku.mhlw.go.jp/22/index.php?action_kouhyou_detail_004_kani=true&JigyosyoCd=2277206880-00&ServiceCd=410&Type=search", "url2": null }, "geometry": { "type": "Point", "coordinates": [ 137.7270432, 34.7463702 ] } },
{ "type": "Feature", "properties": { "内容": "株式会社　ヤマシタ　浜松営業所【特定福祉用具販売】浜松市中央区北島町520", "url": "https://www.kaigokensaku.mhlw.go.jp/22/index.php?action_kouhyou_detail_004_kani=true&JigyosyoCd=2277100380-00&ServiceCd=410&Type=search", "url2": "http://www.ycota.jp/" }, "geometry": { "type": "Point", "coordinates": [ 137.78124349999996, 34.7310592 ] } },
{ "type": "Feature", "properties": { "内容": "パナソニックエイジフリーショップ浜松東【特定福祉用具販売】三島町1529", "url": "https://www.kaigokensaku.mhlw.go.jp/22/index.php?action_kouhyou_detail_004_kani=true&JigyosyoCd=2277201428-00&ServiceCd=410&Type=search", "url2": "plaisir-japan.jp" }, "geometry": { "type": "Point", "coordinates": [ 137.752149700000018, 34.6906461 ] } },
{ "type": "Feature", "properties": { "内容": "株式会社レンティック中部介護ショップちゅーぶ【特定福祉用具販売】浜松市中区高林5丁目7-13", "url": "https://www.kaigokensaku.mhlw.go.jp/22/index.php?action_kouhyou_detail_004_kani=true&JigyosyoCd=2277100430-00&ServiceCd=410&Type=search", "url2": "http://www.rentic-chubu.co.jp" }, "geometry": { "type": "Point", "coordinates": [ 137.736151899999982, 34.7346766 ] } },
{ "type": "Feature", "properties": { "内容": "株式会社　マストレメディカル【特定福祉用具販売】浜松市中央区有玉南町２３６５", "url": "https://www.kaigokensaku.mhlw.go.jp/22/index.php?action_kouhyou_detail_004_kani=true&JigyosyoCd=2277100547-00&ServiceCd=410&Type=search", "url2": "http://www.masutore.co.jp" }, "geometry": { "type": "Point", "coordinates": [ 137.7466091, 34.74752180000003 ] } },
{ "type": "Feature", "properties": { "内容": "株式会社イノベイションオブメディカルサービス　浜松営業所【特定福祉用具販売】静岡県浜松市中央区飯田町742", "url": "https://www.kaigokensaku.mhlw.go.jp/22/index.php?action_kouhyou_detail_004_kani=true&JigyosyoCd=2277206062-00&ServiceCd=410&Type=search", "url2": "http://www.ims-inc.co.jp/" }, "geometry": { "type": "Point", "coordinates": [ 137.7708501, 34.7079515 ] } },
{ "type": "Feature", "properties": { "内容": "株式会社トーカイ　浜松支店【特定福祉用具販売】浜松市中央区高丘西３丁目４５番２３号", "url": "https://www.kaigokensaku.mhlw.go.jp/22/index.php?action_kouhyou_detail_004_kani=true&JigyosyoCd=2277100448-00&ServiceCd=410&Type=search", "url2": "https://www.tokai-corp.com/" }, "geometry": { "type": "Point", "coordinates": [ 137.698694156869522, 34.761155647760994 ] } },
{ "type": "Feature", "properties": { "内容": "エコワークス　浜松営業所【特定福祉用具販売】浜松市西区大人見町3374番地の1", "url": "https://www.kaigokensaku.mhlw.go.jp/22/index.php?action_kouhyou_detail_004_kani=true&JigyosyoCd=2277100984-00&ServiceCd=410&Type=search", "url2": "eco-kaigo.com" }, "geometry": { "type": "Point", "coordinates": [ 137.658517868217501, 34.733895790436421 ] } },
{ "type": "Feature", "properties": { "内容": "介護ショップサカグチ【特定福祉用具販売】ｼ静岡県浜松市中央区中山町4番地", "url": "https://www.kaigokensaku.mhlw.go.jp/22/index.php?action_kouhyou_detail_004_kani=true&JigyosyoCd=2277100562-00&ServiceCd=410&Type=search", "url2": null }, "geometry": { "type": "Point", "coordinates": [ 137.724387299999989, 34.7054904 ] } },
{ "type": "Feature", "properties": { "内容": "フランスベッド株式会社　メディカル浜松営業所【特定福祉用具販売】浜松市中央区安新町286-4", "url": "https://www.kaigokensaku.mhlw.go.jp/22/index.php?action_kouhyou_detail_004_kani=true&JigyosyoCd=2277101503-00&ServiceCd=410&Type=search", "url2": "http://www.francebed.co.jp" }, "geometry": { "type": "Point", "coordinates": [ 137.788102488920231, 34.731508086799565 ] } },
{ "type": "Feature", "properties": { "内容": "豊栄医科器械有限会社【特定福祉用具販売】浜松市浜北区於呂3026-2", "url": "https://www.kaigokensaku.mhlw.go.jp/22/index.php?action_kouhyou_detail_004_kani=true&JigyosyoCd=2278300252-00&ServiceCd=410&Type=search", "url2": null }, "geometry": { "type": "Point", "coordinates": [ 137.799284199999988, 34.8240051 ] } },
{ "type": "Feature", "properties": { "内容": "ホームケアいおり【特定福祉用具販売】静岡県浜松市北区都田町16-5", "url": "https://www.kaigokensaku.mhlw.go.jp/22/index.php?action_kouhyou_detail_004_kani=true&JigyosyoCd=2277100125-00&ServiceCd=410&Type=search", "url2": "http://www.jihian.or.jp" }, "geometry": { "type": "Point", "coordinates": [ 137.714495100000022, 34.8100386 ] } },
{ "type": "Feature", "properties": { "内容": "株式会社　まんてん【特定福祉用具販売】浜松市浜北区於呂3959-1", "url": "https://www.kaigokensaku.mhlw.go.jp/22/index.php?action_kouhyou_detail_004_kani=true&JigyosyoCd=2277103699-00&ServiceCd=410&Type=search", "url2": null }, "geometry": { "type": "Point", "coordinates": [ 137.805763599999977, 34.8475938 ] } },
{ "type": "Feature", "properties": { "内容": "天竜厚生会介護福祉機器センター【特定福祉用具販売】浜松市浜名区於呂4201-9", "url": "https://www.kaigokensaku.mhlw.go.jp/22/index.php?action_kouhyou_detail_004_kani=true&JigyosyoCd=2278300096-00&ServiceCd=410&Type=search", "url2": "https://www.tenryu-kohseikai.or.jp/" }, "geometry": { "type": "Point", "coordinates": [ 137.791419642153045, 34.855702552581604 ] } },
{ "type": "Feature", "properties": { "内容": "ホームケアいおり【特定福祉用具販売】静岡県浜松市浜名区都田町16番5号", "url": "https://www.kaigokensaku.mhlw.go.jp/22/index.php?action_kouhyou_detail_004_kani=true&JigyosyoCd=2277205452-00&ServiceCd=410&Type=search", "url2": "http://www.jihian.or.jp/top/" }, "geometry": { "type": "Point", "coordinates": [ 137.7145, 34.8096871 ] } },
{ "type": "Feature", "properties": { "内容": "株式会社浜名家具センター【特定福祉用具販売】静岡県浜松市北区三ヶ日町三ヶ日883-3", "url": "https://www.kaigokensaku.mhlw.go.jp/22/index.php?action_kouhyou_detail_004_kani=true&JigyosyoCd=2278100090-00&ServiceCd=410&Type=search", "url2": null }, "geometry": { "type": "Point", "coordinates": [ 137.548680699999977, 34.8041344 ] } },
{ "type": "Feature", "properties": { "内容": "エーデルワイス福祉用具センター【特定福祉用具販売】浜松市浜名区平口2405", "url": "https://www.kaigokensaku.mhlw.go.jp/22/index.php?action_kouhyou_detail_004_kani=true&JigyosyoCd=2277207078-00&ServiceCd=410&Type=search", "url2": "https://www.jyuzen-byouin.com/" }, "geometry": { "type": "Point", "coordinates": [ 137.767083213491844, 34.796559081118275 ] } },
{ "type": "Feature", "properties": { "内容": "有限会社　マルヤス【特定福祉用具販売】浜松市天竜区水窪町奥領家3050-12", "url": "https://www.kaigokensaku.mhlw.go.jp/22/index.php?action_kouhyou_detail_004_kani=true&JigyosyoCd=2276600265-00&ServiceCd=410&Type=search", "url2": null }, "geometry": { "type": "Point", "coordinates": [ 137.867206430688498, 35.164932122616094 ] } },
{ "type": "Feature", "properties": { "内容": "ホームケアサービスこころ【特定福祉用具販売】静岡県沼津市大岡1080", "url": "https://www.kaigokensaku.mhlw.go.jp/22/index.php?action_kouhyou_detail_004_kani=true&JigyosyoCd=2271102572-00&ServiceCd=410&Type=search", "url2": "http://ktskk.co.jp" }, "geometry": { "type": "Point", "coordinates": [ 138.879348299999947, 35.1068837 ] } },
{ "type": "Feature", "properties": { "内容": "協和医科器械株式会社沼津支店【特定福祉用具販売】静岡県沼津市大岡3995-1", "url": "https://www.kaigokensaku.mhlw.go.jp/22/index.php?action_kouhyou_detail_004_kani=true&JigyosyoCd=2271100253-00&ServiceCd=410&Type=search", "url2": "http:www.kyowaika.co.jp" }, "geometry": { "type": "Point", "coordinates": [ 138.880305433239528, 35.134064977766954 ] } },
{ "type": "Feature", "properties": { "内容": "ベルメディカルケア株式会社　沼津営業所【特定福祉用具販売】沼津市大諏訪881-1", "url": "https://www.kaigokensaku.mhlw.go.jp/22/index.php?action_kouhyou_detail_004_kani=true&JigyosyoCd=2271102085-00&ServiceCd=410&Type=search", "url2": "http://www.bellmc.co.jp/" }, "geometry": { "type": "Point", "coordinates": [ 138.838013100000012, 35.1139293 ] } },
{ "type": "Feature", "properties": { "内容": "株式会社トーカイ　沼津営業所【特定福祉用具販売】静岡県沼津市大諏訪490番地1", "url": "https://www.kaigokensaku.mhlw.go.jp/22/index.php?action_kouhyou_detail_004_kani=true&JigyosyoCd=2271102218-00&ServiceCd=410&Type=search", "url2": "https://www.tokai-corp.com" }, "geometry": { "type": "Point", "coordinates": [ 138.828005399999938, 35.114965 ] } },
{ "type": "Feature", "properties": { "内容": "株式会社ヤマシタ沼津営業所【特定福祉用具販売】沼津市岡一色817-3", "url": "https://www.kaigokensaku.mhlw.go.jp/22/index.php?action_kouhyou_detail_004_kani=true&JigyosyoCd=2271100238-00&ServiceCd=410&Type=search", "url2": "http://www.yco.co.jp/" }, "geometry": { "type": "Point", "coordinates": [ 138.876693700000033, 35.1201383 ] } },
{ "type": "Feature", "properties": { "内容": "株式会社　東海医療器械【特定福祉用具販売】沼津市大岡901-3", "url": "https://www.kaigokensaku.mhlw.go.jp/22/index.php?action_kouhyou_detail_004_kani=true&JigyosyoCd=2271100261-00&ServiceCd=410&Type=search", "url2": "http://www.tokai-mi.co.jp" }, "geometry": { "type": "Point", "coordinates": [ 138.873585899999966, 35.1108556 ] } },
{ "type": "Feature", "properties": { "内容": "パートナー【特定福祉用具販売】静岡県沼津市沼北町1-1-7", "url": "https://www.kaigokensaku.mhlw.go.jp/22/index.php?action_kouhyou_detail_004_kani=true&JigyosyoCd=2271101442-00&ServiceCd=410&Type=search", "url2": null }, "geometry": { "type": "Point", "coordinates": [ 138.854934899999989, 35.1118385 ] } },
{ "type": "Feature", "properties": { "内容": "株式会社フロンィア静岡営業所【特定福祉用具販売】静岡県沼津市上香貫槇島町1265", "url": "https://www.kaigokensaku.mhlw.go.jp/22/index.php?action_kouhyou_detail_004_kani=true&JigyosyoCd=2271102457-00&ServiceCd=410&Type=search", "url2": "http://www.frontier-ph.com/main.cgi" }, "geometry": { "type": "Point", "coordinates": [ 138.866492599999987, 35.0851767 ] } },
{ "type": "Feature", "properties": { "内容": "フランスベッド株式会社　メディカル沼津営業所【特定福祉用具販売】沼津市寿町10-15", "url": "https://www.kaigokensaku.mhlw.go.jp/22/index.php?action_kouhyou_detail_004_kani=true&JigyosyoCd=2271101012-00&ServiceCd=410&Type=search", "url2": "http://www.francebed.co.jp/" }, "geometry": { "type": "Point", "coordinates": [ 138.858178299999963, 35.11568 ] } },
{ "type": "Feature", "properties": { "内容": "WeLS株式会社【特定福祉用具販売】静岡県沼津市若葉町1-56", "url": "https://www.kaigokensaku.mhlw.go.jp/22/index.php?action_kouhyou_detail_004_kani=true&JigyosyoCd=2271103174-00&ServiceCd=410&Type=search", "url2": null }, "geometry": { "type": "Point", "coordinates": [ 138.856259, 35.1165104 ] } },
{ "type": "Feature", "properties": { "内容": "介護支援ショップ　フィットサポート　福祉用具販売事業所【特定福祉用具販売】静岡県沼津市西沢田1111-5", "url": "https://www.kaigokensaku.mhlw.go.jp/22/index.php?action_kouhyou_detail_004_kani=true&JigyosyoCd=2271102325-00&ServiceCd=410&Type=search", "url2": null }, "geometry": { "type": "Point", "coordinates": [ 138.844978500000025, 35.1286329 ] } },
{ "type": "Feature", "properties": { "内容": "アイズ介護用品【特定福祉用具販売】静岡県沼津市高島本町3-18マルスン沼津ビル1階", "url": "https://www.kaigokensaku.mhlw.go.jp/22/index.php?action_kouhyou_detail_004_kani=true&JigyosyoCd=2271102267-00&ServiceCd=410&Type=search", "url2": "http://www.nodoca.or.jp/index.html" }, "geometry": { "type": "Point", "coordinates": [ 138.857098, 35.109322 ] } },
{ "type": "Feature", "properties": { "内容": "福祉用具　あたみ1ばん【特定福祉用具販売】静岡県熱海市紅葉ガ丘町１８番６１号２０２", "url": "https://www.kaigokensaku.mhlw.go.jp/22/index.php?action_kouhyou_detail_004_kani=true&JigyosyoCd=2270500503-00&ServiceCd=410&Type=search", "url2": null }, "geometry": { "type": "Point", "coordinates": [ 139.056267, 35.0877244 ] } },
{ "type": "Feature", "properties": { "内容": "ライブリーメイト中銀熱海【特定福祉用具販売】静岡県熱海市田原本町9-1熱海駅前第一ビル５F", "url": "https://www.kaigokensaku.mhlw.go.jp/22/index.php?action_kouhyou_detail_004_kani=true&JigyosyoCd=2270500883-00&ServiceCd=410&Type=search", "url2": "http://www.lively-nakagin.com/" }, "geometry": { "type": "Point", "coordinates": [ 139.079107599999986, 35.1033727 ] } },
{ "type": "Feature", "properties": { "内容": "福祉用具センター　ナースの森　熱海【特定福祉用具販売】静岡洗熱海市下多賀1032-1", "url": "https://www.kaigokensaku.mhlw.go.jp/22/index.php?action_kouhyou_detail_004_kani=true&JigyosyoCd=2270501030-00&ServiceCd=410&Type=search", "url2": "https://na-sunomori.jp" }, "geometry": { "type": "Point", "coordinates": [ 139.066648500000014, 35.0498319 ] } },
{ "type": "Feature", "properties": { "内容": "介護ショップミズタニ【特定福祉用具販売】静岡県熱海市咲見町１２－１３", "url": "https://www.kaigokensaku.mhlw.go.jp/22/index.php?action_kouhyou_detail_004_kani=true&JigyosyoCd=2270500131-00&ServiceCd=410&Type=search", "url2": "https://www.kaigomizutani.com/" }, "geometry": { "type": "Point", "coordinates": [ 139.074843399999963, 35.100762 ] } },
{ "type": "Feature", "properties": { "内容": "福祉用具フタバ【特定福祉用具販売】静岡県熱海市昭和町21-1", "url": "https://www.kaigokensaku.mhlw.go.jp/22/index.php?action_kouhyou_detail_004_kani=true&JigyosyoCd=2270500602-00&ServiceCd=410&Type=search", "url2": null }, "geometry": { "type": "Point", "coordinates": [ 139.068147, 35.0915578 ] } },
{ "type": "Feature", "properties": { "内容": "エルイマイ株式会社　エライア三島富田町店【特定福祉用具販売】三島市富田町３－６", "url": "https://www.kaigokensaku.mhlw.go.jp/22/index.php?action_kouhyou_detail_004_kani=true&JigyosyoCd=2270601509-00&ServiceCd=410&Type=search", "url2": "https://ellimai.co.jp/lifecare/" }, "geometry": { "type": "Point", "coordinates": [ 138.9158467, 35.1076777 ] } },
{ "type": "Feature", "properties": { "内容": "キングラン東海株式会社　静岡支社【特定福祉用具販売】梅名283番地5", "url": "https://www.kaigokensaku.mhlw.go.jp/22/index.php?action_kouhyou_detail_004_kani=true&JigyosyoCd=2270601491-00&ServiceCd=410&Type=search", "url2": "http://www.kingrun-tokai.co.jp" }, "geometry": { "type": "Point", "coordinates": [ 138.9301372, 35.0904711 ] } },
{ "type": "Feature", "properties": { "内容": "株式会社　かごや【特定福祉用具販売】淀平町７１４", "url": "https://www.kaigokensaku.mhlw.go.jp/22/index.php?action_kouhyou_detail_004_kani=true&JigyosyoCd=2272101268-00&ServiceCd=410&Type=search", "url2": "http://kagoya.biz" }, "geometry": { "type": "Point", "coordinates": [ 138.609385400000065, 35.2411874 ] } },
{ "type": "Feature", "properties": { "内容": "介護用品ショップげんき堂【特定福祉用具販売】富士宮市小泉336-17", "url": "https://www.kaigokensaku.mhlw.go.jp/22/index.php?action_kouhyou_detail_004_kani=true&JigyosyoCd=2272100724-00&ServiceCd=410&Type=search", "url2": "http://lifewakeup.blog83.fc2.com/" }, "geometry": { "type": "Point", "coordinates": [ 138.632737, 35.2073589 ] } },
{ "type": "Feature", "properties": { "内容": "株式会社オギ【特定福祉用具販売】静岡県富士宮市淀師1730-1", "url": "https://www.kaigokensaku.mhlw.go.jp/22/index.php?action_kouhyou_detail_004_kani=true&JigyosyoCd=2272100153-00&ServiceCd=410&Type=search", "url2": "http://www.ogi-tech.co.jp/kaigo/index.html" }, "geometry": { "type": "Point", "coordinates": [ 138.599896215376816, 35.245885229813531 ] } },
{ "type": "Feature", "properties": { "内容": "株式会社花みずき【特定福祉用具販売】静岡県伊東市八幡野1126番地の43　岩上事務所101", "url": "https://www.kaigokensaku.mhlw.go.jp/22/index.php?action_kouhyou_detail_004_kani=true&JigyosyoCd=2270400845-00&ServiceCd=410&Type=search", "url2": null }, "geometry": { "type": "Point", "coordinates": [ 139.1032854, 34.8761778 ] } },
{ "type": "Feature", "properties": { "内容": "有限会社　悠悠【特定福祉用具販売】伊東市吉田633-1", "url": "https://www.kaigokensaku.mhlw.go.jp/22/index.php?action_kouhyou_detail_004_kani=true&JigyosyoCd=2270400084-00&ServiceCd=410&Type=search", "url2": "http://www.yuyu-ito.com" }, "geometry": { "type": "Point", "coordinates": [ 139.118520399999966, 34.9368574 ] } },
{ "type": "Feature", "properties": { "内容": "うさぎ薬局福祉用具センター【特定福祉用具販売】静岡県伊東市岡216-24", "url": "https://www.kaigokensaku.mhlw.go.jp/22/index.php?action_kouhyou_detail_004_kani=true&JigyosyoCd=2270401363-00&ServiceCd=410&Type=search", "url2": "https://usagipharmacy.com/care/tool/" }, "geometry": { "type": "Point", "coordinates": [ 139.088168393254051, 34.962337166670139 ] } },
{ "type": "Feature", "properties": { "内容": "有限会社伊豆介護センター【特定福祉用具販売】伊東市音無町5-6", "url": "https://www.kaigokensaku.mhlw.go.jp/22/index.php?action_kouhyou_detail_004_kani=true&JigyosyoCd=2270400019-00&ServiceCd=410&Type=search", "url2": "http://www.izukaigo.com" }, "geometry": { "type": "Point", "coordinates": [ 139.095639500000061, 34.9654868 ] } },
{ "type": "Feature", "properties": { "内容": "ベルメディカルケア株式会社　伊東営業所【特定福祉用具販売】伊東市荻78-1", "url": "https://www.kaigokensaku.mhlw.go.jp/22/index.php?action_kouhyou_detail_004_kani=true&JigyosyoCd=2270400795-00&ServiceCd=410&Type=search", "url2": "http://www.bellmc.co.jp" }, "geometry": { "type": "Point", "coordinates": [ 139.092660900000027, 34.9343587 ] } },
{ "type": "Feature", "properties": { "内容": "福祉用具センター　ナースの森【特定福祉用具販売】静岡県伊東市宇佐美1936-2", "url": "https://www.kaigokensaku.mhlw.go.jp/22/index.php?action_kouhyou_detail_004_kani=true&JigyosyoCd=2270401249-00&ServiceCd=410&Type=search", "url2": "https://na-sunomori.jp" }, "geometry": { "type": "Point", "coordinates": [ 139.0810123, 35.0040109 ] } },
{ "type": "Feature", "properties": { "内容": "有限会社　島田福祉サービス【特定福祉用具販売】島田市中河町280-1", "url": "https://www.kaigokensaku.mhlw.go.jp/22/index.php?action_kouhyou_detail_004_kani=true&JigyosyoCd=2275400139-00&ServiceCd=410&Type=search", "url2": null }, "geometry": { "type": "Point", "coordinates": [ 138.179921199999967, 34.8401686 ] } },
{ "type": "Feature", "properties": { "内容": "福祉用具A.E.R【特定福祉用具販売】静岡県島田市横井四丁目7-3", "url": "https://www.kaigokensaku.mhlw.go.jp/22/index.php?action_kouhyou_detail_004_kani=true&JigyosyoCd=2275401103-00&ServiceCd=410&Type=search", "url2": "https://ichigoichie-care.com/service/rental/" }, "geometry": { "type": "Point", "coordinates": [ 138.176787423646175, 34.826965844551367 ] } },
{ "type": "Feature", "properties": { "内容": "株式会社　リクサス静岡　ヘルスケア事業部【特定福祉用具販売】静岡県島田市中央町14-18", "url": "https://www.kaigokensaku.mhlw.go.jp/22/index.php?action_kouhyou_detail_004_kani=true&JigyosyoCd=2275400501-00&ServiceCd=410&Type=search", "url2": null }, "geometry": { "type": "Point", "coordinates": [ 138.174284396339601, 34.837559562072677 ] } },
{ "type": "Feature", "properties": { "内容": "株式会社レンティック中部　介護ショップちゅーぶ島田【特定福祉用具販売】静岡県島田市金谷代官町764-1", "url": "https://www.kaigokensaku.mhlw.go.jp/22/index.php?action_kouhyou_detail_004_kani=true&JigyosyoCd=2275700066-00&ServiceCd=410&Type=search", "url2": "https://www.rentic-chubu.co.jp/" }, "geometry": { "type": "Point", "coordinates": [ 138.127729713397287, 34.836696326273753 ] } },
{ "type": "Feature", "properties": { "内容": "一期一会　ケア　アシスト【特定福祉用具販売】静岡県島田市竹下162-2", "url": "https://www.kaigokensaku.mhlw.go.jp/22/index.php?action_kouhyou_detail_004_kani=true&JigyosyoCd=2275401004-00&ServiceCd=410&Type=search", "url2": null }, "geometry": { "type": "Point", "coordinates": [ 138.118817900000067, 34.8459138 ] } },
{ "type": "Feature", "properties": { "内容": "ゆい介護用品【特定福祉用具販売】静岡県富士市中里172-7", "url": "https://www.kaigokensaku.mhlw.go.jp/22/index.php?action_kouhyou_detail_004_kani=true&JigyosyoCd=2272302668-00&ServiceCd=410&Type=search", "url2": "http://ecare001.blogspot.com/" }, "geometry": { "type": "Point", "coordinates": [ 138.732068757612296, 35.164407740157444 ] } },
{ "type": "Feature", "properties": { "内容": "株式会社マルレーヴ【特定福祉用具販売】大渕2416-5", "url": "https://www.kaigokensaku.mhlw.go.jp/22/index.php?action_kouhyou_detail_004_kani=true&JigyosyoCd=2272303450-00&ServiceCd=410&Type=search", "url2": "https://www.marureve.co.jp_/" }, "geometry": { "type": "Point", "coordinates": [ 138.68773, 35.162376 ] } },
{ "type": "Feature", "properties": { "内容": "ベルメディカルケア株式会社　富士営業所【特定福祉用具販売】富士市川成新町334", "url": "https://www.kaigokensaku.mhlw.go.jp/22/index.php?action_kouhyou_detail_004_kani=true&JigyosyoCd=2272301983-00&ServiceCd=410&Type=search", "url2": "http://www.bellmc.co.jp/" }, "geometry": { "type": "Point", "coordinates": [ 138.662990499999978, 35.1327073 ] } },
{ "type": "Feature", "properties": { "内容": "介護ショップ　メイプル【特定福祉用具販売】富士市伝法2525-1", "url": "https://www.kaigokensaku.mhlw.go.jp/22/index.php?action_kouhyou_detail_004_kani=true&JigyosyoCd=2272300721-00&ServiceCd=410&Type=search", "url2": "e-maple.com" }, "geometry": { "type": "Point", "coordinates": [ 138.671506499999964, 35.1739053 ] } },
{ "type": "Feature", "properties": { "内容": "(株）市川家具センター　ウェルランド市川【特定福祉用具販売】富士市高島町21番地", "url": "https://www.kaigokensaku.mhlw.go.jp/22/index.php?action_kouhyou_detail_004_kani=true&JigyosyoCd=2272301181-00&ServiceCd=410&Type=search", "url2": "http://www.ichikawakagu-center.com" }, "geometry": { "type": "Point", "coordinates": [ 138.669580610836732, 35.159495170199889 ] } },
{ "type": "Feature", "properties": { "内容": "（株）コーチョーケアベースふじやま【特定福祉用具販売】富士市瓜島町102-2", "url": "https://www.kaigokensaku.mhlw.go.jp/22/index.php?action_kouhyou_detail_004_kani=true&JigyosyoCd=2272300795-00&ServiceCd=410&Type=search", "url2": "http:/www.kohcho.com/" }, "geometry": { "type": "Point", "coordinates": [ 138.67219810000006, 35.1654591 ] } },
{ "type": "Feature", "properties": { "内容": "株式会社ヤマシタ富士営業所【特定福祉用具販売】静岡県富士市本市場町995", "url": "https://www.kaigokensaku.mhlw.go.jp/22/index.php?action_kouhyou_detail_004_kani=true&JigyosyoCd=2272303526-00&ServiceCd=410&Type=search", "url2": "http://www.yco.co.jp/" }, "geometry": { "type": "Point", "coordinates": [ 138.6579638, 35.1585699 ] } },
{ "type": "Feature", "properties": { "内容": "介護ショップしずき【特定福祉用具販売】富士市中島480-1", "url": "https://www.kaigokensaku.mhlw.go.jp/22/index.php?action_kouhyou_detail_004_kani=true&JigyosyoCd=2272301041-00&ServiceCd=410&Type=search", "url2": "http://kaigo-shizuki.com/" }, "geometry": { "type": "Point", "coordinates": [ 138.65335529999993, 35.1636759 ] } },
{ "type": "Feature", "properties": { "内容": "介護ショップ　太助【特定福祉用具販売】静岡県富士市森島349-1", "url": "https://www.kaigokensaku.mhlw.go.jp/22/index.php?action_kouhyou_detail_004_kani=true&JigyosyoCd=2272302940-00&ServiceCd=410&Type=search", "url2": null }, "geometry": { "type": "Point", "coordinates": [ 138.643503099999975, 35.1421644 ] } },
{ "type": "Feature", "properties": { "内容": "株式会社　イノベイションオブメディカルサービス富士営業所【特定福祉用具販売】富士市浅間上町20-33", "url": "https://www.kaigokensaku.mhlw.go.jp/22/index.php?action_kouhyou_detail_004_kani=true&JigyosyoCd=2272301363-00&ServiceCd=410&Type=search", "url2": "http://ims-inc.co.jp/" }, "geometry": { "type": "Point", "coordinates": [ 138.679353, 35.1695808 ] } },
{ "type": "Feature", "properties": { "内容": "えすおうゆう　ふくしようぐ　まつもと【特定福祉用具販売】富士市長通12-1", "url": "https://www.kaigokensaku.mhlw.go.jp/22/index.php?action_kouhyou_detail_004_kani=true&JigyosyoCd=2272301942-00&ServiceCd=410&Type=search", "url2": "http://www.altidea.com/" }, "geometry": { "type": "Point", "coordinates": [ 138.647855700000036, 35.1727774 ] } },
{ "type": "Feature", "properties": { "内容": "まめお薬局【特定福祉用具販売】静岡県磐田市南田74-4", "url": "https://www.kaigokensaku.mhlw.go.jp/22/index.php?action_kouhyou_detail_004_kani=true&JigyosyoCd=2246910091-00&ServiceCd=410&Type=search", "url2": "https://beanman.tkc.best-hp.jp" }, "geometry": { "type": "Point", "coordinates": [ 137.8583295, 34.6779569 ] } },
{ "type": "Feature", "properties": { "内容": "株式会社レンティック中部　介護ショップちゅーぶ磐田【特定福祉用具販売】静岡県磐田市天龍940", "url": "https://www.kaigokensaku.mhlw.go.jp/22/index.php?action_kouhyou_detail_004_kani=true&JigyosyoCd=2276901184-00&ServiceCd=410&Type=search", "url2": "http://www.rentic-chubu.co.jp/care/service.php" }, "geometry": { "type": "Point", "coordinates": [ 137.847804599999989, 34.7030889 ] } },
{ "type": "Feature", "properties": { "内容": "ダスキンヘルスレント静岡焼津ステーション【特定福祉用具販売】焼津市塩津２－２", "url": "https://www.kaigokensaku.mhlw.go.jp/22/index.php?action_kouhyou_detail_004_kani=true&JigyosyoCd=2275101174-00&ServiceCd=410&Type=search", "url2": "http://www.seio/co/jp" }, "geometry": { "type": "Point", "coordinates": [ 138.3036505, 34.8677563 ] } },
{ "type": "Feature", "properties": { "内容": "株式会社ヤマシタ　焼津営業所【特定福祉用具販売】焼津市上小杉５１３", "url": "https://www.kaigokensaku.mhlw.go.jp/22/index.php?action_kouhyou_detail_004_kani=true&JigyosyoCd=2275200067-00&ServiceCd=410&Type=search", "url2": "http://www.yco.co.jp/" }, "geometry": { "type": "Point", "coordinates": [ 138.276893400000063, 34.8212621 ] } },
{ "type": "Feature", "properties": { "内容": "介護ショップ　ひまわり【特定福祉用具販売】焼津市中根181", "url": "https://www.kaigokensaku.mhlw.go.jp/22/index.php?action_kouhyou_detail_004_kani=true&JigyosyoCd=2275100283-00&ServiceCd=410&Type=search", "url2": null }, "geometry": { "type": "Point", "coordinates": [ 138.2976625, 34.8450484 ] } },
{ "type": "Feature", "properties": { "内容": "アスケア福祉用具センター静岡【特定福祉用具販売】静岡県焼津市小柳津186", "url": "https://www.kaigokensaku.mhlw.go.jp/22/index.php?action_kouhyou_detail_004_kani=true&JigyosyoCd=2275101208-00&ServiceCd=410&Type=search", "url2": "https://www.asahi-sun-clean.co.jp/" }, "geometry": { "type": "Point", "coordinates": [ 138.281476424709524, 34.854251048601306 ] } },
{ "type": "Feature", "properties": { "内容": "福祉用具総合サービスポップ株式会社【特定福祉用具販売】静岡県焼津市下小田上町21-12", "url": "https://www.kaigokensaku.mhlw.go.jp/22/index.php?action_kouhyou_detail_004_kani=true&JigyosyoCd=2275100861-00&ServiceCd=410&Type=search", "url2": "https://pop2010.com/" }, "geometry": { "type": "Point", "coordinates": [ 138.314154499999972, 34.8372685 ] } },
{ "type": "Feature", "properties": { "内容": "天竜厚生会介護福祉機器センター掛川【特定福祉用具販売】静岡県掛川市宮脇２丁目１６－３宮脇の家内", "url": "https://www.kaigokensaku.mhlw.go.jp/22/index.php?action_kouhyou_detail_004_kani=true&JigyosyoCd=2277400160-00&ServiceCd=410&Type=search", "url2": "https://www.tenryu-kohseikai.or.jp/" }, "geometry": { "type": "Point", "coordinates": [ 138.029195499999986, 34.7819518 ] } },
{ "type": "Feature", "properties": { "内容": "株式会社レンティック中部　介護ショップちゅーぶ掛川【特定福祉用具販売】掛川市杉谷1-1-11", "url": "https://www.kaigokensaku.mhlw.go.jp/22/index.php?action_kouhyou_detail_004_kani=true&JigyosyoCd=2277400780-00&ServiceCd=410&Type=search", "url2": "http://www.rentic-chubu.co.jp/" }, "geometry": { "type": "Point", "coordinates": [ 138.031439, 34.7685679 ] } },
{ "type": "Feature", "properties": { "内容": "ベルメディカルケア株式会社　掛川営業所【特定福祉用具販売】掛川市矢崎町4-4", "url": "https://www.kaigokensaku.mhlw.go.jp/22/index.php?action_kouhyou_detail_004_kani=true&JigyosyoCd=2277400327-00&ServiceCd=410&Type=search", "url2": "http://www.bellmc.co.jp/" }, "geometry": { "type": "Point", "coordinates": [ 138.023863099999971, 34.7633815 ] } },
{ "type": "Feature", "properties": { "内容": "株式会社ケア・アシストはなぶさ【特定福祉用具販売】静岡県藤枝市音羽町5丁目25-18", "url": "https://www.kaigokensaku.mhlw.go.jp/22/index.php?action_kouhyou_detail_004_kani=true&JigyosyoCd=2275301758-00&ServiceCd=410&Type=search", "url2": null }, "geometry": { "type": "Point", "coordinates": [ 138.233813399999974, 34.876691200000039 ] } },
{ "type": "Feature", "properties": { "内容": "One’s　Lifeレンタル【特定福祉用具販売】静岡県藤枝市志太3-2-28", "url": "https://www.kaigokensaku.mhlw.go.jp/22/index.php?action_kouhyou_detail_004_kani=true&JigyosyoCd=2275301949-00&ServiceCd=410&Type=search", "url2": "http://www.ops2016.com" }, "geometry": { "type": "Point", "coordinates": [ 138.24950867290849, 34.864011670176609 ] } },
{ "type": "Feature", "properties": { "内容": "福祉用具サービスフォレスタ藤枝【特定福祉用具販売】静岡県藤枝市高洲1-13-3", "url": "https://www.kaigokensaku.mhlw.go.jp/22/index.php?action_kouhyou_detail_004_kani=true&JigyosyoCd=2275301279-00&ServiceCd=410&Type=search", "url2": "http://www.forestafujieda.jp" }, "geometry": { "type": "Point", "coordinates": [ 138.266569200000049, 34.8413064 ] } },
{ "type": "Feature", "properties": { "内容": "東海ガス株式会社【特定福祉用具販売】静岡県藤枝市青木２丁目２９番１号", "url": "https://www.kaigokensaku.mhlw.go.jp/22/index.php?action_kouhyou_detail_004_kani=true&JigyosyoCd=2275301444-00&ServiceCd=410&Type=search", "url2": "http://www.tokaigas.co.jp" }, "geometry": { "type": "Point", "coordinates": [ 138.251672278224873, 34.857890903708352 ] } },
{ "type": "Feature", "properties": { "内容": "ベルメディカルケア株式会社　藤枝営業所【特定福祉用具販売】藤枝市青葉町4丁目2-12", "url": "https://www.kaigokensaku.mhlw.go.jp/22/index.php?action_kouhyou_detail_004_kani=true&JigyosyoCd=2275301147-00&ServiceCd=410&Type=search", "url2": "http://www.bellmc.co.jp/" }, "geometry": { "type": "Point", "coordinates": [ 138.246143299999972, 34.8413694 ] } },
{ "type": "Feature", "properties": { "内容": "株式会社あーす介護ショップ【特定福祉用具販売】静岡県藤枝市岡出山1-9-5", "url": "https://www.kaigokensaku.mhlw.go.jp/22/index.php?action_kouhyou_detail_004_kani=true&JigyosyoCd=2275301972-00&ServiceCd=410&Type=search", "url2": "https://earth-group.co.jp/" }, "geometry": { "type": "Point", "coordinates": [ 138.2568412, 34.8687778 ] } },
{ "type": "Feature", "properties": { "内容": "株式会社静岡福祉サービス【特定福祉用具販売】静岡県藤枝市水守2-1-18", "url": "https://www.kaigokensaku.mhlw.go.jp/22/index.php?action_kouhyou_detail_004_kani=true&JigyosyoCd=2275300081-00&ServiceCd=410&Type=search", "url2": "http://shizuokafukushi.com/" }, "geometry": { "type": "Point", "coordinates": [ 138.272796097222681, 34.877718647885175 ] } },
{ "type": "Feature", "properties": { "内容": "リフテック　御殿場【特定福祉用具販売】静岡県御殿場市萩原1142-3", "url": "https://www.kaigokensaku.mhlw.go.jp/22/index.php?action_kouhyou_detail_004_kani=true&JigyosyoCd=2271200491-00&ServiceCd=410&Type=search", "url2": "http://www.liftec.biz/" }, "geometry": { "type": "Point", "coordinates": [ 138.933399133622004, 35.293552216947226 ] } },
{ "type": "Feature", "properties": { "内容": "T-STYLE福祉用具センター【特定福祉用具販売】土橋154-8", "url": "https://www.kaigokensaku.mhlw.go.jp/22/index.php?action_kouhyou_detail_004_kani=true&JigyosyoCd=2277300477-00&ServiceCd=410&Type=search", "url2": null }, "geometry": { "type": "Point", "coordinates": [ 135.772370599999931, 34.5252685 ] } },
{ "type": "Feature", "properties": { "内容": "エコワークス　遠州営業所【特定福祉用具販売】静岡県袋井市堀越2丁目18-1６号室", "url": "https://www.kaigokensaku.mhlw.go.jp/22/index.php?action_kouhyou_detail_004_kani=true&JigyosyoCd=2277300659-00&ServiceCd=410&Type=search", "url2": "http://www.eco-kaigo.com/" }, "geometry": { "type": "Point", "coordinates": [ 137.909488499999952, 34.7523355 ] } },
{ "type": "Feature", "properties": { "内容": "すまいるケアサービス【特定福祉用具販売】浅岡255番地の1", "url": "https://www.kaigokensaku.mhlw.go.jp/22/index.php?action_kouhyou_detail_004_kani=true&JigyosyoCd=2277300774-00&ServiceCd=410&Type=search", "url2": "https://nextone0423.jp/" }, "geometry": { "type": "Point", "coordinates": [ 137.916468, 34.7060135 ] } },
{ "type": "Feature", "properties": { "内容": "株式会社レンティック中部　介護ショップちゅーぶ袋井【特定福祉用具販売】高尾516-1", "url": "https://www.kaigokensaku.mhlw.go.jp/22/index.php?action_kouhyou_detail_004_kani=true&JigyosyoCd=2277300261-00&ServiceCd=410&Type=search", "url2": "http://www.rentic-chubu.co.jp" }, "geometry": { "type": "Point", "coordinates": [ 137.933614799999987, 34.7375944 ] } },
{ "type": "Feature", "properties": { "内容": "ダスキンヘルスレント静岡袋井ステーション【特定福祉用具販売】静岡県袋井市久能1889-1", "url": "https://www.kaigokensaku.mhlw.go.jp/22/index.php?action_kouhyou_detail_004_kani=true&JigyosyoCd=2277300642-00&ServiceCd=410&Type=search", "url2": "HR-SHIZUOKAFUKUROI@fc.duskin.co.jp" }, "geometry": { "type": "Point", "coordinates": [ 137.917150652900915, 34.761997692995806 ] } },
{ "type": "Feature", "properties": { "内容": "ケアショップふじた【特定福祉用具販売】下田市六丁目36-13", "url": "https://www.kaigokensaku.mhlw.go.jp/22/index.php?action_kouhyou_detail_004_kani=true&JigyosyoCd=2270200121-00&ServiceCd=410&Type=search", "url2": null }, "geometry": { "type": "Point", "coordinates": [ 138.933693016845609, 34.670885491745715 ] } },
{ "type": "Feature", "properties": { "内容": "介護ショップ　エテ【特定福祉用具販売】下田市武が浜6-7", "url": "https://www.kaigokensaku.mhlw.go.jp/22/index.php?action_kouhyou_detail_004_kani=true&JigyosyoCd=2270200153-00&ServiceCd=410&Type=search", "url2": null }, "geometry": { "type": "Point", "coordinates": [ 138.949668400000064, 34.6750674 ] } },
{ "type": "Feature", "properties": { "内容": "介護サービス銀の鈴【特定福祉用具販売】下田市西中2－4", "url": "https://www.kaigokensaku.mhlw.go.jp/22/index.php?action_kouhyou_detail_004_kani=true&JigyosyoCd=2270200054-00&ServiceCd=410&Type=search", "url2": "https://silverbel.jp" }, "geometry": { "type": "Point", "coordinates": [ 138.9409412, 34.690996 ] } },
{ "type": "Feature", "properties": { "内容": "株式会社　松井住設【特定福祉用具販売】静岡県湖西市神座411-2", "url": "https://www.kaigokensaku.mhlw.go.jp/22/index.php?action_kouhyou_detail_004_kani=true&JigyosyoCd=2278400243-00&ServiceCd=410&Type=search", "url2": null }, "geometry": { "type": "Point", "coordinates": [ 137.49945524232794, 34.738768149546139 ] } },
{ "type": "Feature", "properties": { "内容": "有限会社　山口燃料【特定福祉用具販売】静岡県湖西市新居町新居898－7", "url": "https://www.kaigokensaku.mhlw.go.jp/22/index.php?action_kouhyou_detail_004_kani=true&JigyosyoCd=2278200171-00&ServiceCd=410&Type=search", "url2": "http://yamaguchi-re.jp/" }, "geometry": { "type": "Point", "coordinates": [ 137.5631985, 34.6934003 ] } },
{ "type": "Feature", "properties": { "内容": "アポロメーカー株式会社【特定福祉用具販売】静岡県伊豆市大平1196-2", "url": "https://www.kaigokensaku.mhlw.go.jp/22/index.php?action_kouhyou_detail_004_kani=true&JigyosyoCd=2270700293-00&ServiceCd=410&Type=search", "url2": null }, "geometry": { "type": "Point", "coordinates": [ 138.935615844653711, 34.949747662323624 ] } },
{ "type": "Feature", "properties": { "内容": "AYUMUtools【特定福祉用具販売】門屋1712-3", "url": "https://www.kaigokensaku.mhlw.go.jp/22/index.php?action_kouhyou_detail_004_kani=true&JigyosyoCd=2275690218-00&ServiceCd=410&Type=search", "url2": "https://bambroot.co.jp/" }, "geometry": { "type": "Point", "coordinates": [ 138.1180809, 34.65452 ] } },
{ "type": "Feature", "properties": { "内容": "ゆうプラン小笠店【特定福祉用具販売】菊川市下平川6418", "url": "https://www.kaigokensaku.mhlw.go.jp/22/index.php?action_kouhyou_detail_004_kani=true&JigyosyoCd=2276100274-00&ServiceCd=410&Type=search", "url2": "http://www.you-plan.jp" }, "geometry": { "type": "Point", "coordinates": [ 138.091314300000022, 34.703396 ] } },
{ "type": "Feature", "properties": { "内容": "アイエル【特定福祉用具販売】菊川市西方971番地", "url": "https://www.kaigokensaku.mhlw.go.jp/22/index.php?action_kouhyou_detail_004_kani=true&JigyosyoCd=2276800014-00&ServiceCd=410&Type=search", "url2": "http:/aieru.co.jp/" }, "geometry": { "type": "Point", "coordinates": [ 138.080789876107787, 34.755209893008299 ] } },
{ "type": "Feature", "properties": { "内容": "ファミリーケアショップ　マスダ【特定福祉用具販売】静岡県牧之原市静波1115-6", "url": "https://www.kaigokensaku.mhlw.go.jp/22/index.php?action_kouhyou_detail_004_kani=true&JigyosyoCd=2275800197-00&ServiceCd=410&Type=search", "url2": null }, "geometry": { "type": "Point", "coordinates": [ 138.2243976, 34.7359844 ] } },
{ "type": "Feature", "properties": { "内容": "株式会社ケアリンク【特定福祉用具販売】静岡県牧之原市静波1563", "url": "https://www.kaigokensaku.mhlw.go.jp/22/index.php?action_kouhyou_detail_004_kani=true&JigyosyoCd=2275800262-00&ServiceCd=410&Type=search", "url2": "http://carelink-web.com/" }, "geometry": { "type": "Point", "coordinates": [ 138.230685200000039, 34.7415647 ] } },
{ "type": "Feature", "properties": { "内容": "まるに福祉サービス【特定福祉用具販売】静岡県牧之原市勝俣1265-1", "url": "https://www.kaigokensaku.mhlw.go.jp/22/index.php?action_kouhyou_detail_004_kani=true&JigyosyoCd=2275500516-00&ServiceCd=410&Type=search", "url2": "http://circle-2.info/" }, "geometry": { "type": "Point", "coordinates": [ 138.210040454339605, 34.743568535050962 ] } },
{ "type": "Feature", "properties": { "内容": "シルバーショップ　えがお【特定福祉用具販売】静岡県牧之原市地頭方1588-2", "url": "https://www.kaigokensaku.mhlw.go.jp/22/index.php?action_kouhyou_detail_004_kani=true&JigyosyoCd=2275800247-00&ServiceCd=410&Type=search", "url2": "http://www.uotomo.com" }, "geometry": { "type": "Point", "coordinates": [ 138.191539, 34.6480793 ] } },
{ "type": "Feature", "properties": { "内容": "あしたばケアサービス【特定福祉用具販売】静岡県賀茂郡東伊豆町大川321-2", "url": "https://www.kaigokensaku.mhlw.go.jp/22/index.php?action_kouhyou_detail_004_kani=true&JigyosyoCd=2270100809-00&ServiceCd=410&Type=search", "url2": null }, "geometry": { "type": "Point", "coordinates": [ 139.072729666214741, 34.840629286961239 ] } },
{ "type": "Feature", "properties": { "内容": "社会福祉総合事業所おれんじ【特定福祉用具販売】奈良本８８７", "url": "https://www.kaigokensaku.mhlw.go.jp/22/index.php?action_kouhyou_detail_004_kani=true&JigyosyoCd=2270100841-00&ServiceCd=410&Type=search", "url2": "https://www.orangewelfare.net/" }, "geometry": { "type": "Point", "coordinates": [ 139.0615185, 34.8165867 ] } },
{ "type": "Feature", "properties": { "内容": "とうぶ介護用品【特定福祉用具販売】静岡県賀茂郡西伊豆町宇久須948", "url": "https://www.kaigokensaku.mhlw.go.jp/22/index.php?action_kouhyou_detail_004_kani=true&JigyosyoCd=2270100551-00&ServiceCd=410&Type=search", "url2": null }, "geometry": { "type": "Point", "coordinates": [ 138.787944599999946, 34.8469313 ] } },
{ "type": "Feature", "properties": { "内容": "ル・ソレイユ函南福祉用具事業所【特定福祉用具販売】静岡県田方郡函南町間宮760-1", "url": "https://www.kaigokensaku.mhlw.go.jp/22/index.php?action_kouhyou_detail_004_kani=true&JigyosyoCd=2270300953-00&ServiceCd=410&Type=search", "url2": "http://care-soleil.com/" }, "geometry": { "type": "Point", "coordinates": [ 138.943284482278386, 35.084803055231262 ] } },
{ "type": "Feature", "properties": { "内容": "ケアサポート優【特定福祉用具販売】間宮617-4シティハイツ柿島201", "url": "https://www.kaigokensaku.mhlw.go.jp/22/index.php?action_kouhyou_detail_004_kani=true&JigyosyoCd=2270301043-00&ServiceCd=410&Type=search", "url2": null }, "geometry": { "type": "Point", "coordinates": [ 138.9382, 35.08375 ] } },
{ "type": "Feature", "properties": { "内容": "生活デザインユーフォリア【特定福祉用具販売】静岡県田方郡函南町上沢675番6住宅型有料老人ホームユーフォリア函南大場", "url": "https://www.kaigokensaku.mhlw.go.jp/22/index.php?action_kouhyou_detail_004_kani=true&JigyosyoCd=2270301050-00&ServiceCd=410&Type=search", "url2": "http://www.euphoria-wd.co.jp/" }, "geometry": { "type": "Point", "coordinates": [ 138.961662068786609, 35.10236976319176 ] } },
{ "type": "Feature", "properties": { "内容": "介護ショップやすらぎ【特定福祉用具販売】静岡県田方郡函南町間宮617-4", "url": "https://www.kaigokensaku.mhlw.go.jp/22/index.php?action_kouhyou_detail_004_kani=true&JigyosyoCd=2270300706-00&ServiceCd=410&Type=search", "url2": null }, "geometry": { "type": "Point", "coordinates": [ 138.940047600000071, 35.0789989 ] } },
{ "type": "Feature", "properties": { "内容": "ウェルケアアシスト【特定福祉用具販売】静岡県駿東郡清水町徳倉1599-7", "url": "https://www.kaigokensaku.mhlw.go.jp/22/index.php?action_kouhyou_detail_004_kani=true&JigyosyoCd=2271300531-00&ServiceCd=410&Type=search", "url2": "http://www.w-being.jp/wellcare/" }, "geometry": { "type": "Point", "coordinates": [ 138.898667899999964, 35.088947 ] } },
{ "type": "Feature", "properties": { "内容": "ダスキンヘルスレント三島ステーション【特定福祉用具販売】静岡県駿東郡清水町卸団地348", "url": "https://www.kaigokensaku.mhlw.go.jp/22/index.php?action_kouhyou_detail_004_kani=true&JigyosyoCd=2271300689-00&ServiceCd=410&Type=search", "url2": "http://healthrent.duskin.jp" }, "geometry": { "type": "Point", "coordinates": [ 138.907286456205725, 35.093648624906805 ] } },
{ "type": "Feature", "properties": { "内容": "大鳥居福祉用具サービス【特定福祉用具販売】駿東郡清水町徳倉１５６６－２", "url": "https://www.kaigokensaku.mhlw.go.jp/22/index.php?action_kouhyou_detail_004_kani=true&JigyosyoCd=2271300374-00&ServiceCd=410&Type=search", "url2": "http://www.ootorii.jp" }, "geometry": { "type": "Point", "coordinates": [ 138.898509600000011, 35.0893414 ] } },
{ "type": "Feature", "properties": { "内容": "ケアベース長泉【特定福祉用具販売】駿東郡長泉町下土狩1347　ルシールイワサキ１０１号", "url": "https://www.kaigokensaku.mhlw.go.jp/22/index.php?action_kouhyou_detail_004_kani=true&JigyosyoCd=2271300226-00&ServiceCd=410&Type=search", "url2": "http://www.kohcho.com" }, "geometry": { "type": "Point", "coordinates": [ 138.897313700000041, 35.1285357 ] } },
{ "type": "Feature", "properties": { "内容": "介護ショップ結和【特定福祉用具販売】静岡県駿東郡長泉町納米里405-8カームライフ納米里", "url": "https://www.kaigokensaku.mhlw.go.jp/22/index.php?action_kouhyou_detail_004_kani=true&JigyosyoCd=2271300929-00&ServiceCd=410&Type=search", "url2": "http://calmlife.jp/" }, "geometry": { "type": "Point", "coordinates": [ 138.894780699999956, 35.1431806 ] } },
{ "type": "Feature", "properties": { "内容": "駿河ワークス株式会社【特定福祉用具販売】静岡県駿東郡長泉町本宿372-1", "url": "https://www.kaigokensaku.mhlw.go.jp/22/index.php?action_kouhyou_detail_004_kani=true&JigyosyoCd=2271300978-00&ServiceCd=410&Type=search", "url2": "http://hp.kaipoke.biz/75u/" }, "geometry": { "type": "Point", "coordinates": [ 138.888137664818458, 35.120777082324686 ] } },
{ "type": "Feature", "properties": { "内容": "株式会社アイビー川根本町【特定福祉用具販売】静岡県榛原郡川根本町上長尾　421-4", "url": "https://www.kaigokensaku.mhlw.go.jp/22/index.php?action_kouhyou_detail_004_kani=true&JigyosyoCd=2275500961-00&ServiceCd=410&Type=search", "url2": null }, "geometry": { "type": "Point", "coordinates": [ 138.0832576, 35.0455069 ] } }
]
}
