{
"type": "FeatureCollection",
"name": "geo_22_認知症対応型通所介護",
"crs": { "type": "name", "properties": { "name": "urn:ogc:def:crs:OGC:1.3:CRS84" } },
"features": [
{ "type": "Feature", "properties": { "内容": "わかばデイサービスセンター【認知症対応型通所介護】静岡市葵区竜南1丁目３－１３", "url": "https://www.kaigokensaku.mhlw.go.jp/22/index.php?action_kouhyou_detail_004_kani=true&JigyosyoCd=2294200486-00&ServiceCd=720&Type=search", "url2": "http://hisj.or." }, "geometry": { "type": "Point", "coordinates": [ 138.400437900000043, 34.9976486 ] } },
{ "type": "Feature", "properties": { "内容": "わかばデイサービス２【認知症対応型通所介護】静岡県静岡市葵区古庄５丁目３番１号", "url": "https://www.kaigokensaku.mhlw.go.jp/22/index.php?action_kouhyou_detail_004_kani=true&JigyosyoCd=2294200494-00&ServiceCd=720&Type=search", "url2": "http://fisj.or.jp/" }, "geometry": { "type": "Point", "coordinates": [ 138.417191900000034, 34.9982768 ] } },
{ "type": "Feature", "properties": { "内容": "楽寿の園福祉エリアデイサービスセンター【認知症対応型通所介護】静岡市葵区与左衛門新田７４－６", "url": "https://www.kaigokensaku.mhlw.go.jp/22/index.php?action_kouhyou_detail_004_kani=true&JigyosyoCd=2274100102-00&ServiceCd=720&Type=search", "url2": "http://www.rakuju.or.jp" }, "geometry": { "type": "Point", "coordinates": [ 138.368957200000068, 35.027303 ] } },
{ "type": "Feature", "properties": { "内容": "大石内科循環器科通所介護センター【認知症対応型通所介護】静岡市葵区鷹匠２丁目６番１号", "url": "https://www.kaigokensaku.mhlw.go.jp/22/index.php?action_kouhyou_detail_004_kani=true&JigyosyoCd=2274100938-00&ServiceCd=720&Type=search", "url2": "http:/www.k4.dion.ne.jp/^shunkei" }, "geometry": { "type": "Point", "coordinates": [ 138.3874813, 34.9773479 ] } },
{ "type": "Feature", "properties": { "内容": "足久保らくじゅの家【認知症対応型通所介護】静岡市葵区足久保口組５１６－１", "url": "https://www.kaigokensaku.mhlw.go.jp/22/index.php?action_kouhyou_detail_004_kani=true&JigyosyoCd=2294200114-00&ServiceCd=720&Type=search", "url2": "http://www.rakuju.or.jp" }, "geometry": { "type": "Point", "coordinates": [ 138.362321400000042, 35.0445896 ] } },
{ "type": "Feature", "properties": { "内容": "デイサービス　ゆったり昭府【認知症対応型通所介護】静岡県静岡市葵区昭府1丁目22-6", "url": "https://www.kaigokensaku.mhlw.go.jp/22/index.php?action_kouhyou_detail_004_kani=true&JigyosyoCd=2294201369-00&ServiceCd=720&Type=search", "url2": "https：//www.cq-s.com" }, "geometry": { "type": "Point", "coordinates": [ 138.371238779098604, 35.000709929346669 ] } },
{ "type": "Feature", "properties": { "内容": "わかばデイサービスセンター【認知症対応型通所介護】静岡県静岡市葵区竜南1丁目3ｰ13", "url": "https://www.kaigokensaku.mhlw.go.jp/22/index.php?action_kouhyou_detail_004_kani=true&JigyosyoCd=2294202730-00&ServiceCd=720&Type=search", "url2": "http://wakaba-ds.com" }, "geometry": { "type": "Point", "coordinates": [ 138.4004242, 34.9976413 ] } },
{ "type": "Feature", "properties": { "内容": "わかばデイサービス２【認知症対応型通所介護】５丁目３番１号", "url": "https://www.kaigokensaku.mhlw.go.jp/22/index.php?action_kouhyou_detail_004_kani=true&JigyosyoCd=2294202748-00&ServiceCd=720&Type=search", "url2": "wakaba-ds.com" }, "geometry": { "type": "Point", "coordinates": [ 138.417192, 34.998275 ] } },
{ "type": "Feature", "properties": { "内容": "デイメイト　イコーナ【認知症対応型通所介護】静岡市駿河区広野４－２－２０", "url": "https://www.kaigokensaku.mhlw.go.jp/22/index.php?action_kouhyou_detail_004_kani=true&JigyosyoCd=2294200213-00&ServiceCd=720&Type=search", "url2": "http://www.ico-na.com" }, "geometry": { "type": "Point", "coordinates": [ 138.371270200000026, 34.9295617 ] } },
{ "type": "Feature", "properties": { "内容": "デイサービス　エコライフ【認知症対応型通所介護】静岡市駿河区大谷３丁目３０－８", "url": "https://www.kaigokensaku.mhlw.go.jp/22/index.php?action_kouhyou_detail_004_kani=true&JigyosyoCd=2294200429-00&ServiceCd=720&Type=search", "url2": null }, "geometry": { "type": "Point", "coordinates": [ 138.436574905062798, 34.950305461015802 ] } },
{ "type": "Feature", "properties": { "内容": "デイサービス　ぴっぴ【認知症対応型通所介護】静岡県静岡市駿河区曲金６丁目１－１０－１", "url": "https://www.kaigokensaku.mhlw.go.jp/22/index.php?action_kouhyou_detail_004_kani=true&JigyosyoCd=2274201827-00&ServiceCd=720&Type=search", "url2": null }, "geometry": { "type": "Point", "coordinates": [ 138.408632099999977, 34.9805231 ] } },
{ "type": "Feature", "properties": { "内容": "スリーＡ　予防デイサービス　折り梅【認知症対応型通所介護】静岡県静岡市駿河区宇津ノ谷逆川22-3", "url": "https://www.kaigokensaku.mhlw.go.jp/22/index.php?action_kouhyou_detail_004_kani=true&JigyosyoCd=2274201504-00&ServiceCd=720&Type=search", "url2": "http://www.3a-oriume.com/" }, "geometry": { "type": "Point", "coordinates": [ 138.309933770947282, 34.937372455145038 ] } },
{ "type": "Feature", "properties": { "内容": "デイサービスセンター　丸子の里【認知症対応型通所介護】静岡市駿河区丸子3000番地の1", "url": "https://www.kaigokensaku.mhlw.go.jp/22/index.php?action_kouhyou_detail_004_kani=true&JigyosyoCd=2274100731-00&ServiceCd=720&Type=search", "url2": "info@marikonosato.org" }, "geometry": { "type": "Point", "coordinates": [ 138.3297682, 34.9493366 ] } },
{ "type": "Feature", "properties": { "内容": "ほがらか小鹿【認知症対応型通所介護】静岡県静岡市駿河区小鹿３２１－１", "url": "https://www.kaigokensaku.mhlw.go.jp/22/index.php?action_kouhyou_detail_004_kani=true&JigyosyoCd=2294201062-00&ServiceCd=720&Type=search", "url2": "https://www.ikiyo.co.jp/hogarakakoshika" }, "geometry": { "type": "Point", "coordinates": [ 138.424394900000038, 34.9696526 ] } },
{ "type": "Feature", "properties": { "内容": "スマイル西脇【認知症対応型通所介護】静岡県静岡市駿河区西脇56-1", "url": "https://www.kaigokensaku.mhlw.go.jp/22/index.php?action_kouhyou_detail_004_kani=true&JigyosyoCd=2294201542-00&ServiceCd=720&Type=search", "url2": "http://www.smile-kaigo.co.jp" }, "geometry": { "type": "Point", "coordinates": [ 138.395969055294813, 34.950015263094564 ] } },
{ "type": "Feature", "properties": { "内容": "ひだまり茶屋【認知症対応型通所介護】静岡県静岡市駿河区新川1-9-6ひだまり茶屋", "url": "https://www.kaigokensaku.mhlw.go.jp/22/index.php?action_kouhyou_detail_004_kani=true&JigyosyoCd=2294201682-00&ServiceCd=720&Type=search", "url2": null }, "geometry": { "type": "Point", "coordinates": [ 138.383848176509275, 34.963291528681211 ] } },
{ "type": "Feature", "properties": { "内容": "おれんじデイ　カリタス有東【認知症対応型通所介護】静岡県静岡市駿河区有東2丁目9-22", "url": "https://www.kaigokensaku.mhlw.go.jp/22/index.php?action_kouhyou_detail_004_kani=true&JigyosyoCd=2294202011-00&ServiceCd=720&Type=search", "url2": null }, "geometry": { "type": "Point", "coordinates": [ 138.407626833204631, 34.962573959840675 ] } },
{ "type": "Feature", "properties": { "内容": "認知症対応型通所介護施設　ここらしさ【認知症対応型通所介護】静岡県静岡市駿河区池田765番地", "url": "https://www.kaigokensaku.mhlw.go.jp/22/index.php?action_kouhyou_detail_004_kani=true&JigyosyoCd=2294202615-00&ServiceCd=720&Type=search", "url2": null }, "geometry": { "type": "Point", "coordinates": [ 138.424897, 34.9802743 ] } },
{ "type": "Feature", "properties": { "内容": "デイサービス陽だまり会【認知症対応型通所介護】静岡県静岡市駿河区新川1-9-2", "url": "https://www.kaigokensaku.mhlw.go.jp/22/index.php?action_kouhyou_detail_004_kani=true&JigyosyoCd=2294203092-00&ServiceCd=720&Type=search", "url2": null }, "geometry": { "type": "Point", "coordinates": [ 138.383658900000029, 34.9634475 ] } },
{ "type": "Feature", "properties": { "内容": "認知症対応型デイサービスセンター柏尾の里【認知症対応型通所介護】静岡市清水区柏尾387番地の2", "url": "https://www.kaigokensaku.mhlw.go.jp/22/index.php?action_kouhyou_detail_004_kani=true&JigyosyoCd=2273200309-00&ServiceCd=720&Type=search", "url2": "http://www.shimizufukushikai.com" }, "geometry": { "type": "Point", "coordinates": [ 138.440853400000037, 35.0385143 ] } },
{ "type": "Feature", "properties": { "内容": "デイサービスセンター高部陽光園【認知症対応型通所介護】静岡県静岡市清水区押切997-1", "url": "https://www.kaigokensaku.mhlw.go.jp/22/index.php?action_kouhyou_detail_004_kani=true&JigyosyoCd=2294202060-00&ServiceCd=720&Type=search", "url2": "http://hakujukai-gp.jp/?page_id=352" }, "geometry": { "type": "Point", "coordinates": [ 138.454299799999944, 35.028066 ] } },
{ "type": "Feature", "properties": { "内容": "デイサービスセンターひだまり【認知症対応型通所介護】静岡市清水区吉原1731", "url": "https://www.kaigokensaku.mhlw.go.jp/22/index.php?action_kouhyou_detail_004_kani=true&JigyosyoCd=2294200403-00&ServiceCd=720&Type=search", "url2": "http://www.t-komorebi.com/" }, "geometry": { "type": "Point", "coordinates": [ 138.464406100000019, 35.0832623 ] } },
{ "type": "Feature", "properties": { "内容": "太陽の友デイサービスセンター【認知症対応型通所介護】静岡市清水区高橋５丁目１３－２９", "url": "https://www.kaigokensaku.mhlw.go.jp/22/index.php?action_kouhyou_detail_004_kani=true&JigyosyoCd=2294200023-00&ServiceCd=720&Type=search", "url2": null }, "geometry": { "type": "Point", "coordinates": [ 138.46619869999995, 35.02698310000001 ] } },
{ "type": "Feature", "properties": { "内容": "デイサービスハーモニー【認知症対応型通所介護】草薙３９９－１５３", "url": "https://www.kaigokensaku.mhlw.go.jp/22/index.php?action_kouhyou_detail_004_kani=true&JigyosyoCd=2274203369-00&ServiceCd=720&Type=search", "url2": "htpps:/www.big-advance.site/s/124/1914" }, "geometry": { "type": "Point", "coordinates": [ 138.4538049, 34.9919436 ] } },
{ "type": "Feature", "properties": { "内容": "デイサービスセンター羽衣の園【認知症対応型通所介護】静岡市清水区折戸5丁目18番36号", "url": "https://www.kaigokensaku.mhlw.go.jp/22/index.php?action_kouhyou_detail_004_kani=true&JigyosyoCd=2273200044-00&ServiceCd=720&Type=search", "url2": "https://sei-sei-kai.jp/" }, "geometry": { "type": "Point", "coordinates": [ 138.518561200000022, 34.9900601 ] } },
{ "type": "Feature", "properties": { "内容": "デイサービスセンター南風【認知症対応型通所介護】浜松市南区倉松町５９３", "url": "https://www.kaigokensaku.mhlw.go.jp/22/index.php?action_kouhyou_detail_004_kani=true&JigyosyoCd=2277101636-00&ServiceCd=720&Type=search", "url2": "http://www.h-minamikaze.com/" }, "geometry": { "type": "Point", "coordinates": [ 137.696948900000052, 34.6758996 ] } },
{ "type": "Feature", "properties": { "内容": "デイサービスあおば【認知症対応型通所介護】静岡県浜松市北区三方原町70番地の10", "url": "https://www.kaigokensaku.mhlw.go.jp/22/index.php?action_kouhyou_detail_004_kani=true&JigyosyoCd=2277102402-00&ServiceCd=720&Type=search", "url2": "http://wch.co.jp" }, "geometry": { "type": "Point", "coordinates": [ 137.717934199999945, 34.7727635 ] } },
{ "type": "Feature", "properties": { "内容": "のんき【認知症対応型通所介護】浜松市北区三方原町２８３1", "url": "https://www.kaigokensaku.mhlw.go.jp/22/index.php?action_kouhyou_detail_004_kani=true&JigyosyoCd=2297100162-00&ServiceCd=720&Type=search", "url2": "http://www.jyuji.or.jp/" }, "geometry": { "type": "Point", "coordinates": [ 137.695701814680433, 34.791451426181261 ] } },
{ "type": "Feature", "properties": { "内容": "デイサービス夢茶房【認知症対応型通所介護】静岡県浜松市中区泉2-2-34", "url": "https://www.kaigokensaku.mhlw.go.jp/22/index.php?action_kouhyou_detail_004_kani=true&JigyosyoCd=2297100360-00&ServiceCd=720&Type=search", "url2": "http://www.yumesabou.net/" }, "geometry": { "type": "Point", "coordinates": [ 137.723207499999944, 34.742834 ] } },
{ "type": "Feature", "properties": { "内容": "あんしんの里デイサービスセンター【認知症対応型通所介護】静岡県浜松市東区安新町33-1", "url": "https://www.kaigokensaku.mhlw.go.jp/22/index.php?action_kouhyou_detail_004_kani=true&JigyosyoCd=2277102212-00&ServiceCd=720&Type=search", "url2": "http://www.hashoukai.jp/" }, "geometry": { "type": "Point", "coordinates": [ 137.7901316, 34.7253577 ] } },
{ "type": "Feature", "properties": { "内容": "デイサービスセンター　浅田ふるさと庵【認知症対応型通所介護】静岡県浜松市中区神田町１９１番地", "url": "https://www.kaigokensaku.mhlw.go.jp/22/index.php?action_kouhyou_detail_004_kani=true&JigyosyoCd=2297200566-00&ServiceCd=720&Type=search", "url2": "www.yuutainosato.jp" }, "geometry": { "type": "Point", "coordinates": [ 137.725015879870654, 34.688662790145514 ] } },
{ "type": "Feature", "properties": { "内容": "第二長上苑デイサービスセンター【認知症対応型通所介護】浜松市東区中田町５９０", "url": "https://www.kaigokensaku.mhlw.go.jp/22/index.php?action_kouhyou_detail_004_kani=true&JigyosyoCd=2277102865-00&ServiceCd=720&Type=search", "url2": "http://www.jade.dti.ne.jp/^ngkm" }, "geometry": { "type": "Point", "coordinates": [ 137.759648, 34.7364517 ] } },
{ "type": "Feature", "properties": { "内容": "デイサービスセンター　かよい【認知症対応型通所介護】浜松市南区石原町739", "url": "https://www.kaigokensaku.mhlw.go.jp/22/index.php?action_kouhyou_detail_004_kani=true&JigyosyoCd=2297200327-00&ServiceCd=720&Type=search", "url2": "https://www.tanpopo-kai.jp" }, "geometry": { "type": "Point", "coordinates": [ 137.769345947360193, 34.68818352769852 ] } },
{ "type": "Feature", "properties": { "内容": "松城デイサービスセンター【認知症対応型通所介護】浜松市中央区松城町２１１番８号", "url": "https://www.kaigokensaku.mhlw.go.jp/22/index.php?action_kouhyou_detail_004_kani=true&JigyosyoCd=2297100063-00&ServiceCd=720&Type=search", "url2": "https://www.sankoukai.or.jp" }, "geometry": { "type": "Point", "coordinates": [ 137.724476474868766, 34.709622729435317 ] } },
{ "type": "Feature", "properties": { "内容": "三幸の園認知症対応型デイサービスセンター【認知症対応型通所介護】静岡県浜松市中央区大平台１丁目３４番３０号", "url": "https://www.kaigokensaku.mhlw.go.jp/22/index.php?action_kouhyou_detail_004_kani=true&JigyosyoCd=2277100174-00&ServiceCd=720&Type=search", "url2": "https://www.sankoukai.or.jp./" }, "geometry": { "type": "Point", "coordinates": [ 137.682829099999907, 34.718683 ] } },
{ "type": "Feature", "properties": { "内容": "あおぞらスローライフデイサービス【認知症対応型通所介護】浜松市中央区大蒲町74-6", "url": "https://www.kaigokensaku.mhlw.go.jp/22/index.php?action_kouhyou_detail_004_kani=true&JigyosyoCd=2297100196-00&ServiceCd=720&Type=search", "url2": "http://www.ishigakinaika.jp/" }, "geometry": { "type": "Point", "coordinates": [ 137.763265, 34.7150795 ] } },
{ "type": "Feature", "properties": { "内容": "デイサービス　西山の杜【認知症対応型通所介護】西山町93番地の1", "url": "https://www.kaigokensaku.mhlw.go.jp/22/index.php?action_kouhyou_detail_004_kani=true&JigyosyoCd=2297200277-00&ServiceCd=720&Type=search", "url2": "http://www.nishiyama.or.jp/" }, "geometry": { "type": "Point", "coordinates": [ 137.692110420881249, 34.736976672430842 ] } },
{ "type": "Feature", "properties": { "内容": "デイサービスセンターなごみ【認知症対応型通所介護】浜松市中央区三方原１３８３－１地域密着型介護老人福祉施設なごみ", "url": "https://www.kaigokensaku.mhlw.go.jp/22/index.php?action_kouhyou_detail_004_kani=true&JigyosyoCd=2297200053-00&ServiceCd=720&Type=search", "url2": "http://www.nagomi.hybs.jp/" }, "geometry": { "type": "Point", "coordinates": [ 137.7107409, 34.7830449 ] } },
{ "type": "Feature", "properties": { "内容": "グループホームやまざき【認知症対応型通所介護】静岡県浜松市中央区雄踏町山崎２８２９番地", "url": "https://www.kaigokensaku.mhlw.go.jp/22/index.php?action_kouhyou_detail_004_kani=true&JigyosyoCd=2297100055-00&ServiceCd=720&Type=search", "url2": "https://www.sankoukai.or.jp/" }, "geometry": { "type": "Point", "coordinates": [ 137.627254499999964, 34.717186 ] } },
{ "type": "Feature", "properties": { "内容": "和合愛光園デイサービスセンター【認知症対応型通所介護】浜松市中央区和合町555番地", "url": "https://www.kaigokensaku.mhlw.go.jp/22/index.php?action_kouhyou_detail_004_kani=true&JigyosyoCd=2277100158-00&ServiceCd=720&Type=search", "url2": "http://www.seirei.or.jp/elderlyhome/wagou/index.html" }, "geometry": { "type": "Point", "coordinates": [ 137.701492899999948, 34.7422639 ] } },
{ "type": "Feature", "properties": { "内容": "脳リフレッシュサロン志都呂【認知症対応型通所介護】浜松市中央区志都呂１丁目５番１２号", "url": "https://www.kaigokensaku.mhlw.go.jp/22/index.php?action_kouhyou_detail_004_kani=true&JigyosyoCd=2297200129-00&ServiceCd=720&Type=search", "url2": "http://www.nouriha.jp/" }, "geometry": { "type": "Point", "coordinates": [ 137.66391509999994, 34.7002207 ] } },
{ "type": "Feature", "properties": { "内容": "グループホームデイきらら浜松【認知症対応型通所介護】浜松市中央区楊子町218番地", "url": "https://www.kaigokensaku.mhlw.go.jp/22/index.php?action_kouhyou_detail_004_kani=true&JigyosyoCd=2297201580-00&ServiceCd=720&Type=search", "url2": "http://www.kenminkouseikai.net/" }, "geometry": { "type": "Point", "coordinates": [ 137.7474704, 34.6926076 ] } },
{ "type": "Feature", "properties": { "内容": "デイサービスあおば【認知症対応型通所介護】静岡県浜松市北区三方原町70番地の10", "url": "https://www.kaigokensaku.mhlw.go.jp/22/index.php?action_kouhyou_detail_004_kani=true&JigyosyoCd=2297201135-00&ServiceCd=720&Type=search", "url2": "http://wch.co.jp" }, "geometry": { "type": "Point", "coordinates": [ 137.7179342, 34.7727635 ] } },
{ "type": "Feature", "properties": { "内容": "ニチイケアセンター浜松有玉【認知症対応型通所介護】浜松市東区有玉南町1713-4", "url": "https://www.kaigokensaku.mhlw.go.jp/22/index.php?action_kouhyou_detail_004_kani=true&JigyosyoCd=2297200095-00&ServiceCd=720&Type=search", "url2": null }, "geometry": { "type": "Point", "coordinates": [ 137.75228919999995, 34.7486753 ] } },
{ "type": "Feature", "properties": { "内容": "しんぱらの家デイサービスセンター【認知症対応型通所介護】浜松市浜名区新原4092-2", "url": "https://www.kaigokensaku.mhlw.go.jp/22/index.php?action_kouhyou_detail_004_kani=true&JigyosyoCd=2278300294-00&ServiceCd=720&Type=search", "url2": "http://www.tenryu-kohseikai.or.jp/senior/shinpara/" }, "geometry": { "type": "Point", "coordinates": [ 137.772389800000042, 34.8128108 ] } },
{ "type": "Feature", "properties": { "内容": "いなさ愛光園　デイサービスセンター【認知症対応型通所介護】浜松市浜名区引佐町東黒田37-2", "url": "https://www.kaigokensaku.mhlw.go.jp/22/index.php?action_kouhyou_detail_004_kani=true&JigyosyoCd=2278100066-00&ServiceCd=720&Type=search", "url2": "http://www.seirei.or.jp/elderlyhome/inasa" }, "geometry": { "type": "Point", "coordinates": [ 137.662730799999963, 34.8867108 ] } },
{ "type": "Feature", "properties": { "内容": "デイサービスセンター都田の里【認知症対応型通所介護】静岡県浜松市浜名区都田町9291番地の3", "url": "https://www.kaigokensaku.mhlw.go.jp/22/index.php?action_kouhyou_detail_004_kani=true&JigyosyoCd=2297200533-00&ServiceCd=720&Type=search", "url2": "https://www.siawase-k.com/" }, "geometry": { "type": "Point", "coordinates": [ 137.74272849999997, 34.8161755 ] } },
{ "type": "Feature", "properties": { "内容": "愛の家デイサービス浜松天竜【認知症対応型通所介護】静岡県浜松市天竜区山東4360－1愛の家グループホーム浜松天竜", "url": "https://www.kaigokensaku.mhlw.go.jp/22/index.php?action_kouhyou_detail_004_kani=true&JigyosyoCd=2297200350-00&ServiceCd=720&Type=search", "url2": "http://www.mcsg.co.jp" }, "geometry": { "type": "Point", "coordinates": [ 137.818945, 34.872263 ] } },
{ "type": "Feature", "properties": { "内容": "かぬきデイサービス【認知症対応型通所介護】沼津市下香貫猪沼981-2", "url": "https://www.kaigokensaku.mhlw.go.jp/22/index.php?action_kouhyou_detail_004_kani=true&JigyosyoCd=2271100097-00&ServiceCd=720&Type=search", "url2": "http://www.shinai.-kai.jp./numazuhome" }, "geometry": { "type": "Point", "coordinates": [ 138.882872300000031, 35.0814889 ] } },
{ "type": "Feature", "properties": { "内容": "はらデイサービスセンター【認知症対応型通所介護】沼津市原1200-3", "url": "https://www.kaigokensaku.mhlw.go.jp/22/index.php?action_kouhyou_detail_004_kani=true&JigyosyoCd=2271100154-00&ServiceCd=720&Type=search", "url2": "http://shunpuukai.com" }, "geometry": { "type": "Point", "coordinates": [ 138.79354520000004, 35.1294346 ] } },
{ "type": "Feature", "properties": { "内容": "あしたかホームデイサービスセンター【認知症対応型通所介護】沼津市東椎路1742番地の1", "url": "https://www.kaigokensaku.mhlw.go.jp/22/index.php?action_kouhyou_detail_004_kani=true&JigyosyoCd=2271100147-00&ServiceCd=720&Type=search", "url2": "http://www.shunpuukai.com" }, "geometry": { "type": "Point", "coordinates": [ 138.831351785705607, 35.127345255085181 ] } },
{ "type": "Feature", "properties": { "内容": "沼津フジビューデイサービスセンター【認知症対応型通所介護】沼津市大岡柏葉尾3571-1", "url": "https://www.kaigokensaku.mhlw.go.jp/22/index.php?action_kouhyou_detail_004_kani=true&JigyosyoCd=2271100030-00&ServiceCd=720&Type=search", "url2": "https://care-net.biz/22/suruga/" }, "geometry": { "type": "Point", "coordinates": [ 138.882172112164284, 35.13893545063133 ] } },
{ "type": "Feature", "properties": { "内容": "デイサービスセンターみはるの丘【認知症対応型通所介護】沼津市平沼929-1", "url": "https://www.kaigokensaku.mhlw.go.jp/22/index.php?action_kouhyou_detail_004_kani=true&JigyosyoCd=2271100972-00&ServiceCd=720&Type=search", "url2": "http://shunpuukai.com" }, "geometry": { "type": "Point", "coordinates": [ 138.781246600000031, 35.149157 ] } },
{ "type": "Feature", "properties": { "内容": "手鞠デイサービス【認知症対応型通所介護】西島町19-64", "url": "https://www.kaigokensaku.mhlw.go.jp/22/index.php?action_kouhyou_detail_004_kani=true&JigyosyoCd=2291100200-00&ServiceCd=720&Type=search", "url2": "http://yuai01.webcrow.jp/" }, "geometry": { "type": "Point", "coordinates": [ 138.864626402281459, 35.08468004281827 ] } },
{ "type": "Feature", "properties": { "内容": "ひだまりの郷　通所介護事業所　認知症対応型通所介護【認知症対応型通所介護】沼津市内浦重須624", "url": "https://www.kaigokensaku.mhlw.go.jp/22/index.php?action_kouhyou_detail_004_kani=true&JigyosyoCd=2271100113-00&ServiceCd=720&Type=search", "url2": null }, "geometry": { "type": "Point", "coordinates": [ 138.883811799999989, 35.0174992 ] } },
{ "type": "Feature", "properties": { "内容": "デイサービス山風木【認知症対応型通所介護】静岡県三島市加屋町10番地1号", "url": "https://www.kaigokensaku.mhlw.go.jp/22/index.php?action_kouhyou_detail_004_kani=true&JigyosyoCd=2290600127-00&ServiceCd=720&Type=search", "url2": "https://www.com-work.jp/yama/" }, "geometry": { "type": "Point", "coordinates": [ 138.90734139999995, 35.1166555 ] } },
{ "type": "Feature", "properties": { "内容": "デイサービス井福来【認知症対応型通所介護】静岡県三島市谷田１６０１番地の２０", "url": "https://www.kaigokensaku.mhlw.go.jp/22/index.php?action_kouhyou_detail_004_kani=true&JigyosyoCd=2290600226-00&ServiceCd=720&Type=search", "url2": "https://www.com-work.jp/ibuki/" }, "geometry": { "type": "Point", "coordinates": [ 138.93648570000002, 35.1237153 ] } },
{ "type": "Feature", "properties": { "内容": "インプルーヴ梅名の里【認知症対応型通所介護】三島市梅名５８２番地の３", "url": "https://www.kaigokensaku.mhlw.go.jp/22/index.php?action_kouhyou_detail_004_kani=true&JigyosyoCd=2270600444-00&ServiceCd=720&Type=search", "url2": "http://www.umenanosato.com/" }, "geometry": { "type": "Point", "coordinates": [ 138.9241376, 35.0974213 ] } },
{ "type": "Feature", "properties": { "内容": "デイサービスセンターヴィターレ・なないろ【認知症対応型通所介護】佐野1150番地の1", "url": "https://www.kaigokensaku.mhlw.go.jp/22/index.php?action_kouhyou_detail_004_kani=true&JigyosyoCd=2290600077-00&ServiceCd=720&Type=search", "url2": "https://www.vitale-dsv.com/" }, "geometry": { "type": "Point", "coordinates": [ 138.921542300000027, 35.1555736 ] } },
{ "type": "Feature", "properties": { "内容": "デイサービスセンター　幸の郷【認知症対応型通所介護】富士宮市安居山７９７－２", "url": "https://www.kaigokensaku.mhlw.go.jp/22/index.php?action_kouhyou_detail_004_kani=true&JigyosyoCd=2292100050-00&ServiceCd=720&Type=search", "url2": null }, "geometry": { "type": "Point", "coordinates": [ 138.5882547, 35.2147067 ] } },
{ "type": "Feature", "properties": { "内容": "檀【認知症対応型通所介護】静岡県富士宮市小泉1608-40", "url": "https://www.kaigokensaku.mhlw.go.jp/22/index.php?action_kouhyou_detail_004_kani=true&JigyosyoCd=2292100464-00&ServiceCd=720&Type=search", "url2": "https://rfc-standoff.com/" }, "geometry": { "type": "Point", "coordinates": [ 138.637385200000011, 35.2313019 ] } },
{ "type": "Feature", "properties": { "内容": "認知症対応型通所介護　結生【認知症対応型通所介護】静岡県伊東市八幡野1414", "url": "https://www.kaigokensaku.mhlw.go.jp/22/index.php?action_kouhyou_detail_004_kani=true&JigyosyoCd=2290400114-00&ServiceCd=720&Type=search", "url2": "http://medicalstarts.com/" }, "geometry": { "type": "Point", "coordinates": [ 139.094197099999974, 34.8853021 ] } },
{ "type": "Feature", "properties": { "内容": "デイサービスセンター仁【認知症対応型通所介護】静岡県伊東市静海町2番8号", "url": "https://www.kaigokensaku.mhlw.go.jp/22/index.php?action_kouhyou_detail_004_kani=true&JigyosyoCd=2290400098-00&ServiceCd=720&Type=search", "url2": null }, "geometry": { "type": "Point", "coordinates": [ 139.103057100000029, 34.9697665 ] } },
{ "type": "Feature", "properties": { "内容": "サポートハウスえん　ふれあい【認知症対応型通所介護】静岡県伊東市松原771-13", "url": "https://www.kaigokensaku.mhlw.go.jp/22/index.php?action_kouhyou_detail_004_kani=true&JigyosyoCd=2290400411-00&ServiceCd=720&Type=search", "url2": "https://www.npo-en.org" }, "geometry": { "type": "Point", "coordinates": [ 139.088802200000032, 34.9707667 ] } },
{ "type": "Feature", "properties": { "内容": "サポートハウス　えん【認知症対応型通所介護】静岡県伊東市松原771-12", "url": "https://www.kaigokensaku.mhlw.go.jp/22/index.php?action_kouhyou_detail_004_kani=true&JigyosyoCd=2290400106-00&ServiceCd=720&Type=search", "url2": "https://npo-en.org" }, "geometry": { "type": "Point", "coordinates": [ 139.089064955225354, 34.970687816611822 ] } },
{ "type": "Feature", "properties": { "内容": "愛の家デイサービス伊東南町【認知症対応型通所介護】静岡県伊東市南町1丁目4-12", "url": "https://www.kaigokensaku.mhlw.go.jp/22/index.php?action_kouhyou_detail_004_kani=true&JigyosyoCd=2290400387-00&ServiceCd=720&Type=search", "url2": null }, "geometry": { "type": "Point", "coordinates": [ 139.0907186, 34.9567108 ] } },
{ "type": "Feature", "properties": { "内容": "デイサービスセンターみぎわ園【認知症対応型通所介護】富士市今泉２２１０特別養護老人ホーム　みぎわ園　３階", "url": "https://www.kaigokensaku.mhlw.go.jp/22/index.php?action_kouhyou_detail_004_kani=true&JigyosyoCd=2272300852-00&ServiceCd=720&Type=search", "url2": "http://www.fuyoukai.org" }, "geometry": { "type": "Point", "coordinates": [ 138.686174599999958, 35.1723721 ] } },
{ "type": "Feature", "properties": { "内容": "グループホームデイきらら富士【認知症対応型通所介護】富士市一色258-47", "url": "https://www.kaigokensaku.mhlw.go.jp/22/index.php?action_kouhyou_detail_004_kani=true&JigyosyoCd=2292300742-00&ServiceCd=720&Type=search", "url2": "http://www.kenminkouseikai.net/facility/fuji/" }, "geometry": { "type": "Point", "coordinates": [ 138.6950697, 35.1905233 ] } },
{ "type": "Feature", "properties": { "内容": "なのはなデイサービスセンター【認知症対応型通所介護】静岡県富士市川成新町318番地", "url": "https://www.kaigokensaku.mhlw.go.jp/22/index.php?action_kouhyou_detail_004_kani=true&JigyosyoCd=2272300911-00&ServiceCd=720&Type=search", "url2": null }, "geometry": { "type": "Point", "coordinates": [ 138.6644182, 35.1332017 ] } },
{ "type": "Feature", "properties": { "内容": "ケアーよろこ日　ふるさと【認知症対応型通所介護】静岡県富士市久沢８６番地の１８", "url": "https://www.kaigokensaku.mhlw.go.jp/22/index.php?action_kouhyou_detail_004_kani=true&JigyosyoCd=2292300254-00&ServiceCd=720&Type=search", "url2": null }, "geometry": { "type": "Point", "coordinates": [ 138.64945560000001, 35.1803793 ] } },
{ "type": "Feature", "properties": { "内容": "ヴィラージュ富士デイサービスセンター【認知症対応型通所介護】富士市厚原359-8", "url": "https://www.kaigokensaku.mhlw.go.jp/22/index.php?action_kouhyou_detail_004_kani=true&JigyosyoCd=2272300977-00&ServiceCd=720&Type=search", "url2": "http://www.syuuseikai.or.jp/facility04/" }, "geometry": { "type": "Point", "coordinates": [ 138.6572846, 35.1801461 ] } },
{ "type": "Feature", "properties": { "内容": "コミュニティー倶楽部　こみち学院【認知症対応型通所介護】静岡県富士市吉原5丁目9-10", "url": "https://www.kaigokensaku.mhlw.go.jp/22/index.php?action_kouhyou_detail_004_kani=true&JigyosyoCd=2292300346-00&ServiceCd=720&Type=search", "url2": "https://www.day-komichi.com/" }, "geometry": { "type": "Point", "coordinates": [ 138.680600028224347, 35.167123211362437 ] } },
{ "type": "Feature", "properties": { "内容": "デイサービスセンターなかざと【認知症対応型通所介護】富士市中里２５９３－５", "url": "https://www.kaigokensaku.mhlw.go.jp/22/index.php?action_kouhyou_detail_004_kani=true&JigyosyoCd=2292300080-00&ServiceCd=720&Type=search", "url2": "http://www.fujikoseikai.or.jp" }, "geometry": { "type": "Point", "coordinates": [ 138.742313500000023, 35.142282 ] } },
{ "type": "Feature", "properties": { "内容": "オアシスデイサービスセンター【認知症対応型通所介護】富士市比奈字一町六反１５９番２１", "url": "https://www.kaigokensaku.mhlw.go.jp/22/index.php?action_kouhyou_detail_004_kani=true&JigyosyoCd=2272300035-00&ServiceCd=720&Type=search", "url2": null }, "geometry": { "type": "Point", "coordinates": [ 138.721669134979265, 35.164129342240678 ] } },
{ "type": "Feature", "properties": { "内容": "デイサービスセンター美原【認知症対応型通所介護】富士市伝法３２７－１", "url": "https://www.kaigokensaku.mhlw.go.jp/22/index.php?action_kouhyou_detail_004_kani=true&JigyosyoCd=2272300100-00&ServiceCd=720&Type=search", "url2": "https://www.syuuseikai.or.jp/" }, "geometry": { "type": "Point", "coordinates": [ 138.676764100000014, 35.1826681 ] } },
{ "type": "Feature", "properties": { "内容": "えいせいデイサービス　めぐみ【認知症対応型通所介護】加茂1242番1", "url": "https://www.kaigokensaku.mhlw.go.jp/22/index.php?action_kouhyou_detail_004_kani=true&JigyosyoCd=2296900042-00&ServiceCd=720&Type=search", "url2": "http://keiseikai.org" }, "geometry": { "type": "Point", "coordinates": [ 137.820172312226902, 34.738508940000806 ] } },
{ "type": "Feature", "properties": { "内容": "共用型デイサービスごんべえ【認知症対応型通所介護】静岡県焼津市塩津135-1", "url": "https://www.kaigokensaku.mhlw.go.jp/22/index.php?action_kouhyou_detail_004_kani=true&JigyosyoCd=2295100172-00&ServiceCd=720&Type=search", "url2": "https://www.gonbee.info/" }, "geometry": { "type": "Point", "coordinates": [ 138.309957200000014, 34.8666413 ] } },
{ "type": "Feature", "properties": { "内容": "デイサービスセンター嬰聚【認知症対応型通所介護】焼津市大島649", "url": "https://www.kaigokensaku.mhlw.go.jp/22/index.php?action_kouhyou_detail_004_kani=true&JigyosyoCd=2295100081-00&ServiceCd=720&Type=search", "url2": "eiikukai.jp/" }, "geometry": { "type": "Point", "coordinates": [ 138.2822261, 34.8214597 ] } },
{ "type": "Feature", "properties": { "内容": "わかくさ焼津デイサービス【認知症対応型通所介護】焼津市焼津6丁目7-38", "url": "https://www.kaigokensaku.mhlw.go.jp/22/index.php?action_kouhyou_detail_004_kani=true&JigyosyoCd=2275100358-00&ServiceCd=720&Type=search", "url2": null }, "geometry": { "type": "Point", "coordinates": [ 138.3188427, 34.8658898 ] } },
{ "type": "Feature", "properties": { "内容": "高麓デイサービスセンターきすみれ【認知症対応型通所介護】静岡県焼津市坂本385番地の1", "url": "https://www.kaigokensaku.mhlw.go.jp/22/index.php?action_kouhyou_detail_004_kani=true&JigyosyoCd=2275100549-00&ServiceCd=720&Type=search", "url2": "http//www.kouroku.com" }, "geometry": { "type": "Point", "coordinates": [ 138.3095679, 34.89103260000001 ] } },
{ "type": "Feature", "properties": { "内容": "ふじトピア認知症対応型通所介護事業所【認知症対応型通所介護】藤枝市時ヶ谷417番地2", "url": "https://www.kaigokensaku.mhlw.go.jp/22/index.php?action_kouhyou_detail_004_kani=true&JigyosyoCd=2275300206-00&ServiceCd=720&Type=search", "url2": "https://fujitopia.jp/" }, "geometry": { "type": "Point", "coordinates": [ 138.258649900000023, 34.8858675 ] } },
{ "type": "Feature", "properties": { "内容": "御殿場十字の園通所介護センターふじざくら【認知症対応型通所介護】御殿場市深沢1465-1", "url": "https://www.kaigokensaku.mhlw.go.jp/22/index.php?action_kouhyou_detail_004_kani=true&JigyosyoCd=2271200053-00&ServiceCd=720&Type=search", "url2": "http://www.jyuji.or.jp/" }, "geometry": { "type": "Point", "coordinates": [ 138.959625299999971, 35.3122431 ] } },
{ "type": "Feature", "properties": { "内容": "愛の家ディサービス袋井【認知症対応型通所介護】静岡県袋井市堀越2-14-1", "url": "https://www.kaigokensaku.mhlw.go.jp/22/index.php?action_kouhyou_detail_004_kani=true&JigyosyoCd=2297300028-00&ServiceCd=720&Type=search", "url2": null }, "geometry": { "type": "Point", "coordinates": [ 137.910401400000012, 34.7522632 ] } },
{ "type": "Feature", "properties": { "内容": "デイサービス夕凪【認知症対応型通所介護】静岡県下田市二丁目11-29", "url": "https://www.kaigokensaku.mhlw.go.jp/22/index.php?action_kouhyou_detail_004_kani=true&JigyosyoCd=2290200050-00&ServiceCd=720&Type=search", "url2": "https://kenshinkai.group/" }, "geometry": { "type": "Point", "coordinates": [ -8.24389, 53.41291 ] } },
{ "type": "Feature", "properties": { "内容": "デイサービスセンター金沢いきいきホーム【認知症対応型通所介護】静岡県裾野市金沢582-3", "url": "https://www.kaigokensaku.mhlw.go.jp/22/index.php?action_kouhyou_detail_004_kani=true&JigyosyoCd=2291400071-00&ServiceCd=720&Type=search", "url2": "http://www.syakyo-susono.or.jp/" }, "geometry": { "type": "Point", "coordinates": [ 138.90487730000001, 35.2174896 ] } },
{ "type": "Feature", "properties": { "内容": "老人デイサービスセンター光湖苑【認知症対応型通所介護】静岡県湖西市吉美字筒川3294-344", "url": "https://www.kaigokensaku.mhlw.go.jp/22/index.php?action_kouhyou_detail_004_kani=true&JigyosyoCd=2278400011-00&ServiceCd=720&Type=search", "url2": "https://m-hamanakokai.jp/" }, "geometry": { "type": "Point", "coordinates": [ 137.50126709999995, 34.7158398 ] } },
{ "type": "Feature", "properties": { "内容": "池新田デイサービスセンター【認知症対応型通所介護】御前崎市池新田4089", "url": "https://www.kaigokensaku.mhlw.go.jp/22/index.php?action_kouhyou_detail_004_kani=true&JigyosyoCd=2276100118-00&ServiceCd=720&Type=search", "url2": "http://www/san-ikukai.or.jp/" }, "geometry": { "type": "Point", "coordinates": [ 138.131673699999965, 34.6414085 ] } },
{ "type": "Feature", "properties": { "内容": "佐倉デイサービスセンター【認知症対応型通所介護】御前崎市宮内７０", "url": "https://www.kaigokensaku.mhlw.go.jp/22/index.php?action_kouhyou_detail_004_kani=true&JigyosyoCd=2275690101-00&ServiceCd=720&Type=search", "url2": "http://www.san-ikukai.or.jp/" }, "geometry": { "type": "Point", "coordinates": [ 138.163590200000044, 34.6366017 ] } },
{ "type": "Feature", "properties": { "内容": "和松会　デイサービスセンター【認知症対応型通所介護】菊川市猿渡258-1", "url": "https://www.kaigokensaku.mhlw.go.jp/22/index.php?action_kouhyou_detail_004_kani=true&JigyosyoCd=2276100142-00&ServiceCd=720&Type=search", "url2": "https://washoukai.or.jp/" }, "geometry": { "type": "Point", "coordinates": [ 138.10548760000006, 34.7032132 ] } },
{ "type": "Feature", "properties": { "内容": "いちごの里デイサービスセンター【認知症対応型通所介護】伊豆の国市北江間４５－１", "url": "https://www.kaigokensaku.mhlw.go.jp/22/index.php?action_kouhyou_detail_004_kani=true&JigyosyoCd=2270300474-00&ServiceCd=720&Type=search", "url2": "http://www.wbs.ne.jp./bt/ayamekai/" }, "geometry": { "type": "Point", "coordinates": [ 138.932420500000035, 35.0579124 ] } },
{ "type": "Feature", "properties": { "内容": "はぎまデイサービスセンター【認知症対応型通所介護】牧之原市西萩間６９５－６", "url": "https://www.kaigokensaku.mhlw.go.jp/22/index.php?action_kouhyou_detail_004_kani=true&JigyosyoCd=2275500425-00&ServiceCd=720&Type=search", "url2": "https://www.san-ikukai.or.jp/tokai/sagara/" }, "geometry": { "type": "Point", "coordinates": [ 138.155801099999962, 34.7346175 ] } },
{ "type": "Feature", "properties": { "内容": "まるにデイサービス【認知症対応型通所介護】牧之原市勝俣1265-1", "url": "https://www.kaigokensaku.mhlw.go.jp/22/index.php?action_kouhyou_detail_004_kani=true&JigyosyoCd=2295800011-00&ServiceCd=720&Type=search", "url2": "http://circle-2.info/" }, "geometry": { "type": "Point", "coordinates": [ 138.210096780728918, 34.743586167052314 ] } },
{ "type": "Feature", "properties": { "内容": "デイサービスセンター　すずらん【認知症対応型通所介護】静岡県牧之原市坂部5623番地1", "url": "https://www.kaigokensaku.mhlw.go.jp/22/index.php?action_kouhyou_detail_004_kani=true&JigyosyoCd=2295800086-00&ServiceCd=720&Type=search", "url2": "http://www.yamabatogakuen.jp/dc_suzuran.html" }, "geometry": { "type": "Point", "coordinates": [ 138.195739499999945, 34.7781567 ] } },
{ "type": "Feature", "properties": { "内容": "湯ヶ岡の郷　認知症対応型通所介護事業所【認知症対応型通所介護】静岡県賀茂郡東伊豆町白田１２００", "url": "https://www.kaigokensaku.mhlw.go.jp/22/index.php?action_kouhyou_detail_004_kani=true&JigyosyoCd=2270100023-00&ServiceCd=720&Type=search", "url2": "http://yugaokanosato.jp" }, "geometry": { "type": "Point", "coordinates": [ 139.040576500000071, 34.808521 ] } },
{ "type": "Feature", "properties": { "内容": "共用型デイサービス　ル・ソレイユ函南【認知症対応型通所介護】静岡県田方郡函南町間宮760-1", "url": "https://www.kaigokensaku.mhlw.go.jp/22/index.php?action_kouhyou_detail_004_kani=true&JigyosyoCd=2290300058-00&ServiceCd=720&Type=search", "url2": "http://care-soleil.com/company.html" }, "geometry": { "type": "Point", "coordinates": [ 138.942781700000012, 35.0845546 ] } },
{ "type": "Feature", "properties": { "内容": "グループホーム　ル・ソレイユ間宮【認知症対応型通所介護】静岡県田方郡函南町間宮６１７－３", "url": "https://www.kaigokensaku.mhlw.go.jp/22/index.php?action_kouhyou_detail_004_kani=true&JigyosyoCd=2290300017-00&ServiceCd=720&Type=search", "url2": "http://care-soleil.com/" }, "geometry": { "type": "Point", "coordinates": [ 138.940383699999984, 35.0784323 ] } },
{ "type": "Feature", "properties": { "内容": "はあとデイサービスセンター【認知症対応型通所介護】静岡県駿東郡小山町須走354-5", "url": "https://www.kaigokensaku.mhlw.go.jp/22/index.php?action_kouhyou_detail_004_kani=true&JigyosyoCd=2291300115-00&ServiceCd=720&Type=search", "url2": null }, "geometry": { "type": "Point", "coordinates": [ 138.864939264418012, 35.357630674695294 ] } },
{ "type": "Feature", "properties": { "内容": "吉田町デイサービス　ひまわりの家【認知症対応型通所介護】静岡県榛原郡吉田町片岡2002-2", "url": "https://www.kaigokensaku.mhlw.go.jp/22/index.php?action_kouhyou_detail_004_kani=true&JigyosyoCd=2295500058-00&ServiceCd=720&Type=search", "url2": "http://www.s-suginoko.or.jp/" }, "geometry": { "type": "Point", "coordinates": [ 138.255762299999986, 34.7722223 ] } }
]
}
