{
"type": "FeatureCollection",
"name": "geo_22_小規模多機能型居宅介護",
"crs": { "type": "name", "properties": { "name": "urn:ogc:def:crs:OGC:1.3:CRS84" } },
"features": [
{ "type": "Feature", "properties": { "内容": "小規模多機能ホーム西草深【小規模多機能型居宅介護】静岡市葵区西草深町６－１７", "url": "https://www.kaigokensaku.mhlw.go.jp/22/index.php?action_kouhyou_detail_004_kani=true&JigyosyoCd=2294200197-00&ServiceCd=730&Type=search", "url2": "http://sunpuaoikai.or.jp/" }, "geometry": { "type": "Point", "coordinates": [ 138.378848599999969, 34.9811919 ] } },
{ "type": "Feature", "properties": { "内容": "アンビエスタ【小規模多機能型居宅介護】静岡市葵区松野1358番地", "url": "https://www.kaigokensaku.mhlw.go.jp/22/index.php?action_kouhyou_detail_004_kani=true&JigyosyoCd=2294201187-00&ServiceCd=730&Type=search", "url2": "www.ambiesta.com" }, "geometry": { "type": "Point", "coordinates": [ 138.368128, 35.0859065 ] } },
{ "type": "Feature", "properties": { "内容": "小規模多機能　そよかぜタンポポの家【小規模多機能型居宅介護】静岡県静岡市葵区上伝馬32-11", "url": "https://www.kaigokensaku.mhlw.go.jp/22/index.php?action_kouhyou_detail_004_kani=true&JigyosyoCd=2294202086-00&ServiceCd=730&Type=search", "url2": "http://www.foryou-s.jp/" }, "geometry": { "type": "Point", "coordinates": [ 138.373646399999984, 35.0153387 ] } },
{ "type": "Feature", "properties": { "内容": "アゴーラしずはた【小規模多機能型居宅介護】静岡県静岡市葵区与一3丁目4-52", "url": "https://www.kaigokensaku.mhlw.go.jp/22/index.php?action_kouhyou_detail_004_kani=true&JigyosyoCd=2294201427-00&ServiceCd=730&Type=search", "url2": "http://agora-shizuhata.com/" }, "geometry": { "type": "Point", "coordinates": [ 138.368692890074158, 35.010690963409928 ] } },
{ "type": "Feature", "properties": { "内容": "小規模多機能型居宅介護　まごころの家＊番町【小規模多機能型居宅介護】静岡県静岡市葵区四番町9-20", "url": "https://www.kaigokensaku.mhlw.go.jp/22/index.php?action_kouhyou_detail_004_kani=true&JigyosyoCd=2294203126-00&ServiceCd=730&Type=search", "url2": "https://magokorokaigo.com/" }, "geometry": { "type": "Point", "coordinates": [ 138.371193922779781, 34.973939359871736 ] } },
{ "type": "Feature", "properties": { "内容": "アクタガワ　ハートライフ千代田【小規模多機能型居宅介護】千代田6-14-4", "url": "https://www.kaigokensaku.mhlw.go.jp/22/index.php?action_kouhyou_detail_004_kani=true&JigyosyoCd=2294201195-00&ServiceCd=730&Type=search", "url2": "https://www.akutagawa-heartlife.jp" }, "geometry": { "type": "Point", "coordinates": [ 135.423429199999987, 34.5174644 ] } },
{ "type": "Feature", "properties": { "内容": "まはえ瀬名花壇　小規模多機能型居宅介護事業所【小規模多機能型居宅介護】静岡県静岡市葵区瀬名中央3丁目5番17号まはえ瀬名花壇", "url": "https://www.kaigokensaku.mhlw.go.jp/22/index.php?action_kouhyou_detail_004_kani=true&JigyosyoCd=2294201328-00&ServiceCd=730&Type=search", "url2": "http://www.senakadan.jp" }, "geometry": { "type": "Point", "coordinates": [ 138.422453174205003, 35.009529474692499 ] } },
{ "type": "Feature", "properties": { "内容": "小規模多機能ホーム　みのり【小規模多機能型居宅介護】静岡県静岡市葵区城東町34－14城東コミュニティープラザHapiSpo　2階", "url": "https://www.kaigokensaku.mhlw.go.jp/22/index.php?action_kouhyou_detail_004_kani=true&JigyosyoCd=2294201526-00&ServiceCd=730&Type=search", "url2": "http://www.marikonosato.org" }, "geometry": { "type": "Point", "coordinates": [ 138.390464100000031, 34.9849998 ] } },
{ "type": "Feature", "properties": { "内容": "小規模多機能ホームやまや【小規模多機能型居宅介護】静岡県静岡市葵区山崎一丁目20番７", "url": "https://www.kaigokensaku.mhlw.go.jp/22/index.php?action_kouhyou_detail_004_kani=true&JigyosyoCd=2294201922-00&ServiceCd=730&Type=search", "url2": "www.yamayacns.com" }, "geometry": { "type": "Point", "coordinates": [ 138.354145499999959, 34.9752759 ] } },
{ "type": "Feature", "properties": { "内容": "セントケア東千代田【小規模多機能型居宅介護】東千代田1-9-28", "url": "https://www.kaigokensaku.mhlw.go.jp/22/index.php?action_kouhyou_detail_004_kani=true&JigyosyoCd=2294202003-00&ServiceCd=730&Type=search", "url2": "http://www.saint-care.com/" }, "geometry": { "type": "Point", "coordinates": [ 138.409761900000035, 35.0007179 ] } },
{ "type": "Feature", "properties": { "内容": "小規模多機能型居宅介護　つぐみ新伝馬【小規模多機能型居宅介護】静岡県静岡市葵区新伝馬3丁目11-11", "url": "https://www.kaigokensaku.mhlw.go.jp/22/index.php?action_kouhyou_detail_004_kani=true&JigyosyoCd=2294202243-00&ServiceCd=730&Type=search", "url2": "https://tsugumi-shizuoka.jp" }, "geometry": { "type": "Point", "coordinates": [ 138.3674806, 35.0013062 ] } },
{ "type": "Feature", "properties": { "内容": "小規模多機能ホームやまや柳町【小規模多機能型居宅介護】柳町167－1", "url": "https://www.kaigokensaku.mhlw.go.jp/22/index.php?action_kouhyou_detail_004_kani=true&JigyosyoCd=2294202524-00&ServiceCd=730&Type=search", "url2": "www.yamayacns.com" }, "geometry": { "type": "Point", "coordinates": [ 138.253332499999971, 36.4065026 ] } },
{ "type": "Feature", "properties": { "内容": "ケアホームかのん【小規模多機能型居宅介護】静岡県静岡市葵区羽鳥7丁目15-40", "url": "https://www.kaigokensaku.mhlw.go.jp/22/index.php?action_kouhyou_detail_004_kani=true&JigyosyoCd=2294202656-00&ServiceCd=730&Type=search", "url2": "https://sunpuaoikai.or.jp/" }, "geometry": { "type": "Point", "coordinates": [ 138.328470933299798, 34.991311855278205 ] } },
{ "type": "Feature", "properties": { "内容": "アクタガワ　ハートフルホーム城北【小規模多機能型居宅介護】静岡市葵区池ヶ谷６－２０", "url": "https://www.kaigokensaku.mhlw.go.jp/22/index.php?action_kouhyou_detail_004_kani=true&JigyosyoCd=2294200015-00&ServiceCd=730&Type=search", "url2": "https://www.akutagawa-heartlife.jp" }, "geometry": { "type": "Point", "coordinates": [ 138.384111399999938, 35.0073582 ] } },
{ "type": "Feature", "properties": { "内容": "アクタガワ　ハートフルホーム西奈【小規模多機能型居宅介護】静岡市葵区瀬名中央一丁目４番３号", "url": "https://www.kaigokensaku.mhlw.go.jp/22/index.php?action_kouhyou_detail_004_kani=true&JigyosyoCd=2294200874-00&ServiceCd=730&Type=search", "url2": "https://www.akutagawa-heartlife.jp" }, "geometry": { "type": "Point", "coordinates": [ 138.421221899999978, 35.0069564 ] } },
{ "type": "Feature", "properties": { "内容": "小規模多機能型居宅介護施設あいの街東新田【小規模多機能型居宅介護】静岡市駿河区東新田4丁目16－2", "url": "https://www.kaigokensaku.mhlw.go.jp/22/index.php?action_kouhyou_detail_004_kani=true&JigyosyoCd=2294200049-00&ServiceCd=730&Type=search", "url2": null }, "geometry": { "type": "Point", "coordinates": [ 138.375058399999944, 34.9438825 ] } },
{ "type": "Feature", "properties": { "内容": "小規模多機能ホーム　丸子の里　和るつ【小規模多機能型居宅介護】静岡市駿河区丸子5592番地", "url": "https://www.kaigokensaku.mhlw.go.jp/22/index.php?action_kouhyou_detail_004_kani=true&JigyosyoCd=2294200379-00&ServiceCd=730&Type=search", "url2": "http://www.marikonosato.org" }, "geometry": { "type": "Point", "coordinates": [ 138.328982200000041, 34.9464758 ] } },
{ "type": "Feature", "properties": { "内容": "アクタガワ　ハートライフ小鹿公園前【小規模多機能型居宅介護】小鹿９２７番ー１", "url": "https://www.kaigokensaku.mhlw.go.jp/22/index.php?action_kouhyou_detail_004_kani=true&JigyosyoCd=2294201021-00&ServiceCd=730&Type=search", "url2": "https://www.akutagawa-heartlife.jp" }, "geometry": { "type": "Point", "coordinates": [ 138.425911300000053, 34.9728105 ] } },
{ "type": "Feature", "properties": { "内容": "スイートシャワー丸子【小規模多機能型居宅介護】丸子３丁目１２-５６", "url": "https://www.kaigokensaku.mhlw.go.jp/22/index.php?action_kouhyou_detail_004_kani=true&JigyosyoCd=2294201435-00&ServiceCd=730&Type=search", "url2": "https://www.ikiyo.co.jp" }, "geometry": { "type": "Point", "coordinates": [ 138.3511744, 34.946507 ] } },
{ "type": "Feature", "properties": { "内容": "まごころの家＊馬渕【小規模多機能型居宅介護】静岡県静岡市駿河区馬渕4丁目4番20スラージュ馬渕", "url": "https://www.kaigokensaku.mhlw.go.jp/22/index.php?action_kouhyou_detail_004_kani=true&JigyosyoCd=2294201567-00&ServiceCd=730&Type=search", "url2": "http://www.magokorokaigo.com/" }, "geometry": { "type": "Point", "coordinates": [ 138.393024993917805, 34.960467008763324 ] } },
{ "type": "Feature", "properties": { "内容": "小規模多機能型居宅介護施設　つぐみ下島【小規模多機能型居宅介護】静岡県静岡市駿河区下島447－2", "url": "https://www.kaigokensaku.mhlw.go.jp/22/index.php?action_kouhyou_detail_004_kani=true&JigyosyoCd=2294201666-00&ServiceCd=730&Type=search", "url2": "http://carepIan293.wix.coｍ/faｍiyu" }, "geometry": { "type": "Point", "coordinates": [ 138.407944300000054, 34.9466795 ] } },
{ "type": "Feature", "properties": { "内容": "スイートシャワー大谷【小規模多機能型居宅介護】静岡県静岡市駿河区大谷406-2スイートシャワー大谷", "url": "https://www.kaigokensaku.mhlw.go.jp/22/index.php?action_kouhyou_detail_004_kani=true&JigyosyoCd=2294201849-00&ServiceCd=730&Type=search", "url2": "https://www.ikiyo.co.jp" }, "geometry": { "type": "Point", "coordinates": [ 138.423793294733997, 34.968193748153602 ] } },
{ "type": "Feature", "properties": { "内容": "小規模多機能むさしや【小規模多機能型居宅介護】静岡県静岡市駿河区向手越一丁目10-35", "url": "https://www.kaigokensaku.mhlw.go.jp/22/index.php?action_kouhyou_detail_004_kani=true&JigyosyoCd=2294201906-00&ServiceCd=730&Type=search", "url2": "http://kaigomusashiya.com/" }, "geometry": { "type": "Point", "coordinates": [ 138.360921528588818, 34.951310685881865 ] } },
{ "type": "Feature", "properties": { "内容": "小規模多機能ホーム　樹【小規模多機能型居宅介護】静岡市駿河区国吉田6丁目2-2", "url": "https://www.kaigokensaku.mhlw.go.jp/22/index.php?action_kouhyou_detail_004_kani=true&JigyosyoCd=2294202169-00&ServiceCd=730&Type=search", "url2": "http//sakura-brain.sakura.ne.jp" }, "geometry": { "type": "Point", "coordinates": [ 138.436124100000029, 34.9864702 ] } },
{ "type": "Feature", "properties": { "内容": "小規模多機能ホーム丸子の里　和はは【小規模多機能型居宅介護】静岡県静岡市駿河区みずほ二丁目12-7コミュニティパークみずほ", "url": "https://www.kaigokensaku.mhlw.go.jp/22/index.php?action_kouhyou_detail_004_kani=true&JigyosyoCd=2294202235-00&ServiceCd=730&Type=search", "url2": null }, "geometry": { "type": "Point", "coordinates": [ 138.36901290000003, 34.9407564 ] } },
{ "type": "Feature", "properties": { "内容": "小規模多機能型居宅介護施設あいの街高松【小規模多機能型居宅介護】静岡市駿河区高松1-17-1", "url": "https://www.kaigokensaku.mhlw.go.jp/22/index.php?action_kouhyou_detail_004_kani=true&JigyosyoCd=2294202250-00&ServiceCd=730&Type=search", "url2": "https://www.aicare.co.jp/" }, "geometry": { "type": "Point", "coordinates": [ 138.417583299999933, 34.9579498 ] } },
{ "type": "Feature", "properties": { "内容": "小規模多機能型居宅介護かわせみ【小規模多機能型居宅介護】静岡県静岡市駿河区豊田一丁目4番45号", "url": "https://www.kaigokensaku.mhlw.go.jp/22/index.php?action_kouhyou_detail_004_kani=true&JigyosyoCd=2294201815-00&ServiceCd=730&Type=search", "url2": "http://www.kaishou.or.jp/kawasemi/" }, "geometry": { "type": "Point", "coordinates": [ 138.411135573848838, 34.971708070616884 ] } },
{ "type": "Feature", "properties": { "内容": "アクタガワ　ハートフルホーム八幡【小規模多機能型居宅介護】静岡市駿河区有東２－１２－１０", "url": "https://www.kaigokensaku.mhlw.go.jp/22/index.php?action_kouhyou_detail_004_kani=true&JigyosyoCd=2294200171-00&ServiceCd=730&Type=search", "url2": "https://www.akutagawa-heartlife.jp" }, "geometry": { "type": "Point", "coordinates": [ 138.407304899999986, 34.9646054 ] } },
{ "type": "Feature", "properties": { "内容": "セントケア八坂東【小規模多機能型居宅介護】静岡県静岡市清水区八坂東2丁目7番1号", "url": "https://www.kaigokensaku.mhlw.go.jp/22/index.php?action_kouhyou_detail_004_kani=true&JigyosyoCd=2294201559-00&ServiceCd=730&Type=search", "url2": "http://www.saint-care.com/" }, "geometry": { "type": "Point", "coordinates": [ 138.478841800000026, 35.0349492 ] } },
{ "type": "Feature", "properties": { "内容": "小規模多機能ひなたぼっこ押切【小規模多機能型居宅介護】静岡県静岡市清水区押切1621-2", "url": "https://www.kaigokensaku.mhlw.go.jp/22/index.php?action_kouhyou_detail_004_kani=true&JigyosyoCd=2294202896-00&ServiceCd=730&Type=search", "url2": null }, "geometry": { "type": "Point", "coordinates": [ 138.4553651, 35.0295365 ] } },
{ "type": "Feature", "properties": { "内容": "まごころの家＊川原町【小規模多機能型居宅介護】静岡県静岡市清水区川原町10-20", "url": "https://www.kaigokensaku.mhlw.go.jp/22/index.php?action_kouhyou_detail_004_kani=true&JigyosyoCd=2294200692-00&ServiceCd=730&Type=search", "url2": "http://www.magokorokaigo.com/service.html" }, "geometry": { "type": "Point", "coordinates": [ 138.4764374, 35.0020253 ] } },
{ "type": "Feature", "properties": { "内容": "小規模多機能ホームそな～れ【小規模多機能型居宅介護】静岡市清水区三保1598番地の14", "url": "https://www.kaigokensaku.mhlw.go.jp/22/index.php?action_kouhyou_detail_004_kani=true&JigyosyoCd=2294200932-00&ServiceCd=730&Type=search", "url2": "http;//sona-re.net" }, "geometry": { "type": "Point", "coordinates": [ 138.522213, 34.9997203 ] } },
{ "type": "Feature", "properties": { "内容": "小規模多機能型居宅介護事業所つぐみ【小規模多機能型居宅介護】八坂北2丁目20－25", "url": "https://www.kaigokensaku.mhlw.go.jp/22/index.php?action_kouhyou_detail_004_kani=true&JigyosyoCd=2294201252-00&ServiceCd=730&Type=search", "url2": "https://tsugumi-shizuoka.jp" }, "geometry": { "type": "Point", "coordinates": [ 138.472816091540494, 35.037343294376925 ] } },
{ "type": "Feature", "properties": { "内容": "小規模多機能型居宅介護事業所つぐみ押切【小規模多機能型居宅介護】静岡県静岡市清水区押切2119-1", "url": "https://www.kaigokensaku.mhlw.go.jp/22/index.php?action_kouhyou_detail_004_kani=true&JigyosyoCd=2294201393-00&ServiceCd=730&Type=search", "url2": "https://tsugumi-shizuoka.jp" }, "geometry": { "type": "Point", "coordinates": [ 138.4535247, 35.0327404 ] } },
{ "type": "Feature", "properties": { "内容": "小規模多機能型居宅介護施設　あいの街袖師【小規模多機能型居宅介護】静岡県静岡市清水区袖師町141-1", "url": "https://www.kaigokensaku.mhlw.go.jp/22/index.php?action_kouhyou_detail_004_kani=true&JigyosyoCd=2294201773-00&ServiceCd=730&Type=search", "url2": null }, "geometry": { "type": "Point", "coordinates": [ 138.4870105, 35.0390934 ] } },
{ "type": "Feature", "properties": { "内容": "小規模多機能ホーム　おきつのつどい【小規模多機能型居宅介護】静岡県静岡市清水区興津中町1134-11Ｆ", "url": "https://www.kaigokensaku.mhlw.go.jp/22/index.php?action_kouhyou_detail_004_kani=true&JigyosyoCd=2294201989-00&ServiceCd=730&Type=search", "url2": "https://sunpuaoikai.or.jp/okitsu/" }, "geometry": { "type": "Point", "coordinates": [ 138.526956, 35.0585746 ] } },
{ "type": "Feature", "properties": { "内容": "アクタガワ　ハートフルホーム有東坂【小規模多機能型居宅介護】静岡市清水区有東坂一丁目２２４－４５", "url": "https://www.kaigokensaku.mhlw.go.jp/22/index.php?action_kouhyou_detail_004_kani=true&JigyosyoCd=2294200841-00&ServiceCd=730&Type=search", "url2": "https://www.akutagawa-heartlife.jp" }, "geometry": { "type": "Point", "coordinates": [ 138.4679519, 35.0091826 ] } },
{ "type": "Feature", "properties": { "内容": "佐鳴湖畔ケアホーム【小規模多機能型居宅介護】浜松市中区富塚町２２８２－８", "url": "https://www.kaigokensaku.mhlw.go.jp/22/index.php?action_kouhyou_detail_004_kani=true&JigyosyoCd=2297100089-00&ServiceCd=730&Type=search", "url2": "http://sanaru-lifecare.opal.ne.jp/" }, "geometry": { "type": "Point", "coordinates": [ 137.694505599999957, 34.7209857 ] } },
{ "type": "Feature", "properties": { "内容": "小規模多機能型居宅介護施設あいの街高丘サテライト【小規模多機能型居宅介護】浜松市中区高丘北一丁目43-43", "url": "https://www.kaigokensaku.mhlw.go.jp/22/index.php?action_kouhyou_detail_004_kani=true&JigyosyoCd=2297201333-00&ServiceCd=730&Type=search", "url2": null }, "geometry": { "type": "Point", "coordinates": [ 137.7093848, 34.7638298 ] } },
{ "type": "Feature", "properties": { "内容": "なごみの家【小規模多機能型居宅介護】静岡県浜松市中央区若林町４５", "url": "https://www.kaigokensaku.mhlw.go.jp/22/index.php?action_kouhyou_detail_004_kani=true&JigyosyoCd=2297100311-00&ServiceCd=730&Type=search", "url2": "http://www.hikarinosono.or.jp" }, "geometry": { "type": "Point", "coordinates": [ 137.7004538, 34.6875259 ] } },
{ "type": "Feature", "properties": { "内容": "るぴなすはうす【小規模多機能型居宅介護】静岡県浜松市西区西鴨江町254-1", "url": "https://www.kaigokensaku.mhlw.go.jp/22/index.php?action_kouhyou_detail_004_kani=true&JigyosyoCd=2297100188-00&ServiceCd=730&Type=search", "url2": "http://rupinus.jp/" }, "geometry": { "type": "Point", "coordinates": [ 137.666142600000057, 34.7024983 ] } },
{ "type": "Feature", "properties": { "内容": "まなハウス【小規模多機能型居宅介護】浜松市中央区曳馬三丁目３９番２２号", "url": "https://www.kaigokensaku.mhlw.go.jp/22/index.php?action_kouhyou_detail_004_kani=true&JigyosyoCd=2297100139-00&ServiceCd=730&Type=search", "url2": "http://kanan053.com/" }, "geometry": { "type": "Point", "coordinates": [ 137.74583789999997, 34.728071800000016 ] } },
{ "type": "Feature", "properties": { "内容": "多機能ホームながつる【小規模多機能型居宅介護】長鶴町２４９", "url": "https://www.kaigokensaku.mhlw.go.jp/22/index.php?action_kouhyou_detail_004_kani=true&JigyosyoCd=2297200574-00&ServiceCd=730&Type=search", "url2": "https://www.nagatsuru.com/" }, "geometry": { "type": "Point", "coordinates": [ 137.77928309999993, 34.7136751 ] } },
{ "type": "Feature", "properties": { "内容": "つどいの家たんぽぽ【小規模多機能型居宅介護】静岡県浜松市南区高塚町1824-2", "url": "https://www.kaigokensaku.mhlw.go.jp/22/index.php?action_kouhyou_detail_004_kani=true&JigyosyoCd=2297200228-00&ServiceCd=730&Type=search", "url2": "www./tsudoi-tanpopo.net/" }, "geometry": { "type": "Point", "coordinates": [ 137.676881044783073, 34.692691219335309 ] } },
{ "type": "Feature", "properties": { "内容": "ありがとう浜松南の家【小規模多機能型居宅介護】静岡県浜松市中央区三和町636-1ありがとう浜松南の家", "url": "https://www.kaigokensaku.mhlw.go.jp/22/index.php?action_kouhyou_detail_004_kani=true&JigyosyoCd=2297200244-00&ServiceCd=730&Type=search", "url2": "https://ariga10hamamatsuminami.jimdofree.com/" }, "geometry": { "type": "Point", "coordinates": [ 137.7707186, 34.7018273 ] } },
{ "type": "Feature", "properties": { "内容": "いろどり篠ケ瀬【小規模多機能型居宅介護】篠ケ瀬町1205", "url": "https://www.kaigokensaku.mhlw.go.jp/22/index.php?action_kouhyou_detail_004_kani=true&JigyosyoCd=2297201465-00&ServiceCd=730&Type=search", "url2": "https://earth-group.co.jp/services/irodori-sasagase/" }, "geometry": { "type": "Point", "coordinates": [ 137.7778248, 34.7238521 ] } },
{ "type": "Feature", "properties": { "内容": "小規模多機能型居宅介護施設あいの街高丘【小規模多機能型居宅介護】浜松市中央区高丘北一丁目43-43", "url": "https://www.kaigokensaku.mhlw.go.jp/22/index.php?action_kouhyou_detail_004_kani=true&JigyosyoCd=2297100105-00&ServiceCd=730&Type=search", "url2": null }, "geometry": { "type": "Point", "coordinates": [ 137.709539108715035, 34.763854517717711 ] } },
{ "type": "Feature", "properties": { "内容": "小規模多機能型居宅介護施設あいの街大平台【小規模多機能型居宅介護】浜松市中央区大平台３丁目１２－１２", "url": "https://www.kaigokensaku.mhlw.go.jp/22/index.php?action_kouhyou_detail_004_kani=true&JigyosyoCd=2297200012-00&ServiceCd=730&Type=search", "url2": null }, "geometry": { "type": "Point", "coordinates": [ 137.679765800000041, 34.7126669 ] } },
{ "type": "Feature", "properties": { "内容": "小規模多機能型居宅介護施設あいの街神田【小規模多機能型居宅介護】浜松市中央区神田町８６５番地", "url": "https://www.kaigokensaku.mhlw.go.jp/22/index.php?action_kouhyou_detail_004_kani=true&JigyosyoCd=2297200558-00&ServiceCd=730&Type=search", "url2": null }, "geometry": { "type": "Point", "coordinates": [ 137.723320723773242, 34.684939882780725 ] } },
{ "type": "Feature", "properties": { "内容": "小規模多機能ホームしおかぜ【小規模多機能型居宅介護】浜松市中央区伊左地町２１９３－１", "url": "https://www.kaigokensaku.mhlw.go.jp/22/index.php?action_kouhyou_detail_004_kani=true&JigyosyoCd=2297200202-00&ServiceCd=730&Type=search", "url2": "http://www.siokaze.info/" }, "geometry": { "type": "Point", "coordinates": [ 137.675719352778628, 34.743198680217603 ] } },
{ "type": "Feature", "properties": { "内容": "小多機　孝滋庵【小規模多機能型居宅介護】浜松市中央区大瀬町441番地2", "url": "https://www.kaigokensaku.mhlw.go.jp/22/index.php?action_kouhyou_detail_004_kani=true&JigyosyoCd=2297201325-00&ServiceCd=730&Type=search", "url2": "https://www.koujian.website/" }, "geometry": { "type": "Point", "coordinates": [ 137.7587909, 34.7590561 ] } },
{ "type": "Feature", "properties": { "内容": "小規模多機能城北フジ【小規模多機能型居宅介護】静岡県浜松市中区城北二丁目5番19号", "url": "https://www.kaigokensaku.mhlw.go.jp/22/index.php?action_kouhyou_detail_004_kani=true&JigyosyoCd=2297200707-00&ServiceCd=730&Type=search", "url2": null }, "geometry": { "type": "Point", "coordinates": [ 137.72116989999995, 34.7210056 ] } },
{ "type": "Feature", "properties": { "内容": "小規模多機能貴葉【小規模多機能型居宅介護】静岡県浜松市中央区貴平町538番地小規模多機能貴葉", "url": "https://www.kaigokensaku.mhlw.go.jp/22/index.php?action_kouhyou_detail_004_kani=true&JigyosyoCd=2297200715-00&ServiceCd=730&Type=search", "url2": null }, "geometry": { "type": "Point", "coordinates": [ 137.791798725794905, 34.753231170061056 ] } },
{ "type": "Feature", "properties": { "内容": "小規模多機能高丘【小規模多機能型居宅介護】静岡県浜松市中央区高丘西三丁目19－3小規模多機能高丘", "url": "https://www.kaigokensaku.mhlw.go.jp/22/index.php?action_kouhyou_detail_004_kani=true&JigyosyoCd=2297200913-00&ServiceCd=730&Type=search", "url2": null }, "geometry": { "type": "Point", "coordinates": [ 137.69526715277857, 34.760302806223642 ] } },
{ "type": "Feature", "properties": { "内容": "小規模多機能ホーム　ウイル【小規模多機能型居宅介護】静岡県浜松市中区名塚町17-1ウイル名塚　おもてなしの郷", "url": "https://www.kaigokensaku.mhlw.go.jp/22/index.php?action_kouhyou_detail_004_kani=true&JigyosyoCd=2297200640-00&ServiceCd=730&Type=search", "url2": "http://will2002.co.jp/" }, "geometry": { "type": "Point", "coordinates": [ 137.756258526736474, 34.706098298569366 ] } },
{ "type": "Feature", "properties": { "内容": "小規模多機能型居宅介護　ほっこりはうす【小規模多機能型居宅介護】古人見町１２１２番地", "url": "https://www.kaigokensaku.mhlw.go.jp/22/index.php?action_kouhyou_detail_004_kani=true&JigyosyoCd=2297201440-00&ServiceCd=730&Type=search", "url2": "https://www.hamanakoen.net/" }, "geometry": { "type": "Point", "coordinates": [ 137.6374884, 34.7299405 ] } },
{ "type": "Feature", "properties": { "内容": "小規模多機能ホームしおかぜ浅田【小規模多機能型居宅介護】浜松市中区上浅田1-9-29しおかぜ浅田", "url": "https://www.kaigokensaku.mhlw.go.jp/22/index.php?action_kouhyou_detail_004_kani=true&JigyosyoCd=2297201184-00&ServiceCd=730&Type=search", "url2": "http://www.siokaze.info/" }, "geometry": { "type": "Point", "coordinates": [ 137.7268435, 34.6955917 ] } },
{ "type": "Feature", "properties": { "内容": "小規模多機能型居宅介護　るぴなすの杜【小規模多機能型居宅介護】静岡県浜松市中央区有玉北町205-1", "url": "https://www.kaigokensaku.mhlw.go.jp/22/index.php?action_kouhyou_detail_004_kani=true&JigyosyoCd=2297200624-00&ServiceCd=730&Type=search", "url2": "http://rupinus.jp" }, "geometry": { "type": "Point", "coordinates": [ 137.758477525404004, 34.771930036928715 ] } },
{ "type": "Feature", "properties": { "内容": "小規模多機能型居宅介護みやこ【小規模多機能型居宅介護】靜岡県浜松市中央区根洗町１２９番地の１", "url": "https://www.kaigokensaku.mhlw.go.jp/22/index.php?action_kouhyou_detail_004_kani=true&JigyosyoCd=2297100295-00&ServiceCd=730&Type=search", "url2": null }, "geometry": { "type": "Point", "coordinates": [ 137.713528799999949, 34.8020007 ] } },
{ "type": "Feature", "properties": { "内容": "愛の家小規模多機能型居宅介護浜松富塚【小規模多機能型居宅介護】静岡県浜松市中区富塚町628‐1", "url": "https://www.kaigokensaku.mhlw.go.jp/22/index.php?action_kouhyou_detail_004_kani=true&JigyosyoCd=2297200475-00&ServiceCd=730&Type=search", "url2": "http://www.mcsg.co.jp/" }, "geometry": { "type": "Point", "coordinates": [ 137.7142033, 34.7305768 ] } },
{ "type": "Feature", "properties": { "内容": "小規模多機能ホーム　ろくじゅ【小規模多機能型居宅介護】静岡県浜松市北区三ケ日町平山６７８－２４", "url": "https://www.kaigokensaku.mhlw.go.jp/22/index.php?action_kouhyou_detail_004_kani=true&JigyosyoCd=2297200210-00&ServiceCd=730&Type=search", "url2": "http://www.rokujyu.co.jp" }, "geometry": { "type": "Point", "coordinates": [ 137.53047289999995, 34.8248313 ] } },
{ "type": "Feature", "properties": { "内容": "あんき【小規模多機能型居宅介護】浜松市北区細江町中川7172-1821", "url": "https://www.kaigokensaku.mhlw.go.jp/22/index.php?action_kouhyou_detail_004_kani=true&JigyosyoCd=2297200434-00&ServiceCd=730&Type=search", "url2": "http://www.jyuji.or.jp/" }, "geometry": { "type": "Point", "coordinates": [ 137.686964900000021, 34.7965755 ] } },
{ "type": "Feature", "properties": { "内容": "小規模多機能ケアホーム浜松北【小規模多機能型居宅介護】中瀬６５６９－１", "url": "https://www.kaigokensaku.mhlw.go.jp/22/index.php?action_kouhyou_detail_004_kani=true&JigyosyoCd=2297200582-00&ServiceCd=730&Type=search", "url2": "http://dowelfare.jp/" }, "geometry": { "type": "Point", "coordinates": [ 137.814599199999947, 34.8373512 ] } },
{ "type": "Feature", "properties": { "内容": "小規模多機能型居宅介護施設　あいの街浜北【小規模多機能型居宅介護】浜松市　浜名区　於呂　２４０６-１", "url": "https://www.kaigokensaku.mhlw.go.jp/22/index.php?action_kouhyou_detail_004_kani=true&JigyosyoCd=2297200293-00&ServiceCd=730&Type=search", "url2": null }, "geometry": { "type": "Point", "coordinates": [ 137.799109, 34.8340841 ] } },
{ "type": "Feature", "properties": { "内容": "小規模多機能桜葉【小規模多機能型居宅介護】静岡県浜松市浜名区細江町中川4589-4", "url": "https://www.kaigokensaku.mhlw.go.jp/22/index.php?action_kouhyou_detail_004_kani=true&JigyosyoCd=2297200905-00&ServiceCd=730&Type=search", "url2": null }, "geometry": { "type": "Point", "coordinates": [ 137.6670882, 34.8140339 ] } },
{ "type": "Feature", "properties": { "内容": "生協小規模多機能きたはまの郷【小規模多機能型居宅介護】静岡県浜松市浜名区高畑193", "url": "https://www.kaigokensaku.mhlw.go.jp/22/index.php?action_kouhyou_detail_004_kani=true&JigyosyoCd=2297201408-00&ServiceCd=730&Type=search", "url2": "https://www.mcp-hamakita.jp" }, "geometry": { "type": "Point", "coordinates": [ 137.79607, 34.7909827 ] } },
{ "type": "Feature", "properties": { "内容": "小規模多機能ホームろくじゅ【小規模多機能型居宅介護】三ヶ日平山678-24小規模多機能ホームろくじゅ", "url": "https://www.kaigokensaku.mhlw.go.jp/22/index.php?action_kouhyou_detail_004_kani=true&JigyosyoCd=2297201176-00&ServiceCd=730&Type=search", "url2": "http://www.rokujyu.co.jp" }, "geometry": { "type": "Point", "coordinates": [ 137.5307224, 34.8247722 ] } },
{ "type": "Feature", "properties": { "内容": "小規模多機能ホームふれあい黄瀬川【小規模多機能型居宅介護】静岡県沼津市大岡266-9", "url": "https://www.kaigokensaku.mhlw.go.jp/22/index.php?action_kouhyou_detail_004_kani=true&JigyosyoCd=2291100093-00&ServiceCd=730&Type=search", "url2": "http://w-being.jp" }, "geometry": { "type": "Point", "coordinates": [ 138.883102199999939, 35.1031065 ] } },
{ "type": "Feature", "properties": { "内容": "小規模多機能型居宅介護支援事業所　プレーゲあしたか【小規模多機能型居宅介護】静岡県沼津市東椎路1639－1", "url": "https://www.kaigokensaku.mhlw.go.jp/22/index.php?action_kouhyou_detail_004_kani=true&JigyosyoCd=2291100135-00&ServiceCd=730&Type=search", "url2": "http://www.pflege-ashitaka@lake.ocn.ne.jp" }, "geometry": { "type": "Point", "coordinates": [ 138.832510500000012, 35.1303111 ] } },
{ "type": "Feature", "properties": { "内容": "株式会社会社在宅支援センターふれあい　小規模多機能ホームふれあい岡宮【小規模多機能型居宅介護】静岡県沼津市岡宮598－2", "url": "https://www.kaigokensaku.mhlw.go.jp/22/index.php?action_kouhyou_detail_004_kani=true&JigyosyoCd=2291100119-00&ServiceCd=730&Type=search", "url2": "http://w-being.jp" }, "geometry": { "type": "Point", "coordinates": [ 138.8708216, 35.1288848 ] } },
{ "type": "Feature", "properties": { "内容": "小規模多機能ホーム　ふれあい島郷【小規模多機能型居宅介護】静岡県沼津市下香貫清水2135", "url": "https://www.kaigokensaku.mhlw.go.jp/22/index.php?action_kouhyou_detail_004_kani=true&JigyosyoCd=2291100168-00&ServiceCd=730&Type=search", "url2": "http://w-being.jp" }, "geometry": { "type": "Point", "coordinates": [ 138.878840742189027, 35.07455443095305 ] } },
{ "type": "Feature", "properties": { "内容": "小規模多機能型居宅介護施設　あさなぎ【小規模多機能型居宅介護】静岡県沼津市西間門3丁目2-1", "url": "https://www.kaigokensaku.mhlw.go.jp/22/index.php?action_kouhyou_detail_004_kani=true&JigyosyoCd=2291100259-00&ServiceCd=730&Type=search", "url2": null }, "geometry": { "type": "Point", "coordinates": [ 138.844151799999963, 35.1007028 ] } },
{ "type": "Feature", "properties": { "内容": "ミモザ熱海湯庵【小規模多機能型居宅介護】桜町2-15", "url": "https://www.kaigokensaku.mhlw.go.jp/22/index.php?action_kouhyou_detail_004_kani=true&JigyosyoCd=2290500111-00&ServiceCd=730&Type=search", "url2": null }, "geometry": { "type": "Point", "coordinates": [ 139.067927961324671, 35.088559653671091 ] } },
{ "type": "Feature", "properties": { "内容": "小規模多機能ホームすみれの郷【小規模多機能型居宅介護】三島市谷田６９５－７", "url": "https://www.kaigokensaku.mhlw.go.jp/22/index.php?action_kouhyou_detail_004_kani=true&JigyosyoCd=2290600051-00&ServiceCd=730&Type=search", "url2": "http://www.shizumin.com/sumire.html" }, "geometry": { "type": "Point", "coordinates": [ 138.938541699999973, 35.1080313 ] } },
{ "type": "Feature", "properties": { "内容": "小規模多機能ホームふれあい三島二日町【小規模多機能型居宅介護】静岡県三島市南二日町6番21号", "url": "https://www.kaigokensaku.mhlw.go.jp/22/index.php?action_kouhyou_detail_004_kani=true&JigyosyoCd=2290600200-00&ServiceCd=730&Type=search", "url2": "http://w-being.jp/" }, "geometry": { "type": "Point", "coordinates": [ 138.9220113, 35.1093165 ] } },
{ "type": "Feature", "properties": { "内容": "小規模多機能型居宅介護みのり【小規模多機能型居宅介護】静岡県三島市加茂川町4082番地の3", "url": "https://www.kaigokensaku.mhlw.go.jp/22/index.php?action_kouhyou_detail_004_kani=true&JigyosyoCd=2290600143-00&ServiceCd=730&Type=search", "url2": "http://www.harvest-life.net/" }, "geometry": { "type": "Point", "coordinates": [ 138.926243842174614, 35.126574036335803 ] } },
{ "type": "Feature", "properties": { "内容": "小規模多機能型居宅介護事業所　楽寿【小規模多機能型居宅介護】静岡県富士宮市万野原新田4138-1", "url": "https://www.kaigokensaku.mhlw.go.jp/22/index.php?action_kouhyou_detail_004_kani=true&JigyosyoCd=2292100019-00&ServiceCd=730&Type=search", "url2": "http://sansei-kaigo.net/" }, "geometry": { "type": "Point", "coordinates": [ 138.616259600000035, 35.2541441 ] } },
{ "type": "Feature", "properties": { "内容": "小規模多機能型居宅介護事業所　楽寿　源道寺【小規模多機能型居宅介護】静岡県富士宮市源道寺町841-1", "url": "https://www.kaigokensaku.mhlw.go.jp/22/index.php?action_kouhyou_detail_004_kani=true&JigyosyoCd=2292100241-00&ServiceCd=730&Type=search", "url2": "http://sansei-kaigo.net/" }, "geometry": { "type": "Point", "coordinates": [ 138.624015099999951, 35.2138996 ] } },
{ "type": "Feature", "properties": { "内容": "小規模多機能ホームかりんの家【小規模多機能型居宅介護】静岡県富士宮市大岩493番地の１", "url": "https://www.kaigokensaku.mhlw.go.jp/22/index.php?action_kouhyou_detail_004_kani=true&JigyosyoCd=2292100175-00&ServiceCd=730&Type=search", "url2": "https://www.onshinkai.org" }, "geometry": { "type": "Point", "coordinates": [ 138.630964307409641, 35.248144779217078 ] } },
{ "type": "Feature", "properties": { "内容": "多機能ホームかたくりの里【小規模多機能型居宅介護】静岡県富士宮市粟倉420-1", "url": "https://www.kaigokensaku.mhlw.go.jp/22/index.php?action_kouhyou_detail_004_kani=true&JigyosyoCd=2292100274-00&ServiceCd=730&Type=search", "url2": "https://www.onshinkai.org/" }, "geometry": { "type": "Point", "coordinates": [ 138.649569181472117, 35.254922634935525 ] } },
{ "type": "Feature", "properties": { "内容": "小規模多機能型居宅介護　外神陽光園【小規模多機能型居宅介護】外神1638番地の1", "url": "https://www.kaigokensaku.mhlw.go.jp/22/index.php?action_kouhyou_detail_004_kani=true&JigyosyoCd=2292100092-00&ServiceCd=730&Type=search", "url2": "http://hakujukai-gp.jp/" }, "geometry": { "type": "Point", "coordinates": [ 138.594609, 35.257685 ] } },
{ "type": "Feature", "properties": { "内容": "小規模多機能ホームゆずの家【小規模多機能型居宅介護】大岩493番地の15", "url": "https://www.kaigokensaku.mhlw.go.jp/22/index.php?action_kouhyou_detail_004_kani=true&JigyosyoCd=2292100068-00&ServiceCd=730&Type=search", "url2": null }, "geometry": { "type": "Point", "coordinates": [ 138.6305195, 35.2478731 ] } },
{ "type": "Feature", "properties": { "内容": "多機能ホームあった家【小規模多機能型居宅介護】静岡県富士宮市大鹿窪151-1", "url": "https://www.kaigokensaku.mhlw.go.jp/22/index.php?action_kouhyou_detail_004_kani=true&JigyosyoCd=2292200017-00&ServiceCd=730&Type=search", "url2": "http://koyama-gr.com/htm/facilities/central_koseikai/index.html" }, "geometry": { "type": "Point", "coordinates": [ 138.556351, 35.2536238 ] } },
{ "type": "Feature", "properties": { "内容": "小規模多機能型居宅介護事業所　楽寿北山【小規模多機能型居宅介護】静岡県富士宮市北山4777-8", "url": "https://www.kaigokensaku.mhlw.go.jp/22/index.php?action_kouhyou_detail_004_kani=true&JigyosyoCd=2292100373-00&ServiceCd=730&Type=search", "url2": "http://sansei-kaigo.net" }, "geometry": { "type": "Point", "coordinates": [ 138.6130296, 35.2854018 ] } },
{ "type": "Feature", "properties": { "内容": "小規模多機能型居宅介護　ほほえみ【小規模多機能型居宅介護】大中里1164－1", "url": "https://www.kaigokensaku.mhlw.go.jp/22/index.php?action_kouhyou_detail_004_kani=true&JigyosyoCd=2272100377-00&ServiceCd=730&Type=search", "url2": null }, "geometry": { "type": "Point", "coordinates": [ 138.596414900000013, 35.218662 ] } },
{ "type": "Feature", "properties": { "内容": "小規模多機能センター「りん」【小規模多機能型居宅介護】伊東市八幡野１２８３－９７", "url": "https://www.kaigokensaku.mhlw.go.jp/22/index.php?action_kouhyou_detail_004_kani=true&JigyosyoCd=2290400031-00&ServiceCd=730&Type=search", "url2": null }, "geometry": { "type": "Point", "coordinates": [ 139.104658100000051, 34.8903201 ] } },
{ "type": "Feature", "properties": { "内容": "小規模多機能すかい【小規模多機能型居宅介護】静岡県池662-1", "url": "https://www.kaigokensaku.mhlw.go.jp/22/index.php?action_kouhyou_detail_004_kani=true&JigyosyoCd=2290400163-00&ServiceCd=730&Type=search", "url2": "https://home-sukai.com" }, "geometry": { "type": "Point", "coordinates": [ 139.088038724498006, 34.89754860317997 ] } },
{ "type": "Feature", "properties": { "内容": "クラシオン富士見【小規模多機能型居宅介護】静岡県伊東市玖須美元和田722-677クラシオン富士見", "url": "https://www.kaigokensaku.mhlw.go.jp/22/index.php?action_kouhyou_detail_004_kani=true&JigyosyoCd=2290400015-00&ServiceCd=730&Type=search", "url2": "http://www.izukaigo.com/" }, "geometry": { "type": "Point", "coordinates": [ 139.110250529499808, 34.943511156638003 ] } },
{ "type": "Feature", "properties": { "内容": "コミュニティーケア笹間渡【小規模多機能型居宅介護】島田市川根町笹間渡４３２－１", "url": "https://www.kaigokensaku.mhlw.go.jp/22/index.php?action_kouhyou_detail_004_kani=true&JigyosyoCd=2295400051-00&ServiceCd=730&Type=search", "url2": null }, "geometry": { "type": "Point", "coordinates": [ 138.086932899999965, 34.9620632 ] } },
{ "type": "Feature", "properties": { "内容": "縁がわあずま【小規模多機能型居宅介護】静岡県島田市金谷東2丁目5-9", "url": "https://www.kaigokensaku.mhlw.go.jp/22/index.php?action_kouhyou_detail_004_kani=true&JigyosyoCd=2295400176-00&ServiceCd=730&Type=search", "url2": "https://www.npoengawa.org" }, "geometry": { "type": "Point", "coordinates": [ 138.140139500000032, 34.8262754 ] } },
{ "type": "Feature", "properties": { "内容": "まごころの家＊島田【小規模多機能型居宅介護】島田市中溝町５８０", "url": "https://www.kaigokensaku.mhlw.go.jp/22/index.php?action_kouhyou_detail_004_kani=true&JigyosyoCd=2295400036-00&ServiceCd=730&Type=search", "url2": "http:/www.magokorokaigo.com/" }, "geometry": { "type": "Point", "coordinates": [ 138.160256900000036, 34.8444319 ] } },
{ "type": "Feature", "properties": { "内容": "あったか広場一会【小規模多機能型居宅介護】東町1116", "url": "https://www.kaigokensaku.mhlw.go.jp/22/index.php?action_kouhyou_detail_004_kani=true&JigyosyoCd=2295400143-00&ServiceCd=730&Type=search", "url2": "http:/web.thn.jp/attakahiroba" }, "geometry": { "type": "Point", "coordinates": [ 138.227147945507795, 34.835616830742225 ] } },
{ "type": "Feature", "properties": { "内容": "アポロン伊太【小規模多機能型居宅介護】島田市伊太２１７０－１", "url": "https://www.kaigokensaku.mhlw.go.jp/22/index.php?action_kouhyou_detail_004_kani=true&JigyosyoCd=2295400150-00&ServiceCd=730&Type=search", "url2": "www.apolon-shizuoka.com" }, "geometry": { "type": "Point", "coordinates": [ 138.153640900000028, 34.8509669 ] } },
{ "type": "Feature", "properties": { "内容": "一期一会のゆかり【小規模多機能型居宅介護】静岡県島田市横井四丁目7-3", "url": "https://www.kaigokensaku.mhlw.go.jp/22/index.php?action_kouhyou_detail_004_kani=true&JigyosyoCd=2295400259-00&ServiceCd=730&Type=search", "url2": "http://ichigoichie-care.com" }, "geometry": { "type": "Point", "coordinates": [ 138.1765033, 34.8283264 ] } },
{ "type": "Feature", "properties": { "内容": "一期一会の和【小規模多機能型居宅介護】静岡県島田市中河町395-25", "url": "https://www.kaigokensaku.mhlw.go.jp/22/index.php?action_kouhyou_detail_004_kani=true&JigyosyoCd=2295400184-00&ServiceCd=730&Type=search", "url2": "https://ichigoichie-care.com" }, "geometry": { "type": "Point", "coordinates": [ 138.175246799999968, 34.8419462 ] } },
{ "type": "Feature", "properties": { "内容": "ミモザ島田初倉【小規模多機能型居宅介護】静岡県島田市大柳1357", "url": "https://www.kaigokensaku.mhlw.go.jp/22/index.php?action_kouhyou_detail_004_kani=true&JigyosyoCd=2295400226-00&ServiceCd=730&Type=search", "url2": "https://www.mimoza-care.jp" }, "geometry": { "type": "Point", "coordinates": [ 138.2256705, 34.8131528 ] } },
{ "type": "Feature", "properties": { "内容": "老美成【小規模多機能型居宅介護】静岡県富士市五貫島961", "url": "https://www.kaigokensaku.mhlw.go.jp/22/index.php?action_kouhyou_detail_004_kani=true&JigyosyoCd=2292300411-00&ServiceCd=730&Type=search", "url2": null }, "geometry": { "type": "Point", "coordinates": [ 138.651930200000038, 35.1297879 ] } },
{ "type": "Feature", "properties": { "内容": "小規模多機能ホーム　ももの花【小規模多機能型居宅介護】三ツ沢427-1", "url": "https://www.kaigokensaku.mhlw.go.jp/22/index.php?action_kouhyou_detail_004_kani=true&JigyosyoCd=2292300239-00&ServiceCd=730&Type=search", "url2": "https://nakane-clinic.jp" }, "geometry": { "type": "Point", "coordinates": [ 138.7061718, 35.1867459 ] } },
{ "type": "Feature", "properties": { "内容": "多機能ホーム橙【小規模多機能型居宅介護】富士市中丸３９０－１", "url": "https://www.kaigokensaku.mhlw.go.jp/22/index.php?action_kouhyou_detail_004_kani=true&JigyosyoCd=2292300296-00&ServiceCd=730&Type=search", "url2": "http://koyama-gr.com/htm/facilities/central_koseikai/index.html" }, "geometry": { "type": "Point", "coordinates": [ 138.668951200000038, 35.1377568 ] } },
{ "type": "Feature", "properties": { "内容": "多機能ホーム萌木【小規模多機能型居宅介護】静岡県富士市石坂78番地3", "url": "https://www.kaigokensaku.mhlw.go.jp/22/index.php?action_kouhyou_detail_004_kani=true&JigyosyoCd=2292300338-00&ServiceCd=730&Type=search", "url2": "http://www.s-koseikai.jp/" }, "geometry": { "type": "Point", "coordinates": [ 138.6819054, 35.1757578 ] } },
{ "type": "Feature", "properties": { "内容": "小規模多機能ホーム花ごろも【小規模多機能型居宅介護】富士市岩本232番地の2", "url": "https://www.kaigokensaku.mhlw.go.jp/22/index.php?action_kouhyou_detail_004_kani=true&JigyosyoCd=2292300171-00&ServiceCd=730&Type=search", "url2": null }, "geometry": { "type": "Point", "coordinates": [ 138.640922700000033, 35.1771989 ] } },
{ "type": "Feature", "properties": { "内容": "小規模多機能型ホーム富士の里【小規模多機能型居宅介護】静岡県富士市天間1627番地1小規模多機能型ホーム富士の里", "url": "https://www.kaigokensaku.mhlw.go.jp/22/index.php?action_kouhyou_detail_004_kani=true&JigyosyoCd=2292300312-00&ServiceCd=730&Type=search", "url2": "http://carehouse-fujinosato.com/" }, "geometry": { "type": "Point", "coordinates": [ 138.646305699999971, 35.2033348 ] } },
{ "type": "Feature", "properties": { "内容": "まつおかのまんてん星【小規模多機能型居宅介護】静岡県富士市松岡263番地4", "url": "https://www.kaigokensaku.mhlw.go.jp/22/index.php?action_kouhyou_detail_004_kani=true&JigyosyoCd=2292300197-00&ServiceCd=730&Type=search", "url2": "http://www.manten-boshi.jp" }, "geometry": { "type": "Point", "coordinates": [ 138.64278172316088, 35.173596637991302 ] } },
{ "type": "Feature", "properties": { "内容": "医療法人財団湖聖会　小規模多機能ホーム花咲み【小規模多機能型居宅介護】富士市宇東川西町8番41号", "url": "https://www.kaigokensaku.mhlw.go.jp/22/index.php?action_kouhyou_detail_004_kani=true&JigyosyoCd=2292300494-00&ServiceCd=730&Type=search", "url2": "http://momohanokai.jp/top.html" }, "geometry": { "type": "Point", "coordinates": [ 138.701470779237297, 35.169501468069981 ] } },
{ "type": "Feature", "properties": { "内容": "小規模多機能型居宅介護施設あいの街富士川【小規模多機能型居宅介護】富士市岩渕１３１－１", "url": "https://www.kaigokensaku.mhlw.go.jp/22/index.php?action_kouhyou_detail_004_kani=true&JigyosyoCd=2292300205-00&ServiceCd=730&Type=search", "url2": null }, "geometry": { "type": "Point", "coordinates": [ 138.61757979999993, 35.1491765 ] } },
{ "type": "Feature", "properties": { "内容": "多機能ホーム結【小規模多機能型居宅介護】静岡県富士市一色168-7", "url": "https://www.kaigokensaku.mhlw.go.jp/22/index.php?action_kouhyou_detail_004_kani=true&JigyosyoCd=2292300478-00&ServiceCd=730&Type=search", "url2": "http://www.seishinkai.info" }, "geometry": { "type": "Point", "coordinates": [ 138.694464873232533, 35.186382382651203 ] } },
{ "type": "Feature", "properties": { "内容": "アクタガワ　ハートフルホーム厚原【小規模多機能型居宅介護】静岡県富士市厚原179-1", "url": "https://www.kaigokensaku.mhlw.go.jp/22/index.php?action_kouhyou_detail_004_kani=true&JigyosyoCd=2292300445-00&ServiceCd=730&Type=search", "url2": "https://www.akutagawa-heartlife.jp" }, "geometry": { "type": "Point", "coordinates": [ 138.651499175463044, 35.18206723791392 ] } },
{ "type": "Feature", "properties": { "内容": "小規模多機能ホーム　かりんの花【小規模多機能型居宅介護】富士市松本134-1", "url": "https://www.kaigokensaku.mhlw.go.jp/22/index.php?action_kouhyou_detail_004_kani=true&JigyosyoCd=2292300361-00&ServiceCd=730&Type=search", "url2": "https://nakane-clinic.jp" }, "geometry": { "type": "Point", "coordinates": [ 138.648303153025836, 35.170054695184078 ] } },
{ "type": "Feature", "properties": { "内容": "小規模多機能型居宅介護施設わだの里【小規模多機能型居宅介護】富士市今泉１丁目１１番７号", "url": "https://www.kaigokensaku.mhlw.go.jp/22/index.php?action_kouhyou_detail_004_kani=true&JigyosyoCd=2292300155-00&ServiceCd=730&Type=search", "url2": "http://www.jishoukai.com" }, "geometry": { "type": "Point", "coordinates": [ 138.69037979999996, 35.1638593 ] } },
{ "type": "Feature", "properties": { "内容": "小規模多機能型居宅介護施設　永遠の家【小規模多機能型居宅介護】富士市伝法１７７３－３０", "url": "https://www.kaigokensaku.mhlw.go.jp/22/index.php?action_kouhyou_detail_004_kani=true&JigyosyoCd=2292300148-00&ServiceCd=730&Type=search", "url2": null }, "geometry": { "type": "Point", "coordinates": [ 138.672598, 35.1776382 ] } },
{ "type": "Feature", "properties": { "内容": "小規模多機能型居宅介護事業所まほろば【小規模多機能型居宅介護】静岡県富士市天間955番33", "url": "https://www.kaigokensaku.mhlw.go.jp/22/index.php?action_kouhyou_detail_004_kani=true&JigyosyoCd=2292300023-00&ServiceCd=730&Type=search", "url2": null }, "geometry": { "type": "Point", "coordinates": [ 138.641769699999941, 35.2098922 ] } },
{ "type": "Feature", "properties": { "内容": "サテライト型小規模多機能型居宅介護事業所まほろば梅の里【小規模多機能型居宅介護】静岡県富士市天間955番28", "url": "https://www.kaigokensaku.mhlw.go.jp/22/index.php?action_kouhyou_detail_004_kani=true&JigyosyoCd=2292300403-00&ServiceCd=730&Type=search", "url2": null }, "geometry": { "type": "Point", "coordinates": [ 138.641389200000049, 35.2097589 ] } },
{ "type": "Feature", "properties": { "内容": "孝行家【小規模多機能型居宅介護】富士市　鮫島　436－1", "url": "https://www.kaigokensaku.mhlw.go.jp/22/index.php?action_kouhyou_detail_004_kani=true&JigyosyoCd=2292300213-00&ServiceCd=730&Type=search", "url2": null }, "geometry": { "type": "Point", "coordinates": [ 138.678186500000038, 35.135621 ] } },
{ "type": "Feature", "properties": { "内容": "小規模多機能ホーム　ぬくもりの家【小規模多機能型居宅介護】静岡県磐田市二之宮東２１－４多機能ホーム二之宮", "url": "https://www.kaigokensaku.mhlw.go.jp/22/index.php?action_kouhyou_detail_004_kani=true&JigyosyoCd=2296900083-00&ServiceCd=730&Type=search", "url2": "http://takinou-ninomiya.jp/" }, "geometry": { "type": "Point", "coordinates": [ 137.8578324, 34.7116408 ] } },
{ "type": "Feature", "properties": { "内容": "セントケア南天満【小規模多機能型居宅介護】磐田市見付547-5セントケア南天満", "url": "https://www.kaigokensaku.mhlw.go.jp/22/index.php?action_kouhyou_detail_004_kani=true&JigyosyoCd=2296900125-00&ServiceCd=730&Type=search", "url2": "https://care-net.biz/22/saint.shizuoka/" }, "geometry": { "type": "Point", "coordinates": [ 137.8667628, 34.7279867 ] } },
{ "type": "Feature", "properties": { "内容": "小規模多機能型居宅介護施設あいの街大久保【小規模多機能型居宅介護】静岡県磐田市大久保891番地43", "url": "https://www.kaigokensaku.mhlw.go.jp/22/index.php?action_kouhyou_detail_004_kani=true&JigyosyoCd=2296900158-00&ServiceCd=730&Type=search", "url2": "https://www.aicare.co.jp/" }, "geometry": { "type": "Point", "coordinates": [ 137.855446600000022, 34.758634399999984 ] } },
{ "type": "Feature", "properties": { "内容": "小規模多機能型居宅介護ゆやの里【小規模多機能型居宅介護】磐田市加茂３９５番地", "url": "https://www.kaigokensaku.mhlw.go.jp/22/index.php?action_kouhyou_detail_004_kani=true&JigyosyoCd=2296900059-00&ServiceCd=730&Type=search", "url2": "http://www.hashoukai.or.jp" }, "geometry": { "type": "Point", "coordinates": [ 137.833239300000059, 34.7385444 ] } },
{ "type": "Feature", "properties": { "内容": "小規模多機能ひとこと【小規模多機能型居宅介護】静岡県磐田市一言3056", "url": "https://www.kaigokensaku.mhlw.go.jp/22/index.php?action_kouhyou_detail_004_kani=true&JigyosyoCd=2296900190-00&ServiceCd=730&Type=search", "url2": "iwata-nl.com" }, "geometry": { "type": "Point", "coordinates": [ 137.835321, 34.7273512 ] } },
{ "type": "Feature", "properties": { "内容": "ケアセンター旬彩【小規模多機能型居宅介護】静岡県磐田市今之浦１－１－１３", "url": "https://www.kaigokensaku.mhlw.go.jp/22/index.php?action_kouhyou_detail_004_kani=true&JigyosyoCd=2296900034-00&ServiceCd=730&Type=search", "url2": "https://www.syunsaitei.co.jp/care-center.php" }, "geometry": { "type": "Point", "coordinates": [ 137.865778699999964, 34.7144654 ] } },
{ "type": "Feature", "properties": { "内容": "コミュニティービレッジ下小田【小規模多機能型居宅介護】焼津市下小田上町12-2コミュニティービレッジ下小田Ｃ棟", "url": "https://www.kaigokensaku.mhlw.go.jp/22/index.php?action_kouhyou_detail_004_kani=true&JigyosyoCd=2295100123-00&ServiceCd=730&Type=search", "url2": null }, "geometry": { "type": "Point", "coordinates": [ 138.314671099999941, 34.8382072 ] } },
{ "type": "Feature", "properties": { "内容": "小規模多機能ホーム「池ちゃん家」焼津【小規模多機能型居宅介護】静岡県焼津市小柳津638-4", "url": "https://www.kaigokensaku.mhlw.go.jp/22/index.php?action_kouhyou_detail_004_kani=true&JigyosyoCd=2295100362-00&ServiceCd=730&Type=search", "url2": null }, "geometry": { "type": "Point", "coordinates": [ 138.289934564502545, 34.853389338546243 ] } },
{ "type": "Feature", "properties": { "内容": "小規模多機能ホーム　かつを【小規模多機能型居宅介護】焼津市中根181", "url": "https://www.kaigokensaku.mhlw.go.jp/22/index.php?action_kouhyou_detail_004_kani=true&JigyosyoCd=2295100032-00&ServiceCd=730&Type=search", "url2": null }, "geometry": { "type": "Point", "coordinates": [ 138.2976625, 34.8450484 ] } },
{ "type": "Feature", "properties": { "内容": "複合型サービスごんべえ【小規模多機能型居宅介護】静岡県焼津市下江留1398-1", "url": "https://www.kaigokensaku.mhlw.go.jp/22/index.php?action_kouhyou_detail_004_kani=true&JigyosyoCd=2295100255-00&ServiceCd=730&Type=search", "url2": "http://gonbee.co.jp" }, "geometry": { "type": "Point", "coordinates": [ 138.276946129376398, 34.808573694846075 ] } },
{ "type": "Feature", "properties": { "内容": "医療法人　コミュニティーケア　西焼津【小規模多機能型居宅介護】静岡県焼津市小柳津566-1鉄骨平屋１階", "url": "https://www.kaigokensaku.mhlw.go.jp/22/index.php?action_kouhyou_detail_004_kani=true&JigyosyoCd=2295100180-00&ServiceCd=730&Type=search", "url2": null }, "geometry": { "type": "Point", "coordinates": [ 138.287597300000016, 34.8518587 ] } },
{ "type": "Feature", "properties": { "内容": "セントケア焼津大村【小規模多機能型居宅介護】焼津市大村2-28-1", "url": "https://www.kaigokensaku.mhlw.go.jp/22/index.php?action_kouhyou_detail_004_kani=true&JigyosyoCd=2295100156-00&ServiceCd=730&Type=search", "url2": "http://www.saint-care.com/" }, "geometry": { "type": "Point", "coordinates": [ 138.308180399999969, 34.8705893 ] } },
{ "type": "Feature", "properties": { "内容": "小規模多機能型居宅介護施設あいの街葛川1号館【小規模多機能型居宅介護】掛川市葛川３１０－３", "url": "https://www.kaigokensaku.mhlw.go.jp/22/index.php?action_kouhyou_detail_004_kani=true&JigyosyoCd=2297400018-00&ServiceCd=730&Type=search", "url2": null }, "geometry": { "type": "Point", "coordinates": [ 138.0260237, 34.7740496 ] } },
{ "type": "Feature", "properties": { "内容": "小規模多機能型居宅介護施設あいの街葛川2号館【小規模多機能型居宅介護】静岡県掛川市葛川310-3", "url": "https://www.kaigokensaku.mhlw.go.jp/22/index.php?action_kouhyou_detail_004_kani=true&JigyosyoCd=2297400075-00&ServiceCd=730&Type=search", "url2": "aicare.co.jp" }, "geometry": { "type": "Point", "coordinates": [ 138.025993200000016, 34.7740941 ] } },
{ "type": "Feature", "properties": { "内容": "小規模多機能型居宅介護施設あいの街緑ヶ丘【小規模多機能型居宅介護】静岡県掛川市上張48-9", "url": "https://www.kaigokensaku.mhlw.go.jp/22/index.php?action_kouhyou_detail_004_kani=true&JigyosyoCd=2297400083-00&ServiceCd=730&Type=search", "url2": null }, "geometry": { "type": "Point", "coordinates": [ 138.03027910000003, 34.766967200000011 ] } },
{ "type": "Feature", "properties": { "内容": "小規模多機能型居宅よりみち【小規模多機能型居宅介護】静岡県掛川市大渕12680-1", "url": "https://www.kaigokensaku.mhlw.go.jp/22/index.php?action_kouhyou_detail_004_kani=true&JigyosyoCd=2297400109-00&ServiceCd=730&Type=search", "url2": "http://www.oosukaen.or.jp" }, "geometry": { "type": "Point", "coordinates": [ 138.018083, 34.672408 ] } },
{ "type": "Feature", "properties": { "内容": "愛の家小規模多機能型居宅介護藤枝高柳【小規模多機能型居宅介護】静岡県藤枝市高柳1丁目4-15愛の家小規模多機能型居宅介護藤枝高柳", "url": "https://www.kaigokensaku.mhlw.go.jp/22/index.php?action_kouhyou_detail_004_kani=true&JigyosyoCd=2295300228-00&ServiceCd=730&Type=search", "url2": "https://mcs-ainoie.com/search/shizuoka/fujiedashi/st012/" }, "geometry": { "type": "Point", "coordinates": [ 138.263566, 34.852444 ] } },
{ "type": "Feature", "properties": { "内容": "まごころの家岡出山【小規模多機能型居宅介護】藤枝市岡出山３丁目７番１号", "url": "https://www.kaigokensaku.mhlw.go.jp/22/index.php?action_kouhyou_detail_004_kani=true&JigyosyoCd=2295300038-00&ServiceCd=730&Type=search", "url2": "http://www.magokorokaigo.com/" }, "geometry": { "type": "Point", "coordinates": [ 138.261596899999972, 34.86872 ] } },
{ "type": "Feature", "properties": { "内容": "いろどり藤枝【小規模多機能型居宅介護】静岡県藤枝市茶町2丁目3-17いろどり藤枝", "url": "https://www.kaigokensaku.mhlw.go.jp/22/index.php?action_kouhyou_detail_004_kani=true&JigyosyoCd=2295300343-00&ServiceCd=730&Type=search", "url2": "http://www.earth-group.co.jp/" }, "geometry": { "type": "Point", "coordinates": [ 138.2479255, 34.869476 ] } },
{ "type": "Feature", "properties": { "内容": "小規模多機能ホーム「池ちゃん家」藤枝【小規模多機能型居宅介護】静岡県藤枝市下之郷1-1", "url": "https://www.kaigokensaku.mhlw.go.jp/22/index.php?action_kouhyou_detail_004_kani=true&JigyosyoCd=2295300418-00&ServiceCd=730&Type=search", "url2": null }, "geometry": { "type": "Point", "coordinates": [ 138.250682399999988, 34.8935879 ] } },
{ "type": "Feature", "properties": { "内容": "小規模多機能型居宅介護施設あいの街青島【小規模多機能型居宅介護】藤枝市東町１番４３号", "url": "https://www.kaigokensaku.mhlw.go.jp/22/index.php?action_kouhyou_detail_004_kani=true&JigyosyoCd=2295300012-00&ServiceCd=730&Type=search", "url2": "http://aicare.co.jp/" }, "geometry": { "type": "Point", "coordinates": [ 138.254631199999949, 34.8581931 ] } },
{ "type": "Feature", "properties": { "内容": "アクタガワ　ハートフルホーム藤枝青葉町【小規模多機能型居宅介護】静岡県藤枝市青葉町4-5-29", "url": "https://www.kaigokensaku.mhlw.go.jp/22/index.php?action_kouhyou_detail_004_kani=true&JigyosyoCd=2295300384-00&ServiceCd=730&Type=search", "url2": "https://www.akutagawa-heartlife.jp" }, "geometry": { "type": "Point", "coordinates": [ 138.244995248624093, 34.840328375728923 ] } },
{ "type": "Feature", "properties": { "内容": "セントケアいながわ【小規模多機能型居宅介護】静岡県藤枝市稲川１丁目９－１３", "url": "https://www.kaigokensaku.mhlw.go.jp/22/index.php?action_kouhyou_detail_004_kani=true&JigyosyoCd=2295300152-00&ServiceCd=730&Type=search", "url2": "http://www.saint-care-chubu.com/" }, "geometry": { "type": "Point", "coordinates": [ 138.254978673016353, 34.864785050399817 ] } },
{ "type": "Feature", "properties": { "内容": "小規模多機能ホーム五十海の舎【小規模多機能型居宅介護】静岡県藤枝市五十海1-14-23小規模多機能ホーム五十海の舎", "url": "https://www.kaigokensaku.mhlw.go.jp/22/index.php?action_kouhyou_detail_004_kani=true&JigyosyoCd=2295300244-00&ServiceCd=730&Type=search", "url2": null }, "geometry": { "type": "Point", "coordinates": [ 138.692623899999944, 35.1630872 ] } },
{ "type": "Feature", "properties": { "内容": "小規模多機能型居宅介護あざみ【小規模多機能型居宅介護】御殿場市東山　８５５－６", "url": "https://www.kaigokensaku.mhlw.go.jp/22/index.php?action_kouhyou_detail_004_kani=true&JigyosyoCd=2291200026-00&ServiceCd=730&Type=search", "url2": null }, "geometry": { "type": "Point", "coordinates": [ 138.961367200000041, 35.301111 ] } },
{ "type": "Feature", "properties": { "内容": "一般財団法人神山復生会　小規模多機能型居宅介護事業所マリアの家【小規模多機能型居宅介護】静岡県御殿場市神山738-44", "url": "https://www.kaigokensaku.mhlw.go.jp/22/index.php?action_kouhyou_detail_004_kani=true&JigyosyoCd=2291200067-00&ServiceCd=730&Type=search", "url2": "marianoie@fukusei.jp" }, "geometry": { "type": "Point", "coordinates": [ 138.9228647, 35.2356043 ] } },
{ "type": "Feature", "properties": { "内容": "小規模多機能型居宅介護　共生の家【小規模多機能型居宅介護】静岡県袋井市愛野南　4-9-16", "url": "https://www.kaigokensaku.mhlw.go.jp/22/index.php?action_kouhyou_detail_004_kani=true&JigyosyoCd=2297300044-00&ServiceCd=730&Type=search", "url2": "qqcq2fu9k@wonder.ocn.ne.jp" }, "geometry": { "type": "Point", "coordinates": [ 137.967317800000046, 34.7490103 ] } },
{ "type": "Feature", "properties": { "内容": "ひなた【小規模多機能型居宅介護】浅羽８４－７", "url": "https://www.kaigokensaku.mhlw.go.jp/22/index.php?action_kouhyou_detail_004_kani=true&JigyosyoCd=2297300036-00&ServiceCd=730&Type=search", "url2": "http://www18.ocn.ne.jp/~sanpo/" }, "geometry": { "type": "Point", "coordinates": [ 137.9225361, 34.7179024 ] } },
{ "type": "Feature", "properties": { "内容": "小規模多機能型居宅介護みくらの里【小規模多機能型居宅介護】静岡県下田市吉佐美１０７７－１６", "url": "https://www.kaigokensaku.mhlw.go.jp/22/index.php?action_kouhyou_detail_004_kani=true&JigyosyoCd=2290200019-00&ServiceCd=730&Type=search", "url2": "http://shiyuukai.or.jp" }, "geometry": { "type": "Point", "coordinates": [ 138.91349032146104, 34.670982210644823 ] } },
{ "type": "Feature", "properties": { "内容": "小規模多機能ホームふれあい佐野【小規模多機能型居宅介護】静岡県裾野市佐野49-4ふれあい佐野", "url": "https://www.kaigokensaku.mhlw.go.jp/22/index.php?action_kouhyou_detail_004_kani=true&JigyosyoCd=2291400055-00&ServiceCd=730&Type=search", "url2": "http://w-being.jp" }, "geometry": { "type": "Point", "coordinates": [ 138.908011500103157, 35.185496302524285 ] } },
{ "type": "Feature", "properties": { "内容": "おかさき小規模多機能ホーム【小規模多機能型居宅介護】静岡県湖西市岡崎949-1", "url": "https://www.kaigokensaku.mhlw.go.jp/22/index.php?action_kouhyou_detail_004_kani=true&JigyosyoCd=2298400058-00&ServiceCd=730&Type=search", "url2": "http://www.ichienso.co.jp" }, "geometry": { "type": "Point", "coordinates": [ 137.50305, 34.7236555 ] } },
{ "type": "Feature", "properties": { "内容": "一円荘小規模多機能ホーム【小規模多機能型居宅介護】静岡県湖西市白須賀3986-7", "url": "https://www.kaigokensaku.mhlw.go.jp/22/index.php?action_kouhyou_detail_004_kani=true&JigyosyoCd=2298400025-00&ServiceCd=730&Type=search", "url2": "http://www.ichienso.co.jp" }, "geometry": { "type": "Point", "coordinates": [ 137.498993, 34.6996082 ] } },
{ "type": "Feature", "properties": { "内容": "サンシティあらい【小規模多機能型居宅介護】静岡県湖西市新居町新居117-3", "url": "https://www.kaigokensaku.mhlw.go.jp/22/index.php?action_kouhyou_detail_004_kani=true&JigyosyoCd=2298200011-00&ServiceCd=730&Type=search", "url2": "http://www.yhkikaku.jp/" }, "geometry": { "type": "Point", "coordinates": [ 137.570406199999979, 34.6885954 ] } },
{ "type": "Feature", "properties": { "内容": "北狩野ケアセンター【小規模多機能型居宅介護】静岡県伊豆市牧之郷１１６", "url": "https://www.kaigokensaku.mhlw.go.jp/22/index.php?action_kouhyou_detail_004_kani=true&JigyosyoCd=2290700026-00&ServiceCd=730&Type=search", "url2": "http://shunpuukai.com/" }, "geometry": { "type": "Point", "coordinates": [ 138.949764400000049, 34.9910762 ] } },
{ "type": "Feature", "properties": { "内容": "小規模多機能ホームはまなでしこ【小規模多機能型居宅介護】静岡県御前崎市池新田459-1", "url": "https://www.kaigokensaku.mhlw.go.jp/22/index.php?action_kouhyou_detail_004_kani=true&JigyosyoCd=2295600031-00&ServiceCd=730&Type=search", "url2": "https://hamaokakouseikai.jp" }, "geometry": { "type": "Point", "coordinates": [ 138.127701300000012, 34.654198 ] } },
{ "type": "Feature", "properties": { "内容": "小規模多機能型居宅介護施設　　ひまわり【小規模多機能型居宅介護】菊川市中内田５０１７－６", "url": "https://www.kaigokensaku.mhlw.go.jp/22/index.php?action_kouhyou_detail_004_kani=true&JigyosyoCd=2296800044-00&ServiceCd=730&Type=search", "url2": "http://www.himawarik.jp/" }, "geometry": { "type": "Point", "coordinates": [ 138.0673, 34.7227704 ] } },
{ "type": "Feature", "properties": { "内容": "小規模多機能ホーム　湯と里【小規模多機能型居宅介護】伊豆の国市長岡９５３－１", "url": "https://www.kaigokensaku.mhlw.go.jp/22/index.php?action_kouhyou_detail_004_kani=true&JigyosyoCd=2290800016-00&ServiceCd=730&Type=search", "url2": null }, "geometry": { "type": "Point", "coordinates": [ 138.930806699999948, 35.0368649 ] } },
{ "type": "Feature", "properties": { "内容": "まるに小規模多機能【小規模多機能型居宅介護】牧之原市勝俣1265-3", "url": "https://www.kaigokensaku.mhlw.go.jp/22/index.php?action_kouhyou_detail_004_kani=true&JigyosyoCd=2295800110-00&ServiceCd=730&Type=search", "url2": "http//circle-2.inf" }, "geometry": { "type": "Point", "coordinates": [ 138.209812258860808, 34.743613876022806 ] } },
{ "type": "Feature", "properties": { "内容": "小規模多機能型居宅介護　スローライフ汐見台【小規模多機能型居宅介護】静岡県牧之原市汐見台14-1", "url": "https://www.kaigokensaku.mhlw.go.jp/22/index.php?action_kouhyou_detail_004_kani=true&JigyosyoCd=2295800136-00&ServiceCd=730&Type=search", "url2": null }, "geometry": { "type": "Point", "coordinates": [ 138.193981399999984, 34.6798732 ] } },
{ "type": "Feature", "properties": { "内容": "小規模多機能ホームあたがわ【小規模多機能型居宅介護】静岡県賀茂郡東伊豆町奈良本1423-62小規模多機能ホームあたがわ", "url": "https://www.kaigokensaku.mhlw.go.jp/22/index.php?action_kouhyou_detail_004_kani=true&JigyosyoCd=2290100037-00&ServiceCd=730&Type=search", "url2": "http:www.syoukibotakinou.com" }, "geometry": { "type": "Point", "coordinates": [ 139.056866500000069, 34.8174869 ] } },
{ "type": "Feature", "properties": { "内容": "おっけぃ【小規模多機能型居宅介護】静岡県賀茂郡南伊豆町下賀茂462-10", "url": "https://www.kaigokensaku.mhlw.go.jp/22/index.php?action_kouhyou_detail_004_kani=true&JigyosyoCd=2290100094-00&ServiceCd=730&Type=search", "url2": null }, "geometry": { "type": "Point", "coordinates": [ 138.8716112, 34.648456899999985 ] } },
{ "type": "Feature", "properties": { "内容": "小規模多機能ホーム　ル・ソレイユ函南【小規模多機能型居宅介護】間宮760-1", "url": "https://www.kaigokensaku.mhlw.go.jp/22/index.php?action_kouhyou_detail_004_kani=true&JigyosyoCd=2290300041-00&ServiceCd=730&Type=search", "url2": "http://care-soleil.com/" }, "geometry": { "type": "Point", "coordinates": [ 138.942844599999944, 35.0845704 ] } },
{ "type": "Feature", "properties": { "内容": "希望のわだち柿田　小規模多機能型居宅介護事業所【小規模多機能型居宅介護】静岡県駿東郡清水町柿田１８４－２", "url": "https://www.kaigokensaku.mhlw.go.jp/22/index.php?action_kouhyou_detail_004_kani=true&JigyosyoCd=2291300016-00&ServiceCd=730&Type=search", "url2": "http://www.kibou-kakita.com/" }, "geometry": { "type": "Point", "coordinates": [ 138.8969234, 35.101040200000021 ] } },
{ "type": "Feature", "properties": { "内容": "小規模多機能ホームふれあい伏見【小規模多機能型居宅介護】伏見280-2", "url": "https://www.kaigokensaku.mhlw.go.jp/22/index.php?action_kouhyou_detail_004_kani=true&JigyosyoCd=2291300040-00&ServiceCd=730&Type=search", "url2": "http//w-being.jp" }, "geometry": { "type": "Point", "coordinates": [ 138.893137300000035, 35.1128975 ] } },
{ "type": "Feature", "properties": { "内容": "小規模多機能ホームふれあい長泉【小規模多機能型居宅介護】静岡県駿東郡長泉町中土狩498-4", "url": "https://www.kaigokensaku.mhlw.go.jp/22/index.php?action_kouhyou_detail_004_kani=true&JigyosyoCd=2291300222-00&ServiceCd=730&Type=search", "url2": "http://www.w-beimg.jp" }, "geometry": { "type": "Point", "coordinates": [ 138.903570175393696, 35.136062082602727 ] } },
{ "type": "Feature", "properties": { "内容": "小規模多機能介護ホームまつおか【小規模多機能型居宅介護】静岡県榛原郡川根本町徳山1683-1小規模多機能介護ホームまつおか", "url": "https://www.kaigokensaku.mhlw.go.jp/22/index.php?action_kouhyou_detail_004_kani=true&JigyosyoCd=2295500033-00&ServiceCd=730&Type=search", "url2": null }, "geometry": { "type": "Point", "coordinates": [ 138.112532699999946, 35.0747274 ] } },
{ "type": "Feature", "properties": { "内容": "小規模多機能介護ホームまつおか本川根【小規模多機能型居宅介護】静岡県榛原郡川根本町東藤川９４１－２", "url": "https://www.kaigokensaku.mhlw.go.jp/22/index.php?action_kouhyou_detail_004_kani=true&JigyosyoCd=2295500041-00&ServiceCd=730&Type=search", "url2": "https://care-matsuoka.jp" }, "geometry": { "type": "Point", "coordinates": [ 138.141106900000068, 35.1064237 ] } },
{ "type": "Feature", "properties": { "内容": "小規模多機能ホームよろず庵であい【小規模多機能型居宅介護】静岡県周智郡森町大鳥居385-1", "url": "https://www.kaigokensaku.mhlw.go.jp/22/index.php?action_kouhyou_detail_004_kani=true&JigyosyoCd=2296300078-00&ServiceCd=730&Type=search", "url2": "https://www.grass-valley2015.com" }, "geometry": { "type": "Point", "coordinates": [ 137.945283, 34.8578385 ] } },
{ "type": "Feature", "properties": { "内容": "小規模多機能ホームよろず庵【小規模多機能型居宅介護】静岡県周智郡森町草ヶ谷316番地", "url": "https://www.kaigokensaku.mhlw.go.jp/22/index.php?action_kouhyou_detail_004_kani=true&JigyosyoCd=2296300052-00&ServiceCd=730&Type=search", "url2": "https://www.grass-valley2015.com" }, "geometry": { "type": "Point", "coordinates": [ 137.914361900000017, 34.82462 ] } }
]
}
