{
"type": "FeatureCollection",
"name": "geo_22_訪問入浴介護",
"crs": { "type": "name", "properties": { "name": "urn:ogc:def:crs:OGC:1.3:CRS84" } },
"features": [
{ "type": "Feature", "properties": { "内容": "アスケア訪問入浴葵【訪問入浴介護】静岡市葵区新通2-2-18", "url": "https://www.kaigokensaku.mhlw.go.jp/22/index.php?action_kouhyou_detail_004_kani=true&JigyosyoCd=2274203773-00&ServiceCd=120&Type=search", "url2": "https://www.asahi-sun-clean.co.jp/" }, "geometry": { "type": "Point", "coordinates": [ 138.373344, 34.966779699999982 ] } },
{ "type": "Feature", "properties": { "内容": "セントケア葵【訪問入浴介護】静岡市葵区本通9-11　3F", "url": "https://www.kaigokensaku.mhlw.go.jp/22/index.php?action_kouhyou_detail_004_kani=true&JigyosyoCd=2274203260-00&ServiceCd=120&Type=search", "url2": null }, "geometry": { "type": "Point", "coordinates": [ 138.3736662, 34.9677296 ] } },
{ "type": "Feature", "properties": { "内容": "スマイル高松公園【訪問入浴介護】静岡市駿河区宮竹1-7-9", "url": "https://www.kaigokensaku.mhlw.go.jp/22/index.php?action_kouhyou_detail_004_kani=true&JigyosyoCd=2274100367-00&ServiceCd=120&Type=search", "url2": "http://www.smile-kaigo.co.jp" }, "geometry": { "type": "Point", "coordinates": [ 138.4152795, 34.954626 ] } },
{ "type": "Feature", "properties": { "内容": "アスケア訪問入浴静岡【訪問入浴介護】静岡市駿河区敷地1-25-1", "url": "https://www.kaigokensaku.mhlw.go.jp/22/index.php?action_kouhyou_detail_004_kani=true&JigyosyoCd=2274100425-00&ServiceCd=120&Type=search", "url2": "http://www.asahi-sun-clean.co.jp" }, "geometry": { "type": "Point", "coordinates": [ 138.4110743, 34.9534983 ] } },
{ "type": "Feature", "properties": { "内容": "アスケア訪問入浴静岡長田【訪問入浴介護】静岡県静岡市駿河区みずほ4丁目7-10ファミールみずほ103号", "url": "https://www.kaigokensaku.mhlw.go.jp/22/index.php?action_kouhyou_detail_004_kani=true&JigyosyoCd=2274204961-00&ServiceCd=120&Type=search", "url2": "shizuoka-osada@asahi-sun-ciean.co.jp" }, "geometry": { "type": "Point", "coordinates": [ 138.36438581130065, 34.94055974098579 ] } },
{ "type": "Feature", "properties": { "内容": "アースサポート静岡【訪問入浴介護】八幡1丁目2番12号", "url": "https://www.kaigokensaku.mhlw.go.jp/22/index.php?action_kouhyou_detail_004_kani=true&JigyosyoCd=2274101167-00&ServiceCd=120&Type=search", "url2": "https://www.earthsupport.co.jp/" }, "geometry": { "type": "Point", "coordinates": [ 139.932044499999989, 35.7214687 ] } },
{ "type": "Feature", "properties": { "内容": "セントケア駿河【訪問入浴介護】静岡市駿河区中田1-17-7", "url": "https://www.kaigokensaku.mhlw.go.jp/22/index.php?action_kouhyou_detail_004_kani=true&JigyosyoCd=2274203278-00&ServiceCd=120&Type=search", "url2": null }, "geometry": { "type": "Point", "coordinates": [ 138.391922900000054, 34.9652161 ] } },
{ "type": "Feature", "properties": { "内容": "アスケア訪問入浴清水【訪問入浴介護】静岡県静岡市清水区楠新田212-1イースリー草薙ビル2階", "url": "https://www.kaigokensaku.mhlw.go.jp/22/index.php?action_kouhyou_detail_004_kani=true&JigyosyoCd=2274201165-00&ServiceCd=120&Type=search", "url2": "shimizu@asahi-sun-clean.co.jp" }, "geometry": { "type": "Point", "coordinates": [ 138.443219224536307, 35.00636009937525 ] } },
{ "type": "Feature", "properties": { "内容": "静岡市社会福祉協議会訪問入浴サービスはーとぴあ清水【訪問入浴介護】静岡市清水区宮代町１番１号", "url": "https://www.kaigokensaku.mhlw.go.jp/22/index.php?action_kouhyou_detail_004_kani=true&JigyosyoCd=2273200077-00&ServiceCd=120&Type=search", "url2": "https://www.shizuoka-shakyo.or.jp/" }, "geometry": { "type": "Point", "coordinates": [ 138.483827799999972, 35.0240396 ] } },
{ "type": "Feature", "properties": { "内容": "セントケア清水【訪問入浴介護】静岡市清水区石川本町5－7", "url": "https://www.kaigokensaku.mhlw.go.jp/22/index.php?action_kouhyou_detail_004_kani=true&JigyosyoCd=2274203286-00&ServiceCd=120&Type=search", "url2": null }, "geometry": { "type": "Point", "coordinates": [ 138.461018500000023, 35.0308853 ] } },
{ "type": "Feature", "properties": { "内容": "静岡市社会福祉協議会　訪問入浴サービスゆい【訪問入浴介護】静岡県静岡市清水区由比北田450由比保健福祉センター", "url": "https://www.kaigokensaku.mhlw.go.jp/22/index.php?action_kouhyou_detail_004_kani=true&JigyosyoCd=2274203948-00&ServiceCd=120&Type=search", "url2": "http://www.shizuoka-shakyo.or.jp/" }, "geometry": { "type": "Point", "coordinates": [ 138.562696508598265, 35.106256362740112 ] } },
{ "type": "Feature", "properties": { "内容": "訪問入浴センター　アイケア浜松【訪問入浴介護】浜松市中区高丘北3丁目14-13", "url": "https://www.kaigokensaku.mhlw.go.jp/22/index.php?action_kouhyou_detail_004_kani=true&JigyosyoCd=2277100224-00&ServiceCd=120&Type=search", "url2": null }, "geometry": { "type": "Point", "coordinates": [ 137.697112434349037, 34.764138763439 ] } },
{ "type": "Feature", "properties": { "内容": "ニチイケアセンター浜松【訪問入浴介護】半田山4-23-21", "url": "https://www.kaigokensaku.mhlw.go.jp/22/index.php?action_kouhyou_detail_004_kani=true&JigyosyoCd=2277100951-00&ServiceCd=120&Type=search", "url2": null }, "geometry": { "type": "Point", "coordinates": [ 137.7435408, 34.7739309 ] } },
{ "type": "Feature", "properties": { "内容": "セントケア浜松入浴【訪問入浴介護】静岡県浜松市中区佐鳴台４丁目3-3", "url": "https://www.kaigokensaku.mhlw.go.jp/22/index.php?action_kouhyou_detail_004_kani=true&JigyosyoCd=2277203218-00&ServiceCd=120&Type=search", "url2": "https://www.saint-care-chubu.com/" }, "geometry": { "type": "Point", "coordinates": [ 137.702451926941819, 34.706080760948375 ] } },
{ "type": "Feature", "properties": { "内容": "浜松ケアステーション株式会社【訪問入浴介護】浜松市中央区佐鳴台4丁目37番35号", "url": "https://www.kaigokensaku.mhlw.go.jp/22/index.php?action_kouhyou_detail_004_kani=true&JigyosyoCd=2277100026-00&ServiceCd=120&Type=search", "url2": null }, "geometry": { "type": "Point", "coordinates": [ 137.700172299999963, 34.7116396 ] } },
{ "type": "Feature", "properties": { "内容": "アスケア訪問入浴浜松【訪問入浴介護】浜松市中区和合北4丁目35番12号", "url": "https://www.kaigokensaku.mhlw.go.jp/22/index.php?action_kouhyou_detail_004_kani=true&JigyosyoCd=2277100505-00&ServiceCd=120&Type=search", "url2": "http://www.asahi-sun-clean.co.jp" }, "geometry": { "type": "Point", "coordinates": [ 137.71383609999998, 34.7463638 ] } },
{ "type": "Feature", "properties": { "内容": "アスケア訪問入浴浜松東【訪問入浴介護】浜松市中央区天王町1136-1", "url": "https://www.kaigokensaku.mhlw.go.jp/22/index.php?action_kouhyou_detail_004_kani=true&JigyosyoCd=2277200339-00&ServiceCd=120&Type=search", "url2": "hamamatsu-higashi@asahi-sun-clean.co.jp" }, "geometry": { "type": "Point", "coordinates": [ 137.7734246, 34.73445 ] } },
{ "type": "Feature", "properties": { "内容": "アスケア訪問入浴浜松南【訪問入浴介護】浜松市中央区楊子町101番地コーポ瀨﨑101号室", "url": "https://www.kaigokensaku.mhlw.go.jp/22/index.php?action_kouhyou_detail_004_kani=true&JigyosyoCd=2277200552-00&ServiceCd=120&Type=search", "url2": "http://www.asahi-sun-clean.co.jp" }, "geometry": { "type": "Point", "coordinates": [ 137.745698459890406, 34.690930546080928 ] } },
{ "type": "Feature", "properties": { "内容": "長上苑【訪問入浴介護】浜松市中央区中田町584", "url": "https://www.kaigokensaku.mhlw.go.jp/22/index.php?action_kouhyou_detail_004_kani=true&JigyosyoCd=2277100208-00&ServiceCd=120&Type=search", "url2": "http://www.nanakeikai.jp" }, "geometry": { "type": "Point", "coordinates": [ 137.75912029999995, 34.7362656 ] } },
{ "type": "Feature", "properties": { "内容": "訪問入浴サービス　坂の上【訪問入浴介護】幸4-36-1", "url": "https://www.kaigokensaku.mhlw.go.jp/22/index.php?action_kouhyou_detail_004_kani=true&JigyosyoCd=2277200271-00&ServiceCd=120&Type=search", "url2": "http://www.sakanoue-fc.jp/" }, "geometry": { "type": "Point", "coordinates": [ 137.732298276801771, 34.745914916305971 ] } },
{ "type": "Feature", "properties": { "内容": "天竜厚生会訪問入浴センター【訪問入浴介護】浜松市浜北区新原4092-2", "url": "https://www.kaigokensaku.mhlw.go.jp/22/index.php?action_kouhyou_detail_004_kani=true&JigyosyoCd=2278300021-00&ServiceCd=120&Type=search", "url2": "http://www.tenryu-kohseikai.or.jp/" }, "geometry": { "type": "Point", "coordinates": [ 137.772561219275474, 34.812583713945607 ] } },
{ "type": "Feature", "properties": { "内容": "アスケア訪問入浴沼津【訪問入浴介護】静岡県沼津市吉田町3-10", "url": "https://www.kaigokensaku.mhlw.go.jp/22/index.php?action_kouhyou_detail_004_kani=true&JigyosyoCd=2271101087-00&ServiceCd=120&Type=search", "url2": "http://www.asahi-sun-clean.co.jp" }, "geometry": { "type": "Point", "coordinates": [ 138.86059, 35.092651 ] } },
{ "type": "Feature", "properties": { "内容": "コスモス沼津【訪問入浴介護】沼津市東間門１－３－３2Ｆ", "url": "https://www.kaigokensaku.mhlw.go.jp/22/index.php?action_kouhyou_detail_004_kani=true&JigyosyoCd=2271101582-00&ServiceCd=120&Type=search", "url2": "http://www.cosmos-group.co.jp/care/" }, "geometry": { "type": "Point", "coordinates": [ 138.844932299999982, 35.1013833 ] } },
{ "type": "Feature", "properties": { "内容": "ニチイケアセンター沼津中央【訪問入浴介護】静岡県沼津市我入道東町123-1", "url": "https://www.kaigokensaku.mhlw.go.jp/22/index.php?action_kouhyou_detail_004_kani=true&JigyosyoCd=2271102028-00&ServiceCd=120&Type=search", "url2": "http://www.nichiigakkann.co.jp" }, "geometry": { "type": "Point", "coordinates": [ 138.863401299999964, 35.080463 ] } },
{ "type": "Feature", "properties": { "内容": "アースサポート沼津【訪問入浴介護】静岡県沼津市岡宮755番地の1", "url": "https://www.kaigokensaku.mhlw.go.jp/22/index.php?action_kouhyou_detail_004_kani=true&JigyosyoCd=2271101277-00&ServiceCd=120&Type=search", "url2": "http://www.earthsupport.co.jp" }, "geometry": { "type": "Point", "coordinates": [ 138.866191601527333, 35.124709591874456 ] } },
{ "type": "Feature", "properties": { "内容": "ツクイ西沢田【訪問入浴介護】静岡県沼津市西沢田498－2", "url": "https://www.kaigokensaku.mhlw.go.jp/22/index.php?action_kouhyou_detail_004_kani=true&JigyosyoCd=2271103398-00&ServiceCd=120&Type=search", "url2": "https://www.tsukui.net" }, "geometry": { "type": "Point", "coordinates": [ 138.849689613850984, 35.120683665526975 ] } },
{ "type": "Feature", "properties": { "内容": "株式会社　湯らっくす【訪問入浴介護】静岡県熱海市青葉町26番40号", "url": "https://www.kaigokensaku.mhlw.go.jp/22/index.php?action_kouhyou_detail_004_kani=true&JigyosyoCd=2270500644-00&ServiceCd=120&Type=search", "url2": "http://business4.plala.or.jp/yulax/" }, "geometry": { "type": "Point", "coordinates": [ 139.051803242575005, 35.087627766007365 ] } },
{ "type": "Feature", "properties": { "内容": "アスケア訪問入浴伊豆【訪問入浴介護】静岡県熱海市清水町2-4", "url": "https://www.kaigokensaku.mhlw.go.jp/22/index.php?action_kouhyou_detail_004_kani=true&JigyosyoCd=2270500743-00&ServiceCd=120&Type=search", "url2": "http://www.asahi-sun-clean.co.jp/" }, "geometry": { "type": "Point", "coordinates": [ 139.071398984655758, 35.094296161864555 ] } },
{ "type": "Feature", "properties": { "内容": "アスケア訪問入浴三島【訪問入浴介護】栄町10-14遠藤ビル１Ｆ", "url": "https://www.kaigokensaku.mhlw.go.jp/22/index.php?action_kouhyou_detail_004_kani=true&JigyosyoCd=2270600816-00&ServiceCd=120&Type=search", "url2": "http:/www.asahi-sun-clean.co.jp" }, "geometry": { "type": "Point", "coordinates": [ 138.906594662003272, 35.118967348371875 ] } },
{ "type": "Feature", "properties": { "内容": "コスモス三島【訪問入浴介護】萩259-5", "url": "https://www.kaigokensaku.mhlw.go.jp/22/index.php?action_kouhyou_detail_004_kani=true&JigyosyoCd=2270600972-00&ServiceCd=120&Type=search", "url2": "http://www.cosmos-group.co.jp/care/" }, "geometry": { "type": "Point", "coordinates": [ 138.909357199999931, 35.1489355 ] } },
{ "type": "Feature", "properties": { "内容": "しらいと訪問入浴センター【訪問入浴介護】富士宮市上井出1285-1", "url": "https://www.kaigokensaku.mhlw.go.jp/22/index.php?action_kouhyou_detail_004_kani=true&JigyosyoCd=2272100062-00&ServiceCd=120&Type=search", "url2": "https://www.tenryu-kohseikai.or.jp/senior/shiraito" }, "geometry": { "type": "Point", "coordinates": [ 138.596279699999968, 35.310226 ] } },
{ "type": "Feature", "properties": { "内容": "セントケア富士宮【訪問入浴介護】富士宮市万野原新田３２５７－７　ヴィラフジ１０１", "url": "https://www.kaigokensaku.mhlw.go.jp/22/index.php?action_kouhyou_detail_004_kani=true&JigyosyoCd=2272100682-00&ServiceCd=120&Type=search", "url2": "http://www.saint-care-chubu.com" }, "geometry": { "type": "Point", "coordinates": [ 138.620975700000031, 35.247203 ] } },
{ "type": "Feature", "properties": { "内容": "アイグループ【訪問入浴介護】岡広町１－１４", "url": "https://www.kaigokensaku.mhlw.go.jp/22/index.php?action_kouhyou_detail_004_kani=true&JigyosyoCd=2270401256-00&ServiceCd=120&Type=search", "url2": null }, "geometry": { "type": "Point", "coordinates": [ 139.0913059, 34.9688892 ] } },
{ "type": "Feature", "properties": { "内容": "株式会社ティー・シー・エス伊東営業所【訪問入浴介護】静岡県伊東市広野4-4-21カメダハウスG号", "url": "https://www.kaigokensaku.mhlw.go.jp/22/index.php?action_kouhyou_detail_004_kani=true&JigyosyoCd=2270401090-00&ServiceCd=120&Type=search", "url2": "tcs-h.net" }, "geometry": { "type": "Point", "coordinates": [ 139.089848500000016, 34.9598398 ] } },
{ "type": "Feature", "properties": { "内容": "ツクイ島田御仮屋【訪問入浴介護】静岡県島田市御仮屋町7427-1", "url": "https://www.kaigokensaku.mhlw.go.jp/22/index.php?action_kouhyou_detail_004_kani=true&JigyosyoCd=2275401061-00&ServiceCd=120&Type=search", "url2": null }, "geometry": { "type": "Point", "coordinates": [ 138.195115664884099, 34.835342172058112 ] } },
{ "type": "Feature", "properties": { "内容": "アスケア訪問入浴富士【訪問入浴介護】静岡県富士市水戸島元町4-14", "url": "https://www.kaigokensaku.mhlw.go.jp/22/index.php?action_kouhyou_detail_004_kani=true&JigyosyoCd=2272301561-00&ServiceCd=120&Type=search", "url2": "http://www.asahi-sun-clean.co.jp" }, "geometry": { "type": "Point", "coordinates": [ 138.649390810173031, 35.149561402295106 ] } },
{ "type": "Feature", "properties": { "内容": "セントケア富士【訪問入浴介護】富士市永田町1-91　鈴木ビル1F", "url": "https://www.kaigokensaku.mhlw.go.jp/22/index.php?action_kouhyou_detail_004_kani=true&JigyosyoCd=2272301405-00&ServiceCd=120&Type=search", "url2": "https://saint-care-chubu.com/" }, "geometry": { "type": "Point", "coordinates": [ 138.67713930000005, 35.1622651 ] } },
{ "type": "Feature", "properties": { "内容": "よつば訪問入浴サービス【訪問入浴介護】静岡県磐田市大久保374-1ﾊﾟﾚﾛﾜｲﾔﾙ101", "url": "https://www.kaigokensaku.mhlw.go.jp/22/index.php?action_kouhyou_detail_004_kani=true&JigyosyoCd=2276901226-00&ServiceCd=120&Type=search", "url2": "https:www.iwata-zaitaku.com" }, "geometry": { "type": "Point", "coordinates": [ 137.850285, 34.7629179 ] } },
{ "type": "Feature", "properties": { "内容": "アスケア訪問入浴磐田【訪問入浴介護】磐田市中泉一丁目９-１中泉一丁目貸店舗１階", "url": "https://www.kaigokensaku.mhlw.go.jp/22/index.php?action_kouhyou_detail_004_kani=true&JigyosyoCd=2276900327-00&ServiceCd=120&Type=search", "url2": "http://www.asahi-sun-clean.co.jp" }, "geometry": { "type": "Point", "coordinates": [ 137.854015812776879, 34.71259468099251 ] } },
{ "type": "Feature", "properties": { "内容": "訪問入浴　きずな【訪問入浴介護】静岡県焼津市大住648-3アイランドビル102", "url": "https://www.kaigokensaku.mhlw.go.jp/22/index.php?action_kouhyou_detail_004_kani=true&JigyosyoCd=2275101679-00&ServiceCd=120&Type=search", "url2": "https://kizuna-202411.co.jp/" }, "geometry": { "type": "Point", "coordinates": [ 138.289933599999983, 34.8493331 ] } },
{ "type": "Feature", "properties": { "内容": "焼津福祉サービスセンター【訪問入浴介護】焼津市大覚寺3-2-2", "url": "https://www.kaigokensaku.mhlw.go.jp/22/index.php?action_kouhyou_detail_004_kani=true&JigyosyoCd=2275100028-00&ServiceCd=120&Type=search", "url2": "http://www.yaizu-shakyo.or.jp" }, "geometry": { "type": "Point", "coordinates": [ 138.3043864, 34.8757832 ] } },
{ "type": "Feature", "properties": { "内容": "アスケア訪問入浴焼津【訪問入浴介護】焼津市焼津二丁目４番27号イースリービル１階101号室", "url": "https://www.kaigokensaku.mhlw.go.jp/22/index.php?action_kouhyou_detail_004_kani=true&JigyosyoCd=2275100259-00&ServiceCd=120&Type=search", "url2": "http://www.asahi-sun-clean.co.jp/office/shizuoka/shizuoka_yaizu.htm" }, "geometry": { "type": "Point", "coordinates": [ 138.315537952864588, 34.865264479866411 ] } },
{ "type": "Feature", "properties": { "内容": "アスケア訪問入浴掛川【訪問入浴介護】掛川市南2丁目8－1ニュータウンビル1号", "url": "https://www.kaigokensaku.mhlw.go.jp/22/index.php?action_kouhyou_detail_004_kani=true&JigyosyoCd=2276200231-00&ServiceCd=120&Type=search", "url2": "http://www.asahi-sun-clean.co.jp" }, "geometry": { "type": "Point", "coordinates": [ 138.016798304026906, 34.76721384000215 ] } },
{ "type": "Feature", "properties": { "内容": "ニチイケアセンター掛川【訪問入浴介護】掛川市天王町5-1", "url": "https://www.kaigokensaku.mhlw.go.jp/22/index.php?action_kouhyou_detail_004_kani=true&JigyosyoCd=2276200058-00&ServiceCd=120&Type=search", "url2": null }, "geometry": { "type": "Point", "coordinates": [ 138.013585700000021, 34.7816876 ] } },
{ "type": "Feature", "properties": { "内容": "訪問入浴マリーゴールド【訪問入浴介護】静岡県藤枝市志太3-2-28ワンズライフ志太", "url": "https://www.kaigokensaku.mhlw.go.jp/22/index.php?action_kouhyou_detail_004_kani=true&JigyosyoCd=2275302004-00&ServiceCd=120&Type=search", "url2": "https://www.ops2016.com" }, "geometry": { "type": "Point", "coordinates": [ 138.249575758335908, 34.864010395307446 ] } },
{ "type": "Feature", "properties": { "内容": "ニチイケアセンター藤枝【訪問入浴介護】静岡県藤枝市瀬古2-12-4", "url": "https://www.kaigokensaku.mhlw.go.jp/22/index.php?action_kouhyou_detail_004_kani=true&JigyosyoCd=2275300115-00&ServiceCd=120&Type=search", "url2": "http://www.nichiigakkan.co.jp" }, "geometry": { "type": "Point", "coordinates": [ 138.241323800000032, 34.8638006 ] } },
{ "type": "Feature", "properties": { "内容": "アスケア訪問入浴藤枝【訪問入浴介護】静岡県藤枝市駅前1丁目4番13号林ビル1階", "url": "https://www.kaigokensaku.mhlw.go.jp/22/index.php?action_kouhyou_detail_004_kani=true&JigyosyoCd=2275300123-00&ServiceCd=120&Type=search", "url2": "http://www.asahi-sun-clean.co.jp" }, "geometry": { "type": "Point", "coordinates": [ 138.250808927647427, 34.849898098091487 ] } },
{ "type": "Feature", "properties": { "内容": "セントケア　藤枝【訪問入浴介護】藤枝市青木3-14-1　ソフィアビル1-Ｂ", "url": "https://www.kaigokensaku.mhlw.go.jp/22/index.php?action_kouhyou_detail_004_kani=true&JigyosyoCd=2275300875-00&ServiceCd=120&Type=search", "url2": null }, "geometry": { "type": "Point", "coordinates": [ 138.254788500000018, 34.8546363 ] } },
{ "type": "Feature", "properties": { "内容": "アスケア訪問入浴御殿場【訪問入浴介護】静岡県御殿場市萩原603-1外山店舗", "url": "https://www.kaigokensaku.mhlw.go.jp/22/index.php?action_kouhyou_detail_004_kani=true&JigyosyoCd=2271200368-00&ServiceCd=120&Type=search", "url2": "http://www.asahi-sun-clean.co.jp/" }, "geometry": { "type": "Point", "coordinates": [ 138.9330675, 35.3087758 ] } },
{ "type": "Feature", "properties": { "内容": "ケアセンターうばめがし下田【訪問入浴介護】静岡県下田市東本郷二丁目６－２", "url": "https://www.kaigokensaku.mhlw.go.jp/22/index.php?action_kouhyou_detail_004_kani=true&JigyosyoCd=2270200237-00&ServiceCd=120&Type=search", "url2": "ubamegashi.biz" }, "geometry": { "type": "Point", "coordinates": [ 138.945952, 34.6836496 ] } },
{ "type": "Feature", "properties": { "内容": "ニチイケアセンター相良【訪問入浴介護】牧之原市大沢４－１", "url": "https://www.kaigokensaku.mhlw.go.jp/22/index.php?action_kouhyou_detail_004_kani=true&JigyosyoCd=2275500276-00&ServiceCd=120&Type=search", "url2": "http://www.nichiigakkan.co.jp" }, "geometry": { "type": "Point", "coordinates": [ 138.195383699999979, 34.6889249 ] } },
{ "type": "Feature", "properties": { "内容": "社会福祉総合事業所おれんじ　あひる組訪問入浴【訪問入浴介護】静岡県賀茂郡東伊豆町奈良本887", "url": "https://www.kaigokensaku.mhlw.go.jp/22/index.php?action_kouhyou_detail_004_kani=true&JigyosyoCd=2270100841-00&ServiceCd=120&Type=search", "url2": "https://www.orangewelfare.net/" }, "geometry": { "type": "Point", "coordinates": [ 139.0615185, 34.8165867 ] } },
{ "type": "Feature", "properties": { "内容": "社会福祉法人河津町社会福祉協議会指定訪問入浴介護事業所【訪問入浴介護】静岡県賀茂郡河津町田中212番地の2河津町保健福祉センター", "url": "https://www.kaigokensaku.mhlw.go.jp/22/index.php?action_kouhyou_detail_004_kani=true&JigyosyoCd=2270100031-00&ServiceCd=120&Type=search", "url2": "https://www.kawazu-shakyo.com" }, "geometry": { "type": "Point", "coordinates": [ 138.987482099999966, 34.7572519 ] } },
{ "type": "Feature", "properties": { "内容": "アスケア訪問入浴西伊豆【訪問入浴介護】賀茂郡西伊豆町仁科字下耕地486番1T.S2Ｆ左", "url": "https://www.kaigokensaku.mhlw.go.jp/22/index.php?action_kouhyou_detail_004_kani=true&JigyosyoCd=2270100833-00&ServiceCd=120&Type=search", "url2": "http://www.asahi-sun-clean.co.jp" }, "geometry": { "type": "Point", "coordinates": [ 138.773188705665575, 34.771682148937245 ] } },
{ "type": "Feature", "properties": { "内容": "アスケア訪問入浴吉田【訪問入浴介護】静岡県榛原郡吉田町神戸3333-1", "url": "https://www.kaigokensaku.mhlw.go.jp/22/index.php?action_kouhyou_detail_004_kani=true&JigyosyoCd=2275500821-00&ServiceCd=120&Type=search", "url2": "http://www.asahi-sun-clean.co.jp/" }, "geometry": { "type": "Point", "coordinates": [ 138.228267289861151, 34.785628315199673 ] } }
]
}
