{
"type": "FeatureCollection",
"name": "geo_22_定期巡回・随時対応型訪問介護看護",
"crs": { "type": "name", "properties": { "name": "urn:ogc:def:crs:OGC:1.3:CRS84" } },
"features": [
{ "type": "Feature", "properties": { "内容": "スマイル岳美【定期巡回・随時対応型訪問介護看護】静岡県静岡市葵区岳美1-11-23", "url": "https://www.kaigokensaku.mhlw.go.jp/22/index.php?action_kouhyou_detail_004_kani=true&JigyosyoCd=2294202722-00&ServiceCd=760&Type=search", "url2": "smile-kaigo.net" }, "geometry": { "type": "Point", "coordinates": [ 138.388128099999989, 35.0070574 ] } },
{ "type": "Feature", "properties": { "内容": "アクタガワ　ハートライフ千代田【定期巡回・随時対応型訪問介護看護】静岡市葵区千代田6-14-4", "url": "https://www.kaigokensaku.mhlw.go.jp/22/index.php?action_kouhyou_detail_004_kani=true&JigyosyoCd=2294201120-00&ServiceCd=760&Type=search", "url2": "https://www.akutagawa-heartlife.jp" }, "geometry": { "type": "Point", "coordinates": [ 138.407216890212993, 34.998197243820364 ] } },
{ "type": "Feature", "properties": { "内容": "定期巡回随時対応型訪問介護看護　国吉田【定期巡回・随時対応型訪問介護看護】静岡県静岡市駿河区国吉田6丁目6番6号", "url": "https://www.kaigokensaku.mhlw.go.jp/22/index.php?action_kouhyou_detail_004_kani=true&JigyosyoCd=2294201823-00&ServiceCd=760&Type=search", "url2": "http://www.shujikai.jp" }, "geometry": { "type": "Point", "coordinates": [ 138.436178739065099, 34.988058336175513 ] } },
{ "type": "Feature", "properties": { "内容": "24時間定期巡回訪問　有度の里【定期巡回・随時対応型訪問介護看護】静岡市清水区長崎新田３１１", "url": "https://www.kaigokensaku.mhlw.go.jp/22/index.php?action_kouhyou_detail_004_kani=true&JigyosyoCd=2294201112-00&ServiceCd=760&Type=search", "url2": "http://www.udonosato.com/" }, "geometry": { "type": "Point", "coordinates": [ 138.44835050000006, 35.0166922 ] } },
{ "type": "Feature", "properties": { "内容": "元気ケア24草薙【定期巡回・随時対応型訪問介護看護】静岡県静岡市清水区楠新田370-2", "url": "https://www.kaigokensaku.mhlw.go.jp/22/index.php?action_kouhyou_detail_004_kani=true&JigyosyoCd=2294202789-00&ServiceCd=760&Type=search", "url2": "http://www.genkihiroba.jp/genkicare24" }, "geometry": { "type": "Point", "coordinates": [ 138.442818100000011, 35.0076717 ] } },
{ "type": "Feature", "properties": { "内容": "長上苑巡回型ケアセンター【定期巡回・随時対応型訪問介護看護】中島二丁目7番8号", "url": "https://www.kaigokensaku.mhlw.go.jp/22/index.php?action_kouhyou_detail_004_kani=true&JigyosyoCd=2297200731-00&ServiceCd=760&Type=search", "url2": "https://www.nanakeikai.jp/elderly/teiki/" }, "geometry": { "type": "Point", "coordinates": [ 139.71624989999998, 35.5286838 ] } },
{ "type": "Feature", "properties": { "内容": "巡回型訪問サービスセンターアイケア浜松【定期巡回・随時対応型訪問介護看護】浜松市中央区上島五丁目12番1号", "url": "https://www.kaigokensaku.mhlw.go.jp/22/index.php?action_kouhyou_detail_004_kani=true&JigyosyoCd=2297200509-00&ServiceCd=760&Type=search", "url2": "https://www.aicare.co.jp/about/" }, "geometry": { "type": "Point", "coordinates": [ 137.743607800000063, 34.74312290000001 ] } },
{ "type": "Feature", "properties": { "内容": "櫻乃苑　浜松富塚【定期巡回・随時対応型訪問介護看護】静岡県浜松市中央区富塚町1040-3", "url": "https://www.kaigokensaku.mhlw.go.jp/22/index.php?action_kouhyou_detail_004_kani=true&JigyosyoCd=2297200665-00&ServiceCd=760&Type=search", "url2": "http://www.sakuranosono.jp" }, "geometry": { "type": "Point", "coordinates": [ 137.714597700000013, 34.730974 ] } },
{ "type": "Feature", "properties": { "内容": "櫻乃苑　浜松天竜【定期巡回・随時対応型訪問介護看護】静岡県浜松市天竜区二俣町二俣56-1", "url": "https://www.kaigokensaku.mhlw.go.jp/22/index.php?action_kouhyou_detail_004_kani=true&JigyosyoCd=2297200525-00&ServiceCd=760&Type=search", "url2": "http://www.sakuranosono.jp/" }, "geometry": { "type": "Point", "coordinates": [ 137.81679280000003, 34.8595592 ] } },
{ "type": "Feature", "properties": { "内容": "あしたかホーム巡回型ホームヘルプサービス【定期巡回・随時対応型訪問介護看護】静岡県沼津市東椎路1639-1プレーゲあしたか内", "url": "https://www.kaigokensaku.mhlw.go.jp/22/index.php?action_kouhyou_detail_004_kani=true&JigyosyoCd=2291100135-00&ServiceCd=760&Type=search", "url2": "pflege-ashitaka@lake.ocn.jp" }, "geometry": { "type": "Point", "coordinates": [ 138.832560199999989, 35.130406 ] } },
{ "type": "Feature", "properties": { "内容": "きせがわ定期巡回・随時対応型訪問介護看護事業所【定期巡回・随時対応型訪問介護看護】静岡県沼津市大岡1155", "url": "https://www.kaigokensaku.mhlw.go.jp/22/index.php?action_kouhyou_detail_004_kani=true&JigyosyoCd=2291100150-00&ServiceCd=760&Type=search", "url2": "http://shinyoukai.or.jp/kisegawa/supportcenter/regularvisit.php" }, "geometry": { "type": "Point", "coordinates": [ 138.881035600000018, 35.1041564 ] } },
{ "type": "Feature", "properties": { "内容": "定期巡回アウラ【定期巡回・随時対応型訪問介護看護】静岡県沼津市三枚橋日の出町386-7コーポ甲南201号", "url": "https://www.kaigokensaku.mhlw.go.jp/22/index.php?action_kouhyou_detail_004_kani=true&JigyosyoCd=2291100432-00&ServiceCd=760&Type=search", "url2": "https://www.lotuscare-aura.com/" }, "geometry": { "type": "Point", "coordinates": [ 138.867556091848797, 35.111483175997357 ] } },
{ "type": "Feature", "properties": { "内容": "いづテラス定期巡回・随時対応型訪問介護看護事業所【定期巡回・随時対応型訪問介護看護】静岡県三島市松本39-3", "url": "https://www.kaigokensaku.mhlw.go.jp/22/index.php?action_kouhyou_detail_004_kani=true&JigyosyoCd=2290600093-00&ServiceCd=760&Type=search", "url2": null }, "geometry": { "type": "Point", "coordinates": [ 138.917731355294791, 35.093406333385779 ] } },
{ "type": "Feature", "properties": { "内容": "リブイン富士宮定期巡回訪問介護看護【定期巡回・随時対応型訪問介護看護】弓沢町　932", "url": "https://www.kaigokensaku.mhlw.go.jp/22/index.php?action_kouhyou_detail_004_kani=true&JigyosyoCd=2292100472-00&ServiceCd=760&Type=search", "url2": null }, "geometry": { "type": "Point", "coordinates": [ 138.626539, 35.221484 ] } },
{ "type": "Feature", "properties": { "内容": "伊豆介護センター【定期巡回・随時対応型訪問介護看護】音無町5-6有限会社伊豆介護センター（本社）", "url": "https://www.kaigokensaku.mhlw.go.jp/22/index.php?action_kouhyou_detail_004_kani=true&JigyosyoCd=2290400049-00&ServiceCd=760&Type=search", "url2": "http://www.izukaigo.com/" }, "geometry": { "type": "Point", "coordinates": [ 139.095639500000061, 34.9654868 ] } },
{ "type": "Feature", "properties": { "内容": "ヒューマンヒルズ新富士【定期巡回・随時対応型訪問介護看護】静岡県富士市柳島198番地3", "url": "https://www.kaigokensaku.mhlw.go.jp/22/index.php?action_kouhyou_detail_004_kani=true&JigyosyoCd=2292300551-00&ServiceCd=760&Type=search", "url2": "http://fmc-hh.co.jp/index.html" }, "geometry": { "type": "Point", "coordinates": [ 138.666557, 35.1433784 ] } },
{ "type": "Feature", "properties": { "内容": "巡回型訪問サービスセンターアイケア磐田【定期巡回・随時対応型訪問介護看護】静岡県磐田市新貝二丁目１番地3おおるり新貝", "url": "https://www.kaigokensaku.mhlw.go.jp/22/index.php?action_kouhyou_detail_004_kani=true&JigyosyoCd=2296900117-00&ServiceCd=760&Type=search", "url2": "http://www.aicare.co.jp/" }, "geometry": { "type": "Point", "coordinates": [ 137.886079, 34.723122899999986 ] } },
{ "type": "Feature", "properties": { "内容": "こころとからだ　やさしさに包まれて【定期巡回・随時対応型訪問介護看護】静岡県焼津市下江留1398-1", "url": "https://www.kaigokensaku.mhlw.go.jp/22/index.php?action_kouhyou_detail_004_kani=true&JigyosyoCd=2295100297-00&ServiceCd=760&Type=search", "url2": "https://www.gonbee.info" }, "geometry": { "type": "Point", "coordinates": [ 138.2766859, 34.8036525 ] } },
{ "type": "Feature", "properties": { "内容": "定期巡回・随時対応型訪問介護看護【定期巡回・随時対応型訪問介護看護】藤枝市小石川町2-8-13", "url": "https://www.kaigokensaku.mhlw.go.jp/22/index.php?action_kouhyou_detail_004_kani=true&JigyosyoCd=2295300301-00&ServiceCd=760&Type=search", "url2": "http://www.forestafujieda.jp" }, "geometry": { "type": "Point", "coordinates": [ 138.25650829999995, 34.8565868 ] } }
]
}
