{
"type": "FeatureCollection",
"name": "geo_22_4",
"crs": { "type": "name", "properties": { "name": "urn:ogc:def:crs:OGC:1.3:CRS84" } },
"features": [
{ "type": "Feature", "properties": { "ID": 2245222300020, "正式名称": "出張専門しもむら助産院", "機関区分": 4, "都道府県コード": 22, "市区町村コード": 103, "所在地": "静岡県静岡市清水区下野東１－８１－２", "緯度": 35.034384, "経度": 138.471777, "url": "https://www.iryou.teikyouseido.mhlw.go.jp/znk-web/juminkanja/S2430/initialize?prefCd=22&kikanCd=5222300020&kikanKbn=4", "url2": null, "内容": "出張専門しもむら助産院【4:助産院】静岡県静岡市清水区下野東１－８１－２" }, "geometry": { "type": "Point", "coordinates": [ 138.471777, 35.034384 ] } },
{ "type": "Feature", "properties": { "ID": 2245222300021, "正式名称": "アロハ助産院", "機関区分": 4, "都道府県コード": 22, "市区町村コード": 103, "所在地": "静岡県静岡市清水区木の下町４４番地の１", "緯度": 35.004178, "経度": 138.469963, "url": "https://www.iryou.teikyouseido.mhlw.go.jp/znk-web/juminkanja/S2430/initialize?prefCd=22&kikanCd=5222300021&kikanKbn=4", "url2": "http://ohana-clinic-kinoshitacho.com/", "内容": "アロハ助産院【4:助産院】静岡県静岡市清水区木の下町４４番地の１" }, "geometry": { "type": "Point", "coordinates": [ 138.469963, 35.004178 ] } },
{ "type": "Feature", "properties": { "ID": 2245222580150, "正式名称": "富士母乳育児相談室", "機関区分": 4, "都道府県コード": 22, "市区町村コード": 210, "所在地": "静岡県富士市瓜島町１３７メゾン瓜島Ｃ１０２", "緯度": 35.163961, "経度": 138.672945, "url": "https://www.iryou.teikyouseido.mhlw.go.jp/znk-web/juminkanja/S2430/initialize?prefCd=22&kikanCd=5222580150&kikanKbn=4", "url2": "https://www.fuji-bonyuu.com", "内容": "富士母乳育児相談室【4:助産院】静岡県富士市瓜島町１３７メゾン瓜島Ｃ１０２" }, "geometry": { "type": "Point", "coordinates": [ 138.672945, 35.163961 ] } },
{ "type": "Feature", "properties": { "ID": 2245225200150, "正式名称": "ふじべ助産院", "機関区分": 4, "都道府県コード": 22, "市区町村コード": 301, "所在地": "静岡県賀茂郡東伊豆町稲取３０２１－５", "緯度": 34.779471, "経度": 139.045555, "url": "https://www.iryou.teikyouseido.mhlw.go.jp/znk-web/juminkanja/S2430/initialize?prefCd=22&kikanCd=5225200150&kikanKbn=4", "url2": null, "内容": "ふじべ助産院【4:助産院】静岡県賀茂郡東伊豆町稲取３０２１－５" }, "geometry": { "type": "Point", "coordinates": [ 139.045555, 34.779471 ] } },
{ "type": "Feature", "properties": { "ID": 2245225300230, "正式名称": "すずのき助産院", "機関区分": 4, "都道府県コード": 22, "市区町村コード": 208, "所在地": "静岡県伊東市宇佐美１１７７－３", "緯度": 35.011375, "経度": 139.076794, "url": "https://www.iryou.teikyouseido.mhlw.go.jp/znk-web/juminkanja/S2430/initialize?prefCd=22&kikanCd=5225300230&kikanKbn=4", "url2": null, "内容": "すずのき助産院【4:助産院】静岡県伊東市宇佐美１１７７－３" }, "geometry": { "type": "Point", "coordinates": [ 139.076794, 35.011375 ] } },
{ "type": "Feature", "properties": { "ID": 2245225700230, "正式名称": "小沼母乳育児相談室", "機関区分": 4, "都道府県コード": 22, "市区町村コード": 215, "所在地": "静岡県御殿場市川島田１‐１０", "緯度": 35.286754, "経度": 138.927738, "url": "https://www.iryou.teikyouseido.mhlw.go.jp/znk-web/juminkanja/S2430/initialize?prefCd=22&kikanCd=5225700230&kikanKbn=4", "url2": null, "内容": "小沼母乳育児相談室【4:助産院】静岡県御殿場市川島田１‐１０" }, "geometry": { "type": "Point", "coordinates": [ 138.927738, 35.286754 ] } },
{ "type": "Feature", "properties": { "ID": 2245225700560, "正式名称": "助産院ＮＩＣＯ", "機関区分": 4, "都道府県コード": 22, "市区町村コード": 215, "所在地": "静岡県御殿場市川島田１８８０－２３", "緯度": 35.302893, "経度": 138.905655, "url": "https://www.iryou.teikyouseido.mhlw.go.jp/znk-web/juminkanja/S2430/initialize?prefCd=22&kikanCd=5225700560&kikanKbn=4", "url2": "jyosanin-nico.com", "内容": "助産院ＮＩＣＯ【4:助産院】静岡県御殿場市川島田１８８０－２３" }, "geometry": { "type": "Point", "coordinates": [ 138.905655, 35.302893 ] } },
{ "type": "Feature", "properties": { "ID": 2245225800420, "正式名称": "菜桜助産所", "機関区分": 4, "都道府県コード": 22, "市区町村コード": 210, "所在地": "静岡県富士市宮島１０６２－８", "緯度": 35.131041, "経度": 138.661547, "url": "https://www.iryou.teikyouseido.mhlw.go.jp/znk-web/juminkanja/S2430/initialize?prefCd=22&kikanCd=5225800420&kikanKbn=4", "url2": "http://nao-sanba.com", "内容": "菜桜助産所【4:助産院】静岡県富士市宮島１０６２－８" }, "geometry": { "type": "Point", "coordinates": [ 138.661547, 35.131041 ] } },
{ "type": "Feature", "properties": { "ID": 2245225800840, "正式名称": "Ｓｅｘｕａｌ　＆　Ｒｅｐｒｏｄｕｃｔｉｖｅ　Ｈｅａｌｔｈ　Ｃａｒｅ　Ｈｏｕｓｅ", "機関区分": 4, "都道府県コード": 22, "市区町村コード": 207, "所在地": "静岡県富士宮市小泉２３９１－２４", "緯度": 35.220277, "経度": 138.642925, "url": "https://www.iryou.teikyouseido.mhlw.go.jp/znk-web/juminkanja/S2430/initialize?prefCd=22&kikanCd=5225800840&kikanKbn=4", "url2": null, "内容": "Ｓｅｘｕａｌ　＆　Ｒｅｐｒｏｄｕｃｔｉｖｅ　Ｈｅａｌｔｈ　Ｃａｒｅ　Ｈｏｕｓｅ【4:助産院】静岡県富士宮市小泉２３９１－２４" }, "geometry": { "type": "Point", "coordinates": [ 138.642925, 35.220277 ] } },
{ "type": "Feature", "properties": { "ID": 2245225801050, "正式名称": "あお助産院", "機関区分": 4, "都道府県コード": 22, "市区町村コード": 207, "所在地": "静岡県富士宮市山宮１１－１１", "緯度": 35.257, "経度": 138.633582, "url": "https://www.iryou.teikyouseido.mhlw.go.jp/znk-web/juminkanja/S2430/initialize?prefCd=22&kikanCd=5225801050&kikanKbn=4", "url2": "http://ikujijutsu.com/", "内容": "あお助産院【4:助産院】静岡県富士宮市山宮１１－１１" }, "geometry": { "type": "Point", "coordinates": [ 138.633582, 35.257 ] } },
{ "type": "Feature", "properties": { "ID": 2245225801180, "正式名称": "ふじの宮助産院", "機関区分": 4, "都道府県コード": 22, "市区町村コード": 207, "所在地": "静岡県富士宮市沼久保６２４－１", "緯度": 35.196985, "経度": 138.593256, "url": "https://www.iryou.teikyouseido.mhlw.go.jp/znk-web/juminkanja/S2430/initialize?prefCd=22&kikanCd=5225801180&kikanKbn=4", "url2": "https://fujinomiya-josanin.jp", "内容": "ふじの宮助産院【4:助産院】静岡県富士宮市沼久保６２４－１" }, "geometry": { "type": "Point", "coordinates": [ 138.593256, 35.196985 ] } },
{ "type": "Feature", "properties": { "ID": 2245225801470, "正式名称": "訪問専門助産院　マミーズテラスｃｏｕ－ｃｏｕ", "機関区分": 4, "都道府県コード": 22, "市区町村コード": 210, "所在地": "静岡県富士市岩本９３―１８", "緯度": 35.173669, "経度": 138.63947, "url": "https://www.iryou.teikyouseido.mhlw.go.jp/znk-web/juminkanja/S2430/initialize?prefCd=22&kikanCd=5225801470&kikanKbn=4", "url2": "https://sites.google.com/view/terrassecoucou/home", "内容": "訪問専門助産院　マミーズテラスｃｏｕ－ｃｏｕ【4:助産院】静岡県富士市岩本９３―１８" }, "geometry": { "type": "Point", "coordinates": [ 138.63947, 35.173669 ] } },
{ "type": "Feature", "properties": { "ID": 2245226000100, "正式名称": "渡辺助産院", "機関区分": 4, "都道府県コード": 22, "市区町村コード": 101, "所在地": "静岡県静岡市葵区上足洗一丁目４－１", "緯度": 34.988874, "経度": 138.393364, "url": "https://www.iryou.teikyouseido.mhlw.go.jp/znk-web/juminkanja/S2430/initialize?prefCd=22&kikanCd=5226000100&kikanKbn=4", "url2": "http://www.watanabejosanin.com/", "内容": "渡辺助産院【4:助産院】静岡県静岡市葵区上足洗一丁目４－１" }, "geometry": { "type": "Point", "coordinates": [ 138.393364, 34.988874 ] } },
{ "type": "Feature", "properties": { "ID": 2245226000230, "正式名称": "くさの助産院", "機関区分": 4, "都道府県コード": 22, "市区町村コード": 101, "所在地": "静岡県静岡市葵区瀬名川三丁目１４－１３", "緯度": 35.007151, "経度": 138.433099, "url": "https://www.iryou.teikyouseido.mhlw.go.jp/znk-web/juminkanja/S2430/initialize?prefCd=22&kikanCd=5226000230&kikanKbn=4", "url2": "http://kusano-j.com", "内容": "くさの助産院【4:助産院】静岡県静岡市葵区瀬名川三丁目１４－１３" }, "geometry": { "type": "Point", "coordinates": [ 138.433099, 35.007151 ] } },
{ "type": "Feature", "properties": { "ID": 2245226000490, "正式名称": "己智助産所", "機関区分": 4, "都道府県コード": 22, "市区町村コード": 102, "所在地": "静岡県静岡市駿河区有東二丁目５－５－１", "緯度": 34.963443, "経度": 138.405798, "url": "https://www.iryou.teikyouseido.mhlw.go.jp/znk-web/juminkanja/S2430/initialize?prefCd=22&kikanCd=5226000490&kikanKbn=4", "url2": "http://www4.tokai.or.jp/michi-josanjo/", "内容": "己智助産所【4:助産院】静岡県静岡市駿河区有東二丁目５－５－１" }, "geometry": { "type": "Point", "coordinates": [ 138.405798, 34.963443 ] } },
{ "type": "Feature", "properties": { "ID": 2245226000650, "正式名称": "たまがわ助産院", "機関区分": 4, "都道府県コード": 22, "市区町村コード": 101, "所在地": "静岡県静岡市葵区瀬名三丁目３９番１０号", "緯度": 35.022669, "経度": 138.424311, "url": "https://www.iryou.teikyouseido.mhlw.go.jp/znk-web/juminkanja/S2430/initialize?prefCd=22&kikanCd=5226000650&kikanKbn=4", "url2": "http://www.tamagawa-j.com/", "内容": "たまがわ助産院【4:助産院】静岡県静岡市葵区瀬名三丁目３９番１０号" }, "geometry": { "type": "Point", "coordinates": [ 138.424311, 35.022669 ] } },
{ "type": "Feature", "properties": { "ID": 2245226001080, "正式名称": "Ａｍｉ助産院", "機関区分": 4, "都道府県コード": 22, "市区町村コード": 101, "所在地": "静岡県静岡市葵区大岩一丁目４－３０", "緯度": 34.993357, "経度": 138.381831, "url": "https://www.iryou.teikyouseido.mhlw.go.jp/znk-web/juminkanja/S2430/initialize?prefCd=22&kikanCd=5226001080&kikanKbn=4", "url2": "https://ami-san.com", "内容": "Ａｍｉ助産院【4:助産院】静岡県静岡市葵区大岩一丁目４－３０" }, "geometry": { "type": "Point", "coordinates": [ 138.381831, 34.993357 ] } },
{ "type": "Feature", "properties": { "ID": 2245226002090, "正式名称": "おしか助産院", "機関区分": 4, "都道府県コード": 22, "市区町村コード": 102, "所在地": "静岡県静岡市駿河区小鹿１３６６‐１１", "緯度": 34.971141, "経度": 138.432916, "url": "https://www.iryou.teikyouseido.mhlw.go.jp/znk-web/juminkanja/S2430/initialize?prefCd=22&kikanCd=5226002090&kikanKbn=4", "url2": "http://www.o-baby.jp/oshikajosanin.html", "内容": "おしか助産院【4:助産院】静岡県静岡市駿河区小鹿１３６６‐１１" }, "geometry": { "type": "Point", "coordinates": [ 138.432916, 34.971141 ] } },
{ "type": "Feature", "properties": { "ID": 2245226002120, "正式名称": "篠田母乳育児相談室", "機関区分": 4, "都道府県コード": 22, "市区町村コード": 103, "所在地": "静岡県静岡市清水区入江岡町３番２０号", "緯度": 35.013235, "経度": 138.48171, "url": "https://www.iryou.teikyouseido.mhlw.go.jp/znk-web/juminkanja/S2430/initialize?prefCd=22&kikanCd=5226002120&kikanKbn=4", "url2": "http://www.k-shinoda.com", "内容": "篠田母乳育児相談室【4:助産院】静岡県静岡市清水区入江岡町３番２０号" }, "geometry": { "type": "Point", "coordinates": [ 138.48171, 35.013235 ] } },
{ "type": "Feature", "properties": { "ID": 2245226002380, "正式名称": "にこ相談室", "機関区分": 4, "都道府県コード": 22, "市区町村コード": 102, "所在地": "静岡県静岡市駿河区中田本町４６番３３号", "緯度": 34.953265, "経度": 138.395835, "url": "https://www.iryou.teikyouseido.mhlw.go.jp/znk-web/juminkanja/S2430/initialize?prefCd=22&kikanCd=5226002380&kikanKbn=4", "url2": null, "内容": "にこ相談室【4:助産院】静岡県静岡市駿河区中田本町４６番３３号" }, "geometry": { "type": "Point", "coordinates": [ 138.395835, 34.953265 ] } },
{ "type": "Feature", "properties": { "ID": 2245226002410, "正式名称": "助産院　母乳ケア　たんぽぽ", "機関区分": 4, "都道府県コード": 22, "市区町村コード": 103, "所在地": "静岡県静岡市清水区中河内７３０－３", "緯度": 35.121272, "経度": 138.479767, "url": "https://www.iryou.teikyouseido.mhlw.go.jp/znk-web/juminkanja/S2430/initialize?prefCd=22&kikanCd=5226002410&kikanKbn=4", "url2": "http://www.tanpopo-oh.com", "内容": "助産院　母乳ケア　たんぽぽ【4:助産院】静岡県静岡市清水区中河内７３０－３" }, "geometry": { "type": "Point", "coordinates": [ 138.479767, 35.121272 ] } },
{ "type": "Feature", "properties": { "ID": 2245226002540, "正式名称": "ぶどうの木助産院", "機関区分": 4, "都道府県コード": 22, "市区町村コード": 102, "所在地": "静岡県静岡市駿河区中村町１６番地の４", "緯度": 34.954573, "経度": 138.393193, "url": "https://www.iryou.teikyouseido.mhlw.go.jp/znk-web/juminkanja/S2430/initialize?prefCd=22&kikanCd=5226002540&kikanKbn=4", "url2": "http://budounoki2011.com/", "内容": "ぶどうの木助産院【4:助産院】静岡県静岡市駿河区中村町１６番地の４" }, "geometry": { "type": "Point", "coordinates": [ 138.393193, 34.954573 ] } },
{ "type": "Feature", "properties": { "ID": 2245226002700, "正式名称": "いぶきの助産院", "機関区分": 4, "都道府県コード": 22, "市区町村コード": 102, "所在地": "静岡県静岡市駿河区丸子五丁目１８番２０号", "緯度": 34.941928, "経度": 138.351904, "url": "https://www.iryou.teikyouseido.mhlw.go.jp/znk-web/juminkanja/S2430/initialize?prefCd=22&kikanCd=5226002700&kikanKbn=4", "url2": "https://www.ibukinoj.com/", "内容": "いぶきの助産院【4:助産院】静岡県静岡市駿河区丸子五丁目１８番２０号" }, "geometry": { "type": "Point", "coordinates": [ 138.351904, 34.941928 ] } },
{ "type": "Feature", "properties": { "ID": 2245226002830, "正式名称": "まき助産院", "機関区分": 4, "都道府県コード": 22, "市区町村コード": 101, "所在地": "静岡県静岡市葵区与一３丁目４番１６号", "緯度": 35.009528, "経度": 138.368659, "url": "https://www.iryou.teikyouseido.mhlw.go.jp/znk-web/juminkanja/S2430/initialize?prefCd=22&kikanCd=5226002830&kikanKbn=4", "url2": "http://makijo.com", "内容": "まき助産院【4:助産院】静岡県静岡市葵区与一３丁目４番１６号" }, "geometry": { "type": "Point", "coordinates": [ 138.368659, 35.009528 ] } },
{ "type": "Feature", "properties": { "ID": 2245226003550, "正式名称": "いなば助産院", "機関区分": 4, "都道府県コード": 22, "市区町村コード": 101, "所在地": "静岡県静岡市葵区瀬名川三丁目１３番４４号", "緯度": 35.007624, "経度": 138.43312, "url": "https://www.iryou.teikyouseido.mhlw.go.jp/znk-web/juminkanja/S2430/initialize?prefCd=22&kikanCd=5226003550&kikanKbn=4", "url2": null, "内容": "いなば助産院【4:助産院】静岡県静岡市葵区瀬名川三丁目１３番４４号" }, "geometry": { "type": "Point", "coordinates": [ 138.43312, 35.007624 ] } },
{ "type": "Feature", "properties": { "ID": 2245226003710, "正式名称": "助産院ｊａｓｍｉｎｅ～茉莉花～", "機関区分": 4, "都道府県コード": 22, "市区町村コード": 103, "所在地": "静岡県静岡市清水区草薙杉道一丁目１番３号", "緯度": 35.005228, "経度": 138.45384, "url": "https://www.iryou.teikyouseido.mhlw.go.jp/znk-web/juminkanja/S2430/initialize?prefCd=22&kikanCd=5226003710&kikanKbn=4", "url2": "jasmine.themedia.jp", "内容": "助産院ｊａｓｍｉｎｅ～茉莉花～【4:助産院】静岡県静岡市清水区草薙杉道一丁目１番３号" }, "geometry": { "type": "Point", "coordinates": [ 138.45384, 35.005228 ] } },
{ "type": "Feature", "properties": { "ID": 2245226003840, "正式名称": "助産院こうのとり", "機関区分": 4, "都道府県コード": 22, "市区町村コード": 102, "所在地": "静岡県静岡市駿河区栗原２６番１４－５号", "緯度": 34.988705, "経度": 138.433223, "url": "https://www.iryou.teikyouseido.mhlw.go.jp/znk-web/juminkanja/S2430/initialize?prefCd=22&kikanCd=5226003840&kikanKbn=4", "url2": "https://www.whitestork.net/", "内容": "助産院こうのとり【4:助産院】静岡県静岡市駿河区栗原２６番１４－５号" }, "geometry": { "type": "Point", "coordinates": [ 138.433223, 34.988705 ] } },
{ "type": "Feature", "properties": { "ID": 2245226003970, "正式名称": "助産院はなはっか", "機関区分": 4, "都道府県コード": 22, "市区町村コード": 102, "所在地": "静岡県静岡市駿河区中島１１６８ー２ー１", "緯度": 34.938413, "経度": 138.395202, "url": "https://www.iryou.teikyouseido.mhlw.go.jp/znk-web/juminkanja/S2430/initialize?prefCd=22&kikanCd=5226003970&kikanKbn=4", "url2": "https://megpmume225.wixsite.com/jyosanin-hanahakka", "内容": "助産院はなはっか【4:助産院】静岡県静岡市駿河区中島１１６８ー２ー１" }, "geometry": { "type": "Point", "coordinates": [ 138.395202, 34.938413 ] } },
{ "type": "Feature", "properties": { "ID": 2245227100300, "正式名称": "桃太郎助産院", "機関区分": 4, "都道府県コード": 22, "市区町村コード": 222, "所在地": "静岡県伊豆市日向６７０－１", "緯度": 34.964092, "経度": 138.947864, "url": "https://www.iryou.teikyouseido.mhlw.go.jp/znk-web/juminkanja/S2430/initialize?prefCd=22&kikanCd=5227100300&kikanKbn=4", "url2": "www.momo-f.com/_5k", "内容": "桃太郎助産院【4:助産院】静岡県伊豆市日向６７０－１" }, "geometry": { "type": "Point", "coordinates": [ 138.947864, 34.964092 ] } },
{ "type": "Feature", "properties": { "ID": 2245227100560, "正式名称": "よしこ○助産院○", "機関区分": 4, "都道府県コード": 22, "市区町村コード": 203, "所在地": "静岡県沼津市錦町６７４－２　エル・パラシオ１０２", "緯度": 35.101444, "経度": 138.850241, "url": "https://www.iryou.teikyouseido.mhlw.go.jp/znk-web/juminkanja/S2430/initialize?prefCd=22&kikanCd=5227100560&kikanKbn=4", "url2": "http://tsutsumishiki.com/", "内容": "よしこ○助産院○【4:助産院】静岡県沼津市錦町６７４－２　エル・パラシオ１０２" }, "geometry": { "type": "Point", "coordinates": [ 138.850241, 35.101444 ] } },
{ "type": "Feature", "properties": { "ID": 2245227100850, "正式名称": "さくらんぼ助産院", "機関区分": 4, "都道府県コード": 22, "市区町村コード": 203, "所在地": "静岡県沼津市大平（出張のみ）", "緯度": 35.070564, "経度": 138.90167, "url": "https://www.iryou.teikyouseido.mhlw.go.jp/znk-web/juminkanja/S2430/initialize?prefCd=22&kikanCd=5227100850&kikanKbn=4", "url2": "http://sakuranbo.iinaa.net", "内容": "さくらんぼ助産院【4:助産院】静岡県沼津市大平（出張のみ）" }, "geometry": { "type": "Point", "coordinates": [ 138.90167, 35.070564 ] } },
{ "type": "Feature", "properties": { "ID": 2245227180790, "正式名称": "マミーケアルーム３８ｍｗ", "機関区分": 4, "都道府県コード": 22, "市区町村コード": 206, "所在地": "静岡県三島市幸原町２－１０－２１", "緯度": 35.140492, "経度": 138.908366, "url": "https://www.iryou.teikyouseido.mhlw.go.jp/znk-web/juminkanja/S2430/initialize?prefCd=22&kikanCd=5227180790&kikanKbn=4", "url2": "http://38mw.com/", "内容": "マミーケアルーム３８ｍｗ【4:助産院】静岡県三島市幸原町２－１０－２１" }, "geometry": { "type": "Point", "coordinates": [ 138.908366, 35.140492 ] } },
{ "type": "Feature", "properties": { "ID": 2245227181020, "正式名称": "山下助産院", "機関区分": 4, "都道府県コード": 22, "市区町村コード": 222, "所在地": "静岡県伊豆市（出張のみ）", "緯度": 34.978592, "経度": 138.9495, "url": "https://www.iryou.teikyouseido.mhlw.go.jp/znk-web/juminkanja/S2430/initialize?prefCd=22&kikanCd=5227181020&kikanKbn=4", "url2": null, "内容": "山下助産院【4:助産院】静岡県伊豆市（出張のみ）" }, "geometry": { "type": "Point", "coordinates": [ 138.9495, 34.978592 ] } },
{ "type": "Feature", "properties": { "ID": 2245227181280, "正式名称": "うるは助産院", "機関区分": 4, "都道府県コード": 22, "市区町村コード": 206, "所在地": "静岡県三島市加茂川町（出張のみ）", "緯度": 35.126053, "経度": 138.92151, "url": "https://www.iryou.teikyouseido.mhlw.go.jp/znk-web/juminkanja/S2430/initialize?prefCd=22&kikanCd=5227181280&kikanKbn=4", "url2": "https://uruha-birth.com/", "内容": "うるは助産院【4:助産院】静岡県三島市加茂川町（出張のみ）" }, "geometry": { "type": "Point", "coordinates": [ 138.92151, 35.126053 ] } },
{ "type": "Feature", "properties": { "ID": 2245227181310, "正式名称": "母子ケアルームＳＷＥＥＴＮＥＳＳ", "機関区分": 4, "都道府県コード": 22, "市区町村コード": 220, "所在地": "静岡県裾野市佐野１４", "緯度": 35.18783, "経度": 138.910798, "url": "https://www.iryou.teikyouseido.mhlw.go.jp/znk-web/juminkanja/S2430/initialize?prefCd=22&kikanCd=5227181310&kikanKbn=4", "url2": "im-sweetness.com", "内容": "母子ケアルームＳＷＥＥＴＮＥＳＳ【4:助産院】静岡県裾野市佐野１４" }, "geometry": { "type": "Point", "coordinates": [ 138.910798, 35.18783 ] } },
{ "type": "Feature", "properties": { "ID": 2245227181600, "正式名称": "ママとも助産院", "機関区分": 4, "都道府県コード": 22, "市区町村コード": 325, "所在地": "静岡県田方郡函南町塚本２２３－１８", "緯度": 35.080656, "経度": 138.935781, "url": "https://www.iryou.teikyouseido.mhlw.go.jp/znk-web/juminkanja/S2430/initialize?prefCd=22&kikanCd=5227181600&kikanKbn=4", "url2": "https://r.goope.jp/mamatomo/", "内容": "ママとも助産院【4:助産院】静岡県田方郡函南町塚本２２３－１８" }, "geometry": { "type": "Point", "coordinates": [ 138.935781, 35.080656 ] } },
{ "type": "Feature", "properties": { "ID": 2245227181730, "正式名称": "助産院　ｗｈâｎａｕ", "機関区分": 4, "都道府県コード": 22, "市区町村コード": 206, "所在地": "静岡県三島市芙蓉台２丁目１６番３号", "緯度": 35.155633, "経度": 138.917845, "url": "https://www.iryou.teikyouseido.mhlw.go.jp/znk-web/juminkanja/S2430/initialize?prefCd=22&kikanCd=5227181730&kikanKbn=4", "url2": null, "内容": "助産院　ｗｈâｎａｕ【4:助産院】静岡県三島市芙蓉台２丁目１６番３号" }, "geometry": { "type": "Point", "coordinates": [ 138.917845, 35.155633 ] } },
{ "type": "Feature", "properties": { "ID": 2245227182030, "正式名称": "Ｌｉｎｋ　Ｃａｒｅー助産院ー", "機関区分": 4, "都道府県コード": 22, "市区町村コード": 325, "所在地": "静岡県田方郡函南町大土肥１０５番地の４", "緯度": 35.085586, "経度": 138.946328, "url": "https://www.iryou.teikyouseido.mhlw.go.jp/znk-web/juminkanja/S2430/initialize?prefCd=22&kikanCd=5227182030&kikanKbn=4", "url2": null, "内容": "Ｌｉｎｋ　Ｃａｒｅー助産院ー【4:助産院】静岡県田方郡函南町大土肥１０５番地の４" }, "geometry": { "type": "Point", "coordinates": [ 138.946328, 35.085586 ] } },
{ "type": "Feature", "properties": { "ID": 2245227300650, "正式名称": "鈴木千晴助産所", "機関区分": 4, "都道府県コード": 22, "市区町村コード": 211, "所在地": "静岡県磐田市岡３３０－１", "緯度": 34.678169, "経度": 137.820148, "url": "https://www.iryou.teikyouseido.mhlw.go.jp/znk-web/juminkanja/S2430/initialize?prefCd=22&kikanCd=5227300650&kikanKbn=4", "url2": null, "内容": "鈴木千晴助産所【4:助産院】静岡県磐田市岡３３０－１" }, "geometry": { "type": "Point", "coordinates": [ 137.820148, 34.678169 ] } },
{ "type": "Feature", "properties": { "ID": 2245227300780, "正式名称": "母乳育児相談室えくぼ", "機関区分": 4, "都道府県コード": 22, "市区町村コード": 213, "所在地": "静岡県掛川市家代の里１－１７－６", "緯度": 34.788442, "経度": 137.975708, "url": "https://www.iryou.teikyouseido.mhlw.go.jp/znk-web/juminkanja/S2430/initialize?prefCd=22&kikanCd=5227300780&kikanKbn=4", "url2": null, "内容": "母乳育児相談室えくぼ【4:助産院】静岡県掛川市家代の里１－１７－６" }, "geometry": { "type": "Point", "coordinates": [ 137.975708, 34.788442 ] } },
{ "type": "Feature", "properties": { "ID": 2245227301080, "正式名称": "お茶畑助産院", "機関区分": 4, "都道府県コード": 22, "市区町村コード": 216, "所在地": "静岡県袋井市豊沢２１５８－３", "緯度": 34.738015, "経度": 137.954762, "url": "https://www.iryou.teikyouseido.mhlw.go.jp/znk-web/juminkanja/S2430/initialize?prefCd=22&kikanCd=5227301080&kikanKbn=4", "url2": "https://www.ochabatake1103.com/", "内容": "お茶畑助産院【4:助産院】静岡県袋井市豊沢２１５８－３" }, "geometry": { "type": "Point", "coordinates": [ 137.954762, 34.738015 ] } },
{ "type": "Feature", "properties": { "ID": 2245227301240, "正式名称": "おにし助産所", "機関区分": 4, "都道府県コード": 22, "市区町村コード": 211, "所在地": "静岡県磐田市前野１１９０－３", "緯度": 34.694847, "経度": 137.826205, "url": "https://www.iryou.teikyouseido.mhlw.go.jp/znk-web/juminkanja/S2430/initialize?prefCd=22&kikanCd=5227301240&kikanKbn=4", "url2": null, "内容": "おにし助産所【4:助産院】静岡県磐田市前野１１９０－３" }, "geometry": { "type": "Point", "coordinates": [ 137.826205, 34.694847 ] } },
{ "type": "Feature", "properties": { "ID": 2245227301400, "正式名称": "よこさわ助産院", "機関区分": 4, "都道府県コード": 22, "市区町村コード": 211, "所在地": "静岡県磐田市草崎３３４－１", "緯度": 34.683907, "経度": 137.820443, "url": "https://www.iryou.teikyouseido.mhlw.go.jp/znk-web/juminkanja/S2430/initialize?prefCd=22&kikanCd=5227301400&kikanKbn=4", "url2": "yokosawa-1212.com", "内容": "よこさわ助産院【4:助産院】静岡県磐田市草崎３３４－１" }, "geometry": { "type": "Point", "coordinates": [ 137.820443, 34.683907 ] } },
{ "type": "Feature", "properties": { "ID": 2245227301660, "正式名称": "おはな助産院", "機関区分": 4, "都道府県コード": 22, "市区町村コード": 223, "所在地": "静岡県御前崎市白羽６６２１－１０７０", "緯度": 34.604534, "経度": 138.194857, "url": "https://www.iryou.teikyouseido.mhlw.go.jp/znk-web/juminkanja/S2430/initialize?prefCd=22&kikanCd=5227301660&kikanKbn=4", "url2": "http://ohana-baby.com/", "内容": "おはな助産院【4:助産院】静岡県御前崎市白羽６６２１－１０７０" }, "geometry": { "type": "Point", "coordinates": [ 138.194857, 34.604534 ] } },
{ "type": "Feature", "properties": { "ID": 2245227301820, "正式名称": "ほほえみハウス", "機関区分": 4, "都道府県コード": 22, "市区町村コード": 213, "所在地": "静岡県掛川市高御所１６５２", "緯度": 34.762624, "経度": 137.990869, "url": "https://www.iryou.teikyouseido.mhlw.go.jp/znk-web/juminkanja/S2430/initialize?prefCd=22&kikanCd=5227301820&kikanKbn=4", "url2": "http://www.hohoemihouse.com/", "内容": "ほほえみハウス【4:助産院】静岡県掛川市高御所１６５２" }, "geometry": { "type": "Point", "coordinates": [ 137.990869, 34.762624 ] } },
{ "type": "Feature", "properties": { "ID": 2245227301950, "正式名称": "つむぎ助産院", "機関区分": 4, "都道府県コード": 22, "市区町村コード": 224, "所在地": "静岡県菊川市棚草", "緯度": 34.702663, "経度": 138.097891, "url": "https://www.iryou.teikyouseido.mhlw.go.jp/znk-web/juminkanja/S2430/initialize?prefCd=22&kikanCd=5227301950&kikanKbn=4", "url2": "http://www4.tokai.or.jp/tumugi/", "内容": "つむぎ助産院【4:助産院】静岡県菊川市棚草" }, "geometry": { "type": "Point", "coordinates": [ 138.097891, 34.702663 ] } },
{ "type": "Feature", "properties": { "ID": 2245227302090, "正式名称": "わかば助産院", "機関区分": 4, "都道府県コード": 22, "市区町村コード": 211, "所在地": "静岡県磐田市源平新田４５－５", "緯度": 34.725319, "経度": 137.811775, "url": "https://www.iryou.teikyouseido.mhlw.go.jp/znk-web/juminkanja/S2430/initialize?prefCd=22&kikanCd=5227302090&kikanKbn=4", "url2": null, "内容": "わかば助産院【4:助産院】静岡県磐田市源平新田４５－５" }, "geometry": { "type": "Point", "coordinates": [ 137.811775, 34.725319 ] } },
{ "type": "Feature", "properties": { "ID": 2245227302120, "正式名称": "ＨＩＮＡ助産院", "機関区分": 4, "都道府県コード": 22, "市区町村コード": 216, "所在地": "静岡県袋井市高尾町１３－１６", "緯度": 34.743802, "経度": 137.925546, "url": "https://www.iryou.teikyouseido.mhlw.go.jp/znk-web/juminkanja/S2430/initialize?prefCd=22&kikanCd=5227302120&kikanKbn=4", "url2": "https://hina-josan.jp", "内容": "ＨＩＮＡ助産院【4:助産院】静岡県袋井市高尾町１３－１６" }, "geometry": { "type": "Point", "coordinates": [ 137.925546, 34.743802 ] } },
{ "type": "Feature", "properties": { "ID": 2245227302250, "正式名称": "和助産院", "機関区分": 4, "都道府県コード": 22, "市区町村コード": 211, "所在地": "静岡県磐田市大久保７３３－３７", "緯度": 34.771277, "経度": 137.851223, "url": "https://www.iryou.teikyouseido.mhlw.go.jp/znk-web/juminkanja/S2430/initialize?prefCd=22&kikanCd=5227302250&kikanKbn=4", "url2": "yawaragijosanin.com/", "内容": "和助産院【4:助産院】静岡県磐田市大久保７３３－３７" }, "geometry": { "type": "Point", "coordinates": [ 137.851223, 34.771277 ] } },
{ "type": "Feature", "properties": { "ID": 2245227302380, "正式名称": "マミーズ助産院", "機関区分": 4, "都道府県コード": 22, "市区町村コード": 221, "所在地": "静岡県湖西市大知波３３８－７４", "緯度": 34.757118, "経度": 137.50146, "url": "https://www.iryou.teikyouseido.mhlw.go.jp/znk-web/juminkanja/S2430/initialize?prefCd=22&kikanCd=5227302380&kikanKbn=4", "url2": "https://mammys-mw.com/", "内容": "マミーズ助産院【4:助産院】静岡県湖西市大知波３３８－７４" }, "geometry": { "type": "Point", "coordinates": [ 137.50146, 34.757118 ] } },
{ "type": "Feature", "properties": { "ID": 2245227302540, "正式名称": "市川助産院", "機関区分": 4, "都道府県コード": 22, "市区町村コード": 211, "所在地": "静岡県磐田市加茂１１１２", "緯度": 34.736992, "経度": 137.82369, "url": "https://www.iryou.teikyouseido.mhlw.go.jp/znk-web/juminkanja/S2430/initialize?prefCd=22&kikanCd=5227302540&kikanKbn=4", "url2": null, "内容": "市川助産院【4:助産院】静岡県磐田市加茂１１１２" }, "geometry": { "type": "Point", "coordinates": [ 137.82369, 34.736992 ] } },
{ "type": "Feature", "properties": { "ID": 2245227302960, "正式名称": "助産院木野花～ｋｏｎｏｈａｎａ", "機関区分": 4, "都道府県コード": 22, "市区町村コード": 213, "所在地": "静岡県掛川市秋葉路３１番地の１", "緯度": 34.781302, "経度": 137.991695, "url": "https://www.iryou.teikyouseido.mhlw.go.jp/znk-web/juminkanja/S2430/initialize?prefCd=22&kikanCd=5227302960&kikanKbn=4", "url2": "https://peraichi.com/landing_pages/view/jyosanninkonohana", "内容": "助産院木野花～ｋｏｎｏｈａｎａ【4:助産院】静岡県掛川市秋葉路３１番地の１" }, "geometry": { "type": "Point", "coordinates": [ 137.991695, 34.781302 ] } },
{ "type": "Feature", "properties": { "ID": 2245227303130, "正式名称": "すずらん助産院", "機関区分": 4, "都道府県コード": 22, "市区町村コード": 211, "所在地": "静岡県磐田市森下７００－１６", "緯度": 34.723873, "経度": 137.818019, "url": "https://www.iryou.teikyouseido.mhlw.go.jp/znk-web/juminkanja/S2430/initialize?prefCd=22&kikanCd=5227303130&kikanKbn=4", "url2": null, "内容": "すずらん助産院【4:助産院】静岡県磐田市森下７００－１６" }, "geometry": { "type": "Point", "coordinates": [ 137.818019, 34.723873 ] } },
{ "type": "Feature", "properties": { "ID": 2245227500160, "正式名称": "川渕助産院", "機関区分": 4, "都道府県コード": 22, "市区町村コード": 139, "所在地": "静岡県浜松市浜名区小松４９０", "緯度": 34.792047, "経度": 137.776787, "url": "https://www.iryou.teikyouseido.mhlw.go.jp/znk-web/juminkanja/S2430/initialize?prefCd=22&kikanCd=5227500160&kikanKbn=4", "url2": "http://josanin.sakura.ne.jp/", "内容": "川渕助産院【4:助産院】静岡県浜松市浜名区小松４９０" }, "geometry": { "type": "Point", "coordinates": [ 137.776787, 34.792047 ] } },
{ "type": "Feature", "properties": { "ID": 2245227500290, "正式名称": "めぐみ助産院", "機関区分": 4, "都道府県コード": 22, "市区町村コード": 138, "所在地": "静岡県浜松市中央区三方原町１９４０－４", "緯度": 34.786953, "経度": 137.704833, "url": "https://www.iryou.teikyouseido.mhlw.go.jp/znk-web/juminkanja/S2430/initialize?prefCd=22&kikanCd=5227500290&kikanKbn=4", "url2": null, "内容": "めぐみ助産院【4:助産院】静岡県浜松市中央区三方原町１９４０－４" }, "geometry": { "type": "Point", "coordinates": [ 137.704833, 34.786953 ] } },
{ "type": "Feature", "properties": { "ID": 2245227500450, "正式名称": "内山助産院", "機関区分": 4, "都道府県コード": 22, "市区町村コード": 138, "所在地": "静岡県浜松市中央区三方原町４２７－３", "緯度": 34.77748, "経度": 137.723659, "url": "https://www.iryou.teikyouseido.mhlw.go.jp/znk-web/juminkanja/S2430/initialize?prefCd=22&kikanCd=5227500450&kikanKbn=4", "url2": "https://uchiyama-jyosannin.jimdofree.com/", "内容": "内山助産院【4:助産院】静岡県浜松市中央区三方原町４２７－３" }, "geometry": { "type": "Point", "coordinates": [ 137.723659, 34.77748 ] } },
{ "type": "Feature", "properties": { "ID": 2245227500610, "正式名称": "白井助産院", "機関区分": 4, "都道府県コード": 22, "市区町村コード": 139, "所在地": "静岡県浜松市浜名区三ヶ日町大崎９３６", "緯度": 34.766539, "経度": 137.563352, "url": "https://www.iryou.teikyouseido.mhlw.go.jp/znk-web/juminkanja/S2430/initialize?prefCd=22&kikanCd=5227500610&kikanKbn=4", "url2": null, "内容": "白井助産院【4:助産院】静岡県浜松市浜名区三ヶ日町大崎９３６" }, "geometry": { "type": "Point", "coordinates": [ 137.563352, 34.766539 ] } },
{ "type": "Feature", "properties": { "ID": 2245227500740, "正式名称": "はたの助産所", "機関区分": 4, "都道府県コード": 22, "市区町村コード": 138, "所在地": "静岡県浜松市中央区有玉南町１８８８", "緯度": 34.749975, "経度": 137.749573, "url": "https://www.iryou.teikyouseido.mhlw.go.jp/znk-web/juminkanja/S2430/initialize?prefCd=22&kikanCd=5227500740&kikanKbn=4", "url2": null, "内容": "はたの助産所【4:助産院】静岡県浜松市中央区有玉南町１８８８" }, "geometry": { "type": "Point", "coordinates": [ 137.749573, 34.749975 ] } },
{ "type": "Feature", "properties": { "ID": 2245227501040, "正式名称": "野々垣助産院", "機関区分": 4, "都道府県コード": 22, "市区町村コード": 138, "所在地": "静岡県浜松市中央区上西町５０－２", "緯度": 34.721828, "経度": 137.756836, "url": "https://www.iryou.teikyouseido.mhlw.go.jp/znk-web/juminkanja/S2430/initialize?prefCd=22&kikanCd=5227501040&kikanKbn=4", "url2": null, "内容": "野々垣助産院【4:助産院】静岡県浜松市中央区上西町５０－２" }, "geometry": { "type": "Point", "coordinates": [ 137.756836, 34.721828 ] } },
{ "type": "Feature", "properties": { "ID": 2245227501620, "正式名称": "すこやか助産院", "機関区分": 4, "都道府県コード": 22, "市区町村コード": 138, "所在地": "静岡県浜松市中央区瓜内町１４８", "緯度": 34.690554, "経度": 137.736834, "url": "https://www.iryou.teikyouseido.mhlw.go.jp/znk-web/juminkanja/S2430/initialize?prefCd=22&kikanCd=5227501620&kikanKbn=4", "url2": null, "内容": "すこやか助産院【4:助産院】静岡県浜松市中央区瓜内町１４８" }, "geometry": { "type": "Point", "coordinates": [ 137.736834, 34.690554 ] } },
{ "type": "Feature", "properties": { "ID": 2245227502180, "正式名称": "みづき助産院", "機関区分": 4, "都道府県コード": 22, "市区町村コード": 138, "所在地": "静岡県浜松市中央区住吉四丁目１０－２２", "緯度": 34.730099, "経度": 137.7288, "url": "https://www.iryou.teikyouseido.mhlw.go.jp/znk-web/juminkanja/S2430/initialize?prefCd=22&kikanCd=5227502180&kikanKbn=4", "url2": null, "内容": "みづき助産院【4:助産院】静岡県浜松市中央区住吉四丁目１０－２２" }, "geometry": { "type": "Point", "coordinates": [ 137.7288, 34.730099 ] } },
{ "type": "Feature", "properties": { "ID": 2245227502210, "正式名称": "もちづき助産所", "機関区分": 4, "都道府県コード": 22, "市区町村コード": 138, "所在地": "静岡県浜松市中央区広沢二丁目４７番３４号", "緯度": 34.717164, "経度": 137.712032, "url": "https://www.iryou.teikyouseido.mhlw.go.jp/znk-web/juminkanja/S2430/initialize?prefCd=22&kikanCd=5227502210&kikanKbn=4", "url2": null, "内容": "もちづき助産所【4:助産院】静岡県浜松市中央区広沢二丁目４７番３４号" }, "geometry": { "type": "Point", "coordinates": [ 137.712032, 34.717164 ] } },
{ "type": "Feature", "properties": { "ID": 2245227505240, "正式名称": "ルツ助産院", "機関区分": 4, "都道府県コード": 22, "市区町村コード": 138, "所在地": "静岡県浜松市中央区大島町５５３－３", "緯度": 34.755482, "経度": 137.776724, "url": "https://www.iryou.teikyouseido.mhlw.go.jp/znk-web/juminkanja/S2430/initialize?prefCd=22&kikanCd=5227505240&kikanKbn=4", "url2": null, "内容": "ルツ助産院【4:助産院】静岡県浜松市中央区大島町５５３－３" }, "geometry": { "type": "Point", "coordinates": [ 137.776724, 34.755482 ] } },
{ "type": "Feature", "properties": { "ID": 2245227506670, "正式名称": "髙林助産院", "機関区分": 4, "都道府県コード": 22, "市区町村コード": 139, "所在地": "静岡県浜松市浜名区新原４２１２－３", "緯度": 34.808615, "経度": 137.768765, "url": "https://www.iryou.teikyouseido.mhlw.go.jp/znk-web/juminkanja/S2430/initialize?prefCd=22&kikanCd=5227506670&kikanKbn=4", "url2": null, "内容": "髙林助産院【4:助産院】静岡県浜松市浜名区新原４２１２－３" }, "geometry": { "type": "Point", "coordinates": [ 137.768765, 34.808615 ] } },
{ "type": "Feature", "properties": { "ID": 2245227507680, "正式名称": "陽だまり助産院", "機関区分": 4, "都道府県コード": 22, "市区町村コード": 138, "所在地": "静岡県浜松市中央区大平台４－８－１８", "緯度": 34.70959, "経度": 137.679411, "url": "https://www.iryou.teikyouseido.mhlw.go.jp/znk-web/juminkanja/S2430/initialize?prefCd=22&kikanCd=5227507680&kikanKbn=4", "url2": null, "内容": "陽だまり助産院【4:助産院】静岡県浜松市中央区大平台４－８－１８" }, "geometry": { "type": "Point", "coordinates": [ 137.679411, 34.70959 ] } },
{ "type": "Feature", "properties": { "ID": 2245227507710, "正式名称": "木村産科・婦人科附属助産院", "機関区分": 4, "都道府県コード": 22, "市区町村コード": 138, "所在地": "静岡県浜松市中央区東三方町９４－４", "緯度": 34.777028, "経度": 137.73334, "url": "https://www.iryou.teikyouseido.mhlw.go.jp/znk-web/juminkanja/S2430/initialize?prefCd=22&kikanCd=5227507710&kikanKbn=4", "url2": "https://www.mammy1010-sango.com/care", "内容": "木村産科・婦人科附属助産院【4:助産院】静岡県浜松市中央区東三方町９４－４" }, "geometry": { "type": "Point", "coordinates": [ 137.73334, 34.777028 ] } },
{ "type": "Feature", "properties": { "ID": 2245227508010, "正式名称": "くすのきお産婆さん", "機関区分": 4, "都道府県コード": 22, "市区町村コード": 138, "所在地": "静岡県浜松市中央区和地町５１７９", "緯度": 34.762091, "経度": 137.654461, "url": "https://www.iryou.teikyouseido.mhlw.go.jp/znk-web/juminkanja/S2430/initialize?prefCd=22&kikanCd=5227508010&kikanKbn=4", "url2": null, "内容": "くすのきお産婆さん【4:助産院】静岡県浜松市中央区和地町５１７９" }, "geometry": { "type": "Point", "coordinates": [ 137.654461, 34.762091 ] } },
{ "type": "Feature", "properties": { "ID": 2245227508140, "正式名称": "助産院大地", "機関区分": 4, "都道府県コード": 22, "市区町村コード": 139, "所在地": "静岡県浜松市浜名区引佐町伊平１２９９", "緯度": 34.864451, "経度": 137.658403, "url": "https://www.iryou.teikyouseido.mhlw.go.jp/znk-web/juminkanja/S2430/initialize?prefCd=22&kikanCd=5227508140&kikanKbn=4", "url2": "https://www.daichi-mwhouse.net/", "内容": "助産院大地【4:助産院】静岡県浜松市浜名区引佐町伊平１２９９" }, "geometry": { "type": "Point", "coordinates": [ 137.658403, 34.864451 ] } },
{ "type": "Feature", "properties": { "ID": 2245228000250, "正式名称": "蒔田助産院", "機関区分": 4, "都道府県コード": 22, "市区町村コード": 424, "所在地": "静岡県榛原郡吉田町神戸７５４－４", "緯度": 34.790098, "経度": 138.246986, "url": "https://www.iryou.teikyouseido.mhlw.go.jp/znk-web/juminkanja/S2430/initialize?prefCd=22&kikanCd=5228000250&kikanKbn=4", "url2": "http://makitaj.mintsystem.jp/", "内容": "蒔田助産院【4:助産院】静岡県榛原郡吉田町神戸７５４－４" }, "geometry": { "type": "Point", "coordinates": [ 138.246986, 34.790098 ] } },
{ "type": "Feature", "properties": { "ID": 2245228000410, "正式名称": "とみおか母乳ケアｈｏｕｓｅ", "機関区分": 4, "都道府県コード": 22, "市区町村コード": 214, "所在地": "静岡県藤枝市水上４１５－３", "緯度": 34.853518, "経度": 138.240785, "url": "https://www.iryou.teikyouseido.mhlw.go.jp/znk-web/juminkanja/S2430/initialize?prefCd=22&kikanCd=5228000410&kikanKbn=4", "url2": "http://www2.tokai.or.jp/hona-house/", "内容": "とみおか母乳ケアｈｏｕｓｅ【4:助産院】静岡県藤枝市水上４１５－３" }, "geometry": { "type": "Point", "coordinates": [ 138.240785, 34.853518 ] } },
{ "type": "Feature", "properties": { "ID": 2245228000540, "正式名称": "片山母乳相談室", "機関区分": 4, "都道府県コード": 22, "市区町村コード": 212, "所在地": "静岡県焼津市石脇上６９８－９", "緯度": 34.890651, "経度": 138.320545, "url": "https://www.iryou.teikyouseido.mhlw.go.jp/znk-web/juminkanja/S2430/initialize?prefCd=22&kikanCd=5228000540&kikanKbn=4", "url2": "https://katayamabonilyuusoudannsitu-2.jimdosite.com/", "内容": "片山母乳相談室【4:助産院】静岡県焼津市石脇上６９８－９" }, "geometry": { "type": "Point", "coordinates": [ 138.320545, 34.890651 ] } },
{ "type": "Feature", "properties": { "ID": 2245228000900, "正式名称": "まるの輪助産院", "機関区分": 4, "都道府県コード": 22, "市区町村コード": 214, "所在地": "静岡県藤枝市岡部町三輪９０５グリーンハイツ１０１号室", "緯度": 34.900887, "経度": 138.296469, "url": "https://www.iryou.teikyouseido.mhlw.go.jp/znk-web/juminkanja/S2430/initialize?prefCd=22&kikanCd=5228000900&kikanKbn=4", "url2": "marunowa.com", "内容": "まるの輪助産院【4:助産院】静岡県藤枝市岡部町三輪９０５グリーンハイツ１０１号室" }, "geometry": { "type": "Point", "coordinates": [ 138.296469, 34.900887 ] } },
{ "type": "Feature", "properties": { "ID": 2245228001040, "正式名称": "さら助産院", "機関区分": 4, "都道府県コード": 22, "市区町村コード": 209, "所在地": "静岡県島田市元島田２１０番地４", "緯度": 34.842693, "経度": 138.180702, "url": "https://www.iryou.teikyouseido.mhlw.go.jp/znk-web/juminkanja/S2430/initialize?prefCd=22&kikanCd=5228001040&kikanKbn=4", "url2": "www.satojyosanin.com", "内容": "さら助産院【4:助産院】静岡県島田市元島田２１０番地４" }, "geometry": { "type": "Point", "coordinates": [ 138.180702, 34.842693 ] } },
{ "type": "Feature", "properties": { "ID": 2245228001170, "正式名称": "藤枝授乳コンサルタント　もぐもぐ", "機関区分": 4, "都道府県コード": 22, "市区町村コード": 214, "所在地": "静岡県藤枝市駅前１－８－３　ＦＵＪＩＥＤＡｍｉｋｉｎｅ１階１０２区画", "緯度": 34.849777, "経度": 138.252644, "url": "https://www.iryou.teikyouseido.mhlw.go.jp/znk-web/juminkanja/S2430/initialize?prefCd=22&kikanCd=5228001170&kikanKbn=4", "url2": "https://www.fujieda-mogumogu.com", "内容": "藤枝授乳コンサルタント　もぐもぐ【4:助産院】静岡県藤枝市駅前１－８－３　ＦＵＪＩＥＤＡｍｉｋｉｎｅ１階１０２区画" }, "geometry": { "type": "Point", "coordinates": [ 138.252644, 34.849777 ] } },
{ "type": "Feature", "properties": { "ID": 2245228001200, "正式名称": "さち助産院", "機関区分": 4, "都道府県コード": 22, "市区町村コード": 214, "所在地": "静岡県藤枝市駅前３丁目６－１１", "緯度": 34.851152, "経度": 138.2481, "url": "https://www.iryou.teikyouseido.mhlw.go.jp/znk-web/juminkanja/S2430/initialize?prefCd=22&kikanCd=5228001200&kikanKbn=4", "url2": "https://sachijyosanin2001.jimdofree.com/", "内容": "さち助産院【4:助産院】静岡県藤枝市駅前３丁目６－１１" }, "geometry": { "type": "Point", "coordinates": [ 138.2481, 34.851152 ] } },
{ "type": "Feature", "properties": { "ID": 2245228001750, "正式名称": "ＲＵＮ助産院", "機関区分": 4, "都道府県コード": 22, "市区町村コード": 214, "所在地": "静岡県藤枝市泉町３４－９", "緯度": 34.830667, "経度": 138.261283, "url": "https://www.iryou.teikyouseido.mhlw.go.jp/znk-web/juminkanja/S2430/initialize?prefCd=22&kikanCd=5228001750&kikanKbn=4", "url2": "yur09220703.wixsite.com/my-site-3", "内容": "ＲＵＮ助産院【4:助産院】静岡県藤枝市泉町３４－９" }, "geometry": { "type": "Point", "coordinates": [ 138.261283, 34.830667 ] } },
{ "type": "Feature", "properties": { "ID": 2245228001880, "正式名称": "まつのき助産院", "機関区分": 4, "都道府県コード": 22, "市区町村コード": 212, "所在地": "静岡県焼津市祢宜島３７１", "緯度": 34.839534, "経度": 138.306014, "url": "https://www.iryou.teikyouseido.mhlw.go.jp/znk-web/juminkanja/S2430/initialize?prefCd=22&kikanCd=5228001880&kikanKbn=4", "url2": "https://www.instagram.com/shizuokasanbastation/?hl=ja", "内容": "まつのき助産院【4:助産院】静岡県焼津市祢宜島３７１" }, "geometry": { "type": "Point", "coordinates": [ 138.306014, 34.839534 ] } }
]
}
