{
"type": "FeatureCollection",
"name": "geo_22_1",
"crs": { "type": "name", "properties": { "name": "urn:ogc:def:crs:OGC:1.3:CRS84" } },
"features": [
{ "type": "Feature", "properties": { "ID": 2211220100170, "正式名称": "重症心身障害児施設つばさ静岡", "機関区分": 1, "都道府県コード": 22, "市区町村コード": 101, "所在地": "静岡県静岡市葵区城北１１７", "緯度": 35.002101, "経度": 138.395927, "url": "https://www.iryou.teikyouseido.mhlw.go.jp/znk-web/juminkanja/S2430/initialize?prefCd=22&kikanCd=1220100170&kikanKbn=1", "url2": "http://www.tsubasa-szok.net/", "内容": "重症心身障害児施設つばさ静岡【1:病院】【診療科目:内科_小児科_精神科_リハビリテーション科】【一般病床数:73療養病床数:0精神病床数:0感染症病床数:0合計病床数:73】静岡県静岡市葵区城北１１７" }, "geometry": { "type": "Point", "coordinates": [ 138.395927, 35.002101 ] } },
{ "type": "Feature", "properties": { "ID": 2211220100200, "正式名称": "医療法人社団八千代会清水富士山病院", "機関区分": 1, "都道府県コード": 22, "市区町村コード": 103, "所在地": "静岡県静岡市清水区八千代町６番３３号", "緯度": 35.001959, "経度": 138.489361, "url": "https://www.iryou.teikyouseido.mhlw.go.jp/znk-web/juminkanja/S2430/initialize?prefCd=22&kikanCd=1220100200&kikanKbn=1", "url2": "http://www.shimizu-fujisan.jp/", "内容": "医療法人社団八千代会清水富士山病院【1:病院】【診療科目:内科_リハビリテーション科】【一般病床数:20療養病床数:100精神病床数:0感染症病床数:0合計病床数:120】静岡県静岡市清水区八千代町６番３３号" }, "geometry": { "type": "Point", "coordinates": [ 138.489361, 35.001959 ] } },
{ "type": "Feature", "properties": { "ID": 2211220100330, "正式名称": "医療法人社団清明会　静岡リハビリテーション病院", "機関区分": 1, "都道府県コード": 22, "市区町村コード": 101, "所在地": "静岡県静岡市葵区新間３１８番地の１", "緯度": 34.988036, "経度": 138.308675, "url": "https://www.iryou.teikyouseido.mhlw.go.jp/znk-web/juminkanja/S2430/initialize?prefCd=22&kikanCd=1220100330&kikanKbn=1", "url2": "https://www.shizuoka-reha.com", "内容": "医療法人社団清明会　静岡リハビリテーション病院【1:病院】【診療科目:内科_整形外科_歯科_歯科口腔外科_リハビリテーション科】【一般病床数:0療養病床数:144精神病床数:0感染症病床数:0合計病床数:144】静岡県静岡市葵区新間３１８番地の１" }, "geometry": { "type": "Point", "coordinates": [ 138.308675, 34.988036 ] } },
{ "type": "Feature", "properties": { "ID": 2211221223303, "正式名称": "医療法人弘遠会すずかけセントラル病院", "機関区分": 1, "都道府県コード": 22, "市区町村コード": 138, "所在地": "静岡県浜松市中央区田尻町１２０－１", "緯度": 34.680989, "経度": 137.726089, "url": "https://www.iryou.teikyouseido.mhlw.go.jp/znk-web/juminkanja/S2430/initialize?prefCd=22&kikanCd=1221223303&kikanKbn=1", "url2": "http://www.suzukake.or.jp", "内容": "医療法人弘遠会すずかけセントラル病院【1:病院】【診療科目:内科_血液内科_内分泌内科_呼吸器内科_循環器内科_消化器内科_腎臓内科_外科_脳神経外科_呼吸器外科_心臓血管外科_乳腺外科_整形外科_形成外科_眼科_泌尿器科_歯科_リハビリテーション科_放射線治療科_麻酔科】【一般病床数:205療養病床数:104精神病床数:0感染症病床数:0合計病床数:309】静岡県浜松市中央区田尻町１２０－１" }, "geometry": { "type": "Point", "coordinates": [ 137.726089, 34.680989 ] } },
{ "type": "Feature", "properties": { "ID": 2211223100230, "正式名称": "静岡県立こども病院", "機関区分": 1, "都道府県コード": 22, "市区町村コード": 101, "所在地": "静岡県静岡市葵区漆山８６０", "緯度": 35.01977, "経度": 138.396268, "url": "https://www.iryou.teikyouseido.mhlw.go.jp/znk-web/juminkanja/S2430/initialize?prefCd=22&kikanCd=1223100230&kikanKbn=1", "url2": "http://www.shizuoka-pho.jp/kodomo", "内容": "静岡県立こども病院【1:病院】【診療科目:感染症内科_血液・腫瘍内科_代謝内科_糖尿病・代謝内科_代謝・内分泌内科_循環器内科_腎臓内科_脳神経外科_呼吸器外科_心臓血管外科_消化器外科_整形外科_形成外科_小児科_小児眼科_小児耳鼻いんこう科_児童精神科_小児外科_新生児内科_産科_眼科_耳鼻いんこう科_頭頸部・耳鼻いんこう科_皮膚科_泌尿器科_精神科_神経科_歯科_小児歯科_アレルギー科_リハビリテーション科_放射線科_病理診断科_臨床検査科_救急科_麻酔科_集中治療科】【一般病床数:243療養病床数:0精神病床数:36感染症病床数:0合計病床数:279】静岡県静岡市葵区漆山８６０" }, "geometry": { "type": "Point", "coordinates": [ 138.396268, 35.01977 ] } },
{ "type": "Feature", "properties": { "ID": 2211223100490, "正式名称": "地方独立行政法人静岡県立病院機構　静岡県立こころの医療センター", "機関区分": 1, "都道府県コード": 22, "市区町村コード": 101, "所在地": "静岡県静岡市葵区与一四丁目１番１号", "緯度": 35.006966, "経度": 138.36441, "url": "https://www.iryou.teikyouseido.mhlw.go.jp/znk-web/juminkanja/S2430/initialize?prefCd=22&kikanCd=1223100490&kikanKbn=1", "url2": "http://www.shizuoka-pho.jp/kokoro/", "内容": "地方独立行政法人静岡県立病院機構　静岡県立こころの医療センター【1:病院】【診療科目:内科_外科_精神科_歯科】【一般病床数:0療養病床数:0精神病床数:274感染症病床数:0合計病床数:274】静岡県静岡市葵区与一四丁目１番１号" }, "geometry": { "type": "Point", "coordinates": [ 138.36441, 35.006966 ] } },
{ "type": "Feature", "properties": { "ID": 2211223100780, "正式名称": "独立行政法人国立病院機構静岡てんかん・神経医療センター", "機関区分": 1, "都道府県コード": 22, "市区町村コード": 101, "所在地": "静岡県静岡市葵区漆山８８６番地", "緯度": 35.01952, "経度": 138.397935, "url": "https://www.iryou.teikyouseido.mhlw.go.jp/znk-web/juminkanja/S2430/initialize?prefCd=22&kikanCd=1223100780&kikanKbn=1", "url2": "https://shizuokamind.hosp.go.jp/", "内容": "独立行政法人国立病院機構静岡てんかん・神経医療センター【1:病院】【診療科目:内科_神経内科_脳神経外科_小児科_精神科_歯科_リハビリテーション科_放射線科_麻酔科】【一般病床数:406療養病床数:0精神病床数:0感染症病床数:0合計病床数:406】静岡県静岡市葵区漆山８８６番地" }, "geometry": { "type": "Point", "coordinates": [ 138.397935, 35.01952 ] } },
{ "type": "Feature", "properties": { "ID": 2211223100940, "正式名称": "地方独立行政法人　静岡市立静岡病院", "機関区分": 1, "都道府県コード": 22, "市区町村コード": 101, "所在地": "静岡県静岡市葵区追手町１０番９３号", "緯度": 34.978469, "経度": 138.37966, "url": "https://www.iryou.teikyouseido.mhlw.go.jp/znk-web/juminkanja/S2430/initialize?prefCd=22&kikanCd=1223100940&kikanKbn=1", "url2": "https://www.shizuokahospital.jp", "内容": "地方独立行政法人　静岡市立静岡病院【1:病院】【診療科目:内科_血液内科_代謝・内分泌内科_脳神経内科_呼吸器内科_循環器内科_消化器内科_腎臓内科_緩和ケア内科_外科_脳神経外科_呼吸器外科_心臓血管外科_消化器外科_頭頸部外科_整形外科_形成外科_小児科_産婦人科_眼科_耳鼻いんこう科_皮膚科_泌尿器科_精神科_歯科口腔外科_リハビリテーション科_放射線診断科_放射線治療科_病理診断科_救急科_麻酔科】【一般病床数:500療養病床数:0精神病床数:0感染症病床数:6合計病床数:506】静岡県静岡市葵区追手町１０番９３号" }, "geometry": { "type": "Point", "coordinates": [ 138.37966, 34.978469 ] } },
{ "type": "Feature", "properties": { "ID": 2211223101080, "正式名称": "静岡赤十字病院", "機関区分": 1, "都道府県コード": 22, "市区町村コード": 101, "所在地": "静岡県静岡市葵区追手町８番２号", "緯度": 34.976275, "経度": 138.38066, "url": "https://www.iryou.teikyouseido.mhlw.go.jp/znk-web/juminkanja/S2430/initialize?prefCd=22&kikanCd=1223101080&kikanKbn=1", "url2": "https://www.shizuoka-med.jrc.or.jp", "内容": "静岡赤十字病院【1:病院】【診療科目:内科_血液内科_糖尿病・代謝内科_脳神経内科_呼吸器内科_循環器内科_消化器内科_外科_脳神経外科_呼吸器外科_血管外科_心臓外科_乳腺外科_整形外科_形成外科_小児科_産婦人科_眼科_頭頸部・耳鼻いんこう科_皮膚科_泌尿器科_精神科_歯科口腔外科_リウマチ科_リハビリテーション科_放射線科_病理診断科_救急科_麻酔科】【一般病床数:411療養病床数:0精神病床数:0感染症病床数:0合計病床数:411】静岡県静岡市葵区追手町８番２号" }, "geometry": { "type": "Point", "coordinates": [ 138.38066, 34.976275 ] } },
{ "type": "Feature", "properties": { "ID": 2211223101110, "正式名称": "ＪＡ静岡厚生連静岡厚生病院", "機関区分": 1, "都道府県コード": 22, "市区町村コード": 101, "所在地": "静岡県静岡市葵区北番町２３番地", "緯度": 34.979274, "経度": 138.371078, "url": "https://www.iryou.teikyouseido.mhlw.go.jp/znk-web/juminkanja/S2430/initialize?prefCd=22&kikanCd=1223101110&kikanKbn=1", "url2": "https://ja-shizuokakosei.jp/", "内容": "ＪＡ静岡厚生連静岡厚生病院【1:病院】【診療科目:内科_脳神経内科_循環器内科_漢方内科_外科_脳神経外科_整形外科_小児科_産婦人科_眼科_耳鼻いんこう科_皮膚科_泌尿器科_リウマチ科_リハビリテーション科_放射線科_救急科_麻酔科】【一般病床数:213療養病床数:52精神病床数:0感染症病床数:0合計病床数:265】静岡県静岡市葵区北番町２３番地" }, "geometry": { "type": "Point", "coordinates": [ 138.371078, 34.979274 ] } },
{ "type": "Feature", "properties": { "ID": 2211223101530, "正式名称": "静岡県立総合病院", "機関区分": 1, "都道府県コード": 22, "市区町村コード": 101, "所在地": "静岡県静岡市葵区北安東四丁目２７番１号", "緯度": 35.00305, "経度": 138.386214, "url": "https://www.iryou.teikyouseido.mhlw.go.jp/znk-web/juminkanja/S2430/initialize?prefCd=22&kikanCd=1223101530&kikanKbn=1", "url2": "https://www.shizuoka-pho.jp/sogo/", "内容": "静岡県立総合病院【1:病院】【診療科目:内科_血液内科_糖尿病・内分泌内科_脳神経内科_呼吸器内科_循環器内科_消化器内科_腎臓内科_腫瘍内科_脳神経外科_呼吸器外科_心臓血管外科_消化器外科_乳腺外科_整形外科_形成外科_小児科_産婦人科_眼科_頭頸部・耳鼻いんこう科_皮膚科_泌尿器科_精神科_心療内科_歯科口腔外科_リハビリテーション科_放射線科_病理診断科_救急科_麻酔科_心臓リハビリテーション科】【一般病床数:662療養病床数:0精神病床数:6感染症病床数:0合計病床数:718】静岡県静岡市葵区北安東四丁目２７番１号" }, "geometry": { "type": "Point", "coordinates": [ 138.386214, 35.00305 ] } },
{ "type": "Feature", "properties": { "ID": 2211223101660, "正式名称": "静岡瀬名病院", "機関区分": 1, "都道府県コード": 22, "市区町村コード": 101, "所在地": "静岡県静岡市葵区瀬名４６２９番地の１", "緯度": 35.035741, "経度": 138.427598, "url": "https://www.iryou.teikyouseido.mhlw.go.jp/znk-web/juminkanja/S2430/initialize?prefCd=22&kikanCd=1223101660&kikanKbn=1", "url2": "https://kojinkai-iryou.com/senahp/", "内容": "静岡瀬名病院【1:病院】【診療科目:内科】【一般病床数:0療養病床数:20精神病床数:0感染症病床数:0合計病床数:20】静岡県静岡市葵区瀬名４６２９番地の１" }, "geometry": { "type": "Point", "coordinates": [ 138.427598, 35.035741 ] } },
{ "type": "Feature", "properties": { "ID": 2211223101950, "正式名称": "医療法人社団健正会静岡アオイ病院", "機関区分": 1, "都道府県コード": 22, "市区町村コード": 101, "所在地": "静岡県静岡市葵区吉津１９０番地の１", "緯度": 34.97969, "経度": 138.308999, "url": "https://www.iryou.teikyouseido.mhlw.go.jp/znk-web/juminkanja/S2430/initialize?prefCd=22&kikanCd=1223101950&kikanKbn=1", "url2": "https://www.kenseikai.or.jp", "内容": "医療法人社団健正会静岡アオイ病院【1:病院】【診療科目:内科_リハビリテーション科】【一般病床数:0療養病床数:174精神病床数:0感染症病床数:0合計病床数:174】静岡県静岡市葵区吉津１９０番地の１" }, "geometry": { "type": "Point", "coordinates": [ 138.308999, 34.97969 ] } },
{ "type": "Feature", "properties": { "ID": 2211223200130, "正式名称": "溝口病院", "機関区分": 1, "都道府県コード": 22, "市区町村コード": 101, "所在地": "静岡県静岡市葵区長沼６４７番地", "緯度": 34.988552, "経度": 138.413657, "url": "https://www.iryou.teikyouseido.mhlw.go.jp/znk-web/juminkanja/S2430/initialize?prefCd=22&kikanCd=1223200130&kikanKbn=1", "url2": "https://www.lyremizoguchi.com/", "内容": "溝口病院【1:病院】【診療科目:精神科_神経科】【一般病床数:0療養病床数:0精神病床数:236感染症病床数:0合計病床数:236】静岡県静岡市葵区長沼６４７番地" }, "geometry": { "type": "Point", "coordinates": [ 138.413657, 34.988552 ] } },
{ "type": "Feature", "properties": { "ID": 2211223200390, "正式名称": "社会福祉法人恩賜財団済生会支部静岡県済生会　静岡済生会総合病院", "機関区分": 1, "都道府県コード": 22, "市区町村コード": 102, "所在地": "静岡県静岡市駿河区小鹿一丁目１－１", "緯度": 34.97597, "経度": 138.413019, "url": "https://www.iryou.teikyouseido.mhlw.go.jp/znk-web/juminkanja/S2430/initialize?prefCd=22&kikanCd=1223200390&kikanKbn=1", "url2": "https://shizuoka-saiseikai.jp/", "内容": "社会福祉法人恩賜財団済生会支部静岡県済生会　静岡済生会総合病院【1:病院】【診療科目:血液内科_代謝・内分泌内科_脳神経内科_呼吸器内科_循環器内科_消化器内科_腎臓内科_緩和ケア内科_外科_脳神経外科_呼吸器外科_心臓血管外科_整形外科_形成外科_小児科_産婦人科_眼科_耳鼻いんこう科_皮膚科_泌尿器科_精神科_歯科_歯科口腔外科_リハビリテーション科_放射線科_病理診断科_麻酔科】【一般病床数:511療養病床数:0精神病床数:0感染症病床数:0合計病床数:511】静岡県静岡市駿河区小鹿一丁目１－１" }, "geometry": { "type": "Point", "coordinates": [ 138.413019, 34.97597 ] } },
{ "type": "Feature", "properties": { "ID": 2211223200840, "正式名称": "医療法人社団宝徳会小鹿病院", "機関区分": 1, "都道府県コード": 22, "市区町村コード": 102, "所在地": "静岡県静岡市駿河区小鹿１６３３番地の１", "緯度": 34.97597, "経度": 138.433906, "url": "https://www.iryou.teikyouseido.mhlw.go.jp/znk-web/juminkanja/S2430/initialize?prefCd=22&kikanCd=1223200840&kikanKbn=1", "url2": "https://houtoku-kai.or.jp/oshika_hospital/", "内容": "医療法人社団宝徳会小鹿病院【1:病院】【診療科目:内科_リハビリテーション科】【一般病床数:0療養病床数:148精神病床数:0感染症病床数:0合計病床数:148】静岡県静岡市駿河区小鹿１６３３番地の１" }, "geometry": { "type": "Point", "coordinates": [ 138.433906, 34.97597 ] } },
{ "type": "Feature", "properties": { "ID": 2211223300320, "正式名称": "浜松医科大学医学部附属病院", "機関区分": 1, "都道府県コード": 22, "市区町村コード": 138, "所在地": "静岡県浜松市中央区半田山１丁目２０－１", "緯度": 34.770063, "経度": 137.743751, "url": "https://www.iryou.teikyouseido.mhlw.go.jp/znk-web/juminkanja/S2430/initialize?prefCd=22&kikanCd=1223300320&kikanKbn=1", "url2": "http://www.hama-med.ac.jp/hos/", "内容": "浜松医科大学医学部附属病院【1:病院】【診療科目:内科_循環器内科_外科_脳神経外科_心臓血管外科_整形外科_形成外科_小児科_小児外科_産科_婦人科_眼科_耳鼻いんこう科_皮膚科_泌尿器科_精神科_神経科_歯科口腔外科_リハビリテーション科_放射線科_病理診断科_救急科_麻酔科】【一般病床数:576療養病床数:0精神病床数:37感染症病床数:0合計病床数:613】静岡県浜松市中央区半田山１丁目２０－１" }, "geometry": { "type": "Point", "coordinates": [ 137.743751, 34.770063 ] } },
{ "type": "Feature", "properties": { "ID": 2211223300580, "正式名称": "医療法人社団新風会丸山病院", "機関区分": 1, "都道府県コード": 22, "市区町村コード": 138, "所在地": "静岡県浜松市中央区助信町３９番１０号", "緯度": 34.723374, "経度": 137.737753, "url": "https://www.iryou.teikyouseido.mhlw.go.jp/znk-web/juminkanja/S2430/initialize?prefCd=22&kikanCd=1223300580&kikanKbn=1", "url2": "http://www.maruyama-hp.com/", "内容": "医療法人社団新風会丸山病院【1:病院】【診療科目:内科_人工透析内科_外科_整形外科_眼科_泌尿器科】【一般病床数:0療養病床数:58精神病床数:0感染症病床数:0合計病床数:58】静岡県浜松市中央区助信町３９番１０号" }, "geometry": { "type": "Point", "coordinates": [ 137.737753, 34.723374 ] } },
{ "type": "Feature", "properties": { "ID": 2211223300610, "正式名称": "医療法人社団一穂会西山病院", "機関区分": 1, "都道府県コード": 22, "市区町村コード": 138, "所在地": "静岡県浜松市中央区西山町５００", "緯度": 34.736899, "経度": 137.688479, "url": "https://www.iryou.teikyouseido.mhlw.go.jp/znk-web/juminkanja/S2430/initialize?prefCd=22&kikanCd=1223300610&kikanKbn=1", "url2": "http://www.nishiyama.or.jp", "内容": "医療法人社団一穂会西山病院【1:病院】【診療科目:内科_リハビリテーション科】【一般病床数:0療養病床数:158精神病床数:0感染症病床数:0合計病床数:158】静岡県浜松市中央区西山町５００" }, "geometry": { "type": "Point", "coordinates": [ 137.688479, 34.736899 ] } },
{ "type": "Feature", "properties": { "ID": 2211223300870, "正式名称": "神経科浜松病院", "機関区分": 1, "都道府県コード": 22, "市区町村コード": 138, "所在地": "静岡県浜松市中央区広沢２－５６－１", "緯度": 34.716291, "経度": 137.710867, "url": "https://www.iryou.teikyouseido.mhlw.go.jp/znk-web/juminkanja/S2430/initialize?prefCd=22&kikanCd=1223300870&kikanKbn=1", "url2": "http://toukai.me/shinhama/", "内容": "神経科浜松病院【1:病院】【診療科目:内科_精神科_神経科_心療内科】【一般病床数:0療養病床数:0精神病床数:239感染症病床数:0合計病床数:239】静岡県浜松市中央区広沢２－５６－１" }, "geometry": { "type": "Point", "coordinates": [ 137.710867, 34.716291 ] } },
{ "type": "Feature", "properties": { "ID": 2211223301040, "正式名称": "独立行政法人労働者健康安全機構浜松労災病院", "機関区分": 1, "都道府県コード": 22, "市区町村コード": 138, "所在地": "静岡県浜松市中央区将監町", "緯度": 34.716708, "経度": 137.755446, "url": "https://www.iryou.teikyouseido.mhlw.go.jp/znk-web/juminkanja/S2430/initialize?prefCd=22&kikanCd=1223301040&kikanKbn=1", "url2": "https://www.hamamatsuh.johas.go.jp", "内容": "独立行政法人労働者健康安全機構浜松労災病院【1:病院】【診療科目:内科_呼吸器内科_循環器内科_消化器内科_神経内科_外科_脳神経外科_呼吸器外科_心臓血管外科_整形外科_形成外科_小児科_婦人科_眼科_耳鼻いんこう科_皮膚科_泌尿器科_精神科_リハビリテーション科_放射線科_麻酔科】【一般病床数:312療養病床数:0精神病床数:0感染症病床数:0合計病床数:312】静岡県浜松市中央区将監町" }, "geometry": { "type": "Point", "coordinates": [ 137.755446, 34.716708 ] } },
{ "type": "Feature", "properties": { "ID": 2211223301170, "正式名称": "浜松赤十字病院", "機関区分": 1, "都道府県コード": 22, "市区町村コード": 139, "所在地": "静岡県浜松市浜名区小林１０８８－１", "緯度": 34.805866, "経度": 137.790051, "url": "https://www.iryou.teikyouseido.mhlw.go.jp/znk-web/juminkanja/S2430/initialize?prefCd=22&kikanCd=1223301170&kikanKbn=1", "url2": "http://www.hamamatsu.jrc.or.jp", "内容": "浜松赤十字病院【1:病院】【診療科目:内科_呼吸器内科_循環器内科_消化器内科_外科_脳神経外科_血管外科_乳腺外科_肛門外科_整形外科_形成外科_小児科_産婦人科_眼科_耳鼻いんこう科_皮膚科_泌尿器科_精神科_歯科口腔外科_リハビリテーション科_放射線科_病理診断科_麻酔科】【一般病床数:312療養病床数:0精神病床数:0感染症病床数:0合計病床数:312】静岡県浜松市浜名区小林１０８８－１" }, "geometry": { "type": "Point", "coordinates": [ 137.790051, 34.805866 ] } },
{ "type": "Feature", "properties": { "ID": 2211223301330, "正式名称": "ＪＡ静岡厚生連遠州病院", "機関区分": 1, "都道府県コード": 22, "市区町村コード": 138, "所在地": "静岡県浜松市中央区中央一丁目１番１号", "緯度": 34.712847, "経度": 137.734698, "url": "https://www.iryou.teikyouseido.mhlw.go.jp/znk-web/juminkanja/S2430/initialize?prefCd=22&kikanCd=1223301330&kikanKbn=1", "url2": "https://k-enshu.ja-shizuoka.or.jp/", "内容": "ＪＡ静岡厚生連遠州病院【1:病院】【診療科目:内科_脳神経内科_循環器内科_消化器内科_外科_脳神経外科_血管外科_消化器外科_整形外科_形成外科_小児科_産婦人科_眼科_耳鼻いんこう科_皮膚科_泌尿器科_精神科_神経科_リハビリテーション科_放射線科_臨床検査科_救急科_麻酔科】【一般病床数:340療養病床数:60精神病床数:0感染症病床数:0合計病床数:400】静岡県浜松市中央区中央一丁目１番１号" }, "geometry": { "type": "Point", "coordinates": [ 137.734698, 34.712847 ] } },
{ "type": "Feature", "properties": { "ID": 2211223301590, "正式名称": "社会福祉法人聖隷福祉事業団総合病院聖隷浜松病院", "機関区分": 1, "都道府県コード": 22, "市区町村コード": 138, "所在地": "静岡県浜松市中央区住吉２丁目１２－１２", "緯度": 34.730456, "経度": 137.725782, "url": "https://www.iryou.teikyouseido.mhlw.go.jp/znk-web/juminkanja/S2430/initialize?prefCd=22&kikanCd=1223301590&kikanKbn=1", "url2": "http://www.seirei.or.jp/hamamatsu/", "内容": "社会福祉法人聖隷福祉事業団総合病院聖隷浜松病院【1:病院】【診療科目:内科_血液内科_内分泌内科_脳神経内科_呼吸器内科_循環器内科_消化器内科_腎臓内科_外科_脳神経外科_呼吸器外科_心臓血管外科_消化器外科_肝臓・胆のう・膵臓外科_乳腺外科_大腸・肛門外科_整形外科_形成外科_小児科_小児外科_産婦人科_眼科_耳鼻いんこう科_皮膚科_泌尿器科_精神科_歯科_歯科口腔外科_リハビリテーション科_放射線科_腫瘍放射線科_病理診断科_臨床検査科_救急科_麻酔科】【一般病床数:750療養病床数:0精神病床数:0感染症病床数:0合計病床数:750】静岡県浜松市中央区住吉２丁目１２－１２" }, "geometry": { "type": "Point", "coordinates": [ 137.725782, 34.730456 ] } },
{ "type": "Feature", "properties": { "ID": 2211223301620, "正式名称": "社会福祉法人聖隷福祉事業団総合病院聖隷三方原病院", "機関区分": 1, "都道府県コード": 22, "市区町村コード": 138, "所在地": "静岡県浜松市中央区三方原町３４５３", "緯度": 34.792282, "経度": 137.690948, "url": "https://www.iryou.teikyouseido.mhlw.go.jp/znk-web/juminkanja/S2430/initialize?prefCd=22&kikanCd=1223301620&kikanKbn=1", "url2": "http://www.seirei.or.jp/mikatahara/", "内容": "社会福祉法人聖隷福祉事業団総合病院聖隷三方原病院【1:病院】【診療科目:内科_血液内科_代謝・内分泌内科_呼吸器内科_循環器内科_消化器内科_腎臓内科_神経内科_緩和ケア内科_外科_脳神経外科_呼吸器外科_血管外科_心臓血管外科_消化器外科_整形外科_形成外科_小児科_産科_婦人科_眼科_耳鼻いんこう科_皮膚科_泌尿器科_精神科_歯科_リハビリテーション科_放射線科_放射線治療科_病理診断科_臨床検査科_救急科_麻酔科】【一般病床数:810療養病床数:0精神病床数:104感染症病床数:0合計病床数:928】静岡県浜松市中央区三方原町３４５３" }, "geometry": { "type": "Point", "coordinates": [ 137.690948, 34.792282 ] } },
{ "type": "Feature", "properties": { "ID": 2211223302050, "正式名称": "三方原病院", "機関区分": 1, "都道府県コード": 22, "市区町村コード": 138, "所在地": "静岡県浜松市中央区小沢渡町２１９５－２", "緯度": 34.67585, "経度": 137.677927, "url": "https://www.iryou.teikyouseido.mhlw.go.jp/znk-web/juminkanja/S2430/initialize?prefCd=22&kikanCd=1223302050&kikanKbn=1", "url2": "http://www.k-mikatahara.or.jp/", "内容": "三方原病院【1:病院】【診療科目:内科_精神科_神経科】【一般病床数:0療養病床数:0精神病床数:278感染症病床数:0合計病床数:278】静岡県浜松市中央区小沢渡町２１９５－２" }, "geometry": { "type": "Point", "coordinates": [ 137.677927, 34.67585 ] } },
{ "type": "Feature", "properties": { "ID": 2211223302180, "正式名称": "浜松医療センター", "機関区分": 1, "都道府県コード": 22, "市区町村コード": 138, "所在地": "静岡県浜松市中央区富塚町３２８", "緯度": 34.716124, "経度": 137.70134, "url": "https://www.iryou.teikyouseido.mhlw.go.jp/znk-web/juminkanja/S2430/initialize?prefCd=22&kikanCd=1223302180&kikanKbn=1", "url2": "https://www.hmedc.or.jp/", "内容": "浜松医療センター【1:病院】【診療科目:内科_感染症内科_血液内科_代謝・内分泌内科_脳神経内科_呼吸器内科_循環器内科_消化器内科_腎臓内科_人工透析内科_腫瘍内科_外科_脳神経外科_呼吸器外科_血管外科_心臓血管外科_消化器外科_乳腺外科_整形外科_形成外科_小児科_産婦人科_眼科_耳鼻いんこう科_皮膚科_泌尿器科_精神科_歯科口腔外科_リウマチ科_リハビリテーション科_放射線診断科_放射線治療科_病理診断科_臨床検査科_救急科_麻酔科】【一般病床数:600療養病床数:0精神病床数:0感染症病床数:6合計病床数:606】静岡県浜松市中央区富塚町３２８" }, "geometry": { "type": "Point", "coordinates": [ 137.70134, 34.716124 ] } },
{ "type": "Feature", "properties": { "ID": 2211223302210, "正式名称": "浜松北病院", "機関区分": 1, "都道府県コード": 22, "市区町村コード": 138, "所在地": "静岡県浜松市中央区大瀬町", "緯度": 34.763314, "経度": 137.771943, "url": "https://www.iryou.teikyouseido.mhlw.go.jp/znk-web/juminkanja/S2430/initialize?prefCd=22&kikanCd=1223302210&kikanKbn=1", "url2": "https://www.hamamatsu-kb.or.jp", "内容": "浜松北病院【1:病院】【診療科目:内科_循環器内科_消化器内科_神経内科_外科_脳神経外科_整形外科_眼科_皮膚科_泌尿器科_歯科口腔外科_リハビリテーション科_放射線科】【一般病床数:167療養病床数:32精神病床数:0感染症病床数:0合計病床数:199】静岡県浜松市中央区大瀬町" }, "geometry": { "type": "Point", "coordinates": [ 137.771943, 34.763314 ] } },
{ "type": "Feature", "properties": { "ID": 2211223302500, "正式名称": "医療法人社団松愛会松田病院", "機関区分": 1, "都道府県コード": 22, "市区町村コード": 138, "所在地": "静岡県浜松市中央区入野町７５３番地", "緯度": 34.697959, "経度": 137.69848, "url": "https://www.iryou.teikyouseido.mhlw.go.jp/znk-web/juminkanja/S2430/initialize?prefCd=22&kikanCd=1223302500&kikanKbn=1", "url2": "https://matsuda-hp.or.jp/", "内容": "医療法人社団松愛会松田病院【1:病院】【診療科目:胃腸内科_外科_消化器外科_胃腸外科_大腸外科_肛門外科_内視鏡外科】【一般病床数:60療養病床数:0精神病床数:0感染症病床数:0合計病床数:60】静岡県浜松市中央区入野町７５３番地" }, "geometry": { "type": "Point", "coordinates": [ 137.69848, 34.697959 ] } },
{ "type": "Feature", "properties": { "ID": 2211223302920, "正式名称": "医療法人社団　緑生会　天王病院", "機関区分": 1, "都道府県コード": 22, "市区町村コード": 138, "所在地": "静岡県浜松市中央区天王町１９２５", "緯度": 34.739327, "経度": 137.767064, "url": "https://www.iryou.teikyouseido.mhlw.go.jp/znk-web/juminkanja/S2430/initialize?prefCd=22&kikanCd=1223302920&kikanKbn=1", "url2": "httt://www.tennou-hospital.or.jp/", "内容": "医療法人社団　緑生会　天王病院【1:病院】【診療科目:内科_精神科】【一般病床数:0療養病床数:0精神病床数:117感染症病床数:0合計病床数:117】静岡県浜松市中央区天王町１９２５" }, "geometry": { "type": "Point", "coordinates": [ 137.767064, 34.739327 ] } },
{ "type": "Feature", "properties": { "ID": 2211223303060, "正式名称": "浜松市リハビリテーション病院", "機関区分": 1, "都道府県コード": 22, "市区町村コード": 138, "所在地": "静岡県浜松市中央区和合北１丁目６－１", "緯度": 34.737043, "経度": 137.7199, "url": "https://www.iryou.teikyouseido.mhlw.go.jp/znk-web/juminkanja/S2430/initialize?prefCd=22&kikanCd=1223303060&kikanKbn=1", "url2": "https://www.hriha.jp/", "内容": "浜松市リハビリテーション病院【1:病院】【診療科目:内科_脳神経外科_整形外科_歯科_リハビリテーション科】【一般病床数:180療養病床数:45精神病床数:0感染症病床数:0合計病床数:225】静岡県浜松市中央区和合北１丁目６－１" }, "geometry": { "type": "Point", "coordinates": [ 137.7199, 34.737043 ] } },
{ "type": "Feature", "properties": { "ID": 2211223303220, "正式名称": "医療法人社団　種光会　朝山病院", "機関区分": 1, "都道府県コード": 22, "市区町村コード": 138, "所在地": "静岡県浜松市中央区東三方町４７６－１", "緯度": 34.784589, "経度": 137.728584, "url": "https://www.iryou.teikyouseido.mhlw.go.jp/znk-web/juminkanja/S2430/initialize?prefCd=22&kikanCd=1223303220&kikanKbn=1", "url2": "https://asayama-hospital.com", "内容": "医療法人社団　種光会　朝山病院【1:病院】【診療科目:精神科_神経科_心療内科】【一般病床数:0療養病床数:0精神病床数:240感染症病床数:0合計病床数:240】静岡県浜松市中央区東三方町４７６－１" }, "geometry": { "type": "Point", "coordinates": [ 137.728584, 34.784589 ] } },
{ "type": "Feature", "properties": { "ID": 2211223303350, "正式名称": "医療法人社団三誠会　北斗わかば病院", "機関区分": 1, "都道府県コード": 22, "市区町村コード": 139, "所在地": "静岡県浜松市浜名区於呂３１８１－１", "緯度": 34.829357, "経度": 137.801909, "url": "https://www.iryou.teikyouseido.mhlw.go.jp/znk-web/juminkanja/S2430/initialize?prefCd=22&kikanCd=1223303350&kikanKbn=1", "url2": "http://www.hokuto-wakaba.jp", "内容": "医療法人社団三誠会　北斗わかば病院【1:病院】【診療科目:内科_神経内科_整形外科_耳鼻いんこう科_リウマチ科_リハビリテーション科】【一般病床数:0療養病床数:142精神病床数:0感染症病床数:0合計病床数:142】静岡県浜松市浜名区於呂３１８１－１" }, "geometry": { "type": "Point", "coordinates": [ 137.801909, 34.829357 ] } },
{ "type": "Feature", "properties": { "ID": 2211223303480, "正式名称": "医療法人社団綾和会浜松南病院", "機関区分": 1, "都道府県コード": 22, "市区町村コード": 138, "所在地": "静岡県浜松市中央区白羽町２６", "緯度": 34.684461, "経度": 137.739227, "url": "https://www.iryou.teikyouseido.mhlw.go.jp/znk-web/juminkanja/S2430/initialize?prefCd=22&kikanCd=1223303480&kikanKbn=1", "url2": "http://www.hamamatsu-minami.com/", "内容": "医療法人社団綾和会浜松南病院【1:病院】【診療科目:内科_内分泌内科_脳神経内科_呼吸器内科_循環器内科_消化器内科_外科_肛門外科_整形外科_皮膚科_泌尿器科_リウマチ科_リハビリテーション科】【一般病床数:50療養病床数:100精神病床数:0感染症病床数:0合計病床数:150】静岡県浜松市中央区白羽町２６" }, "geometry": { "type": "Point", "coordinates": [ 137.739227, 34.684461 ] } },
{ "type": "Feature", "properties": { "ID": 2211223303770, "正式名称": "医療法人豊岡会浜松とよおか病院", "機関区分": 1, "都道府県コード": 22, "市区町村コード": 138, "所在地": "静岡県浜松市中央区豊岡町１１０", "緯度": 34.788698, "経度": 137.73616, "url": "https://www.iryou.teikyouseido.mhlw.go.jp/znk-web/juminkanja/S2430/initialize?prefCd=22&kikanCd=1223303770&kikanKbn=1", "url2": "http://www.toyookakai.or.jp", "内容": "医療法人豊岡会浜松とよおか病院【1:病院】【診療科目:内科_呼吸器内科_消化器内科_腎臓内科_リハビリテーション科】【一般病床数:0療養病床数:230精神病床数:0感染症病床数:0合計病床数:230】静岡県浜松市中央区豊岡町１１０" }, "geometry": { "type": "Point", "coordinates": [ 137.73616, 34.788698 ] } },
{ "type": "Feature", "properties": { "ID": 2211223303800, "正式名称": "かば記念病院", "機関区分": 1, "都道府県コード": 22, "市区町村コード": 138, "所在地": "静岡県浜松市中央区神立町５７０", "緯度": 34.712181, "経度": 137.753725, "url": "https://www.iryou.teikyouseido.mhlw.go.jp/znk-web/juminkanja/S2430/initialize?prefCd=22&kikanCd=1223303800&kikanKbn=1", "url2": "http://www.kaba-san.org", "内容": "かば記念病院【1:病院】【診療科目:小児科_産科_婦人科】【一般病床数:44療養病床数:0精神病床数:0感染症病床数:0合計病床数:44】静岡県浜松市中央区神立町５７０" }, "geometry": { "type": "Point", "coordinates": [ 137.753725, 34.712181 ] } },
{ "type": "Feature", "properties": { "ID": 2211223304070, "正式名称": "常葉大学リハビリテーション病院", "機関区分": 1, "都道府県コード": 22, "市区町村コード": 138, "所在地": "静岡県浜松市中央区大山町３８０５", "緯度": 34.786743, "経度": 137.692921, "url": "https://www.iryou.teikyouseido.mhlw.go.jp/znk-web/juminkanja/S2430/initialize?prefCd=22&kikanCd=1223304070&kikanKbn=1", "url2": "http://www.tokoha-reha.jp/", "内容": "常葉大学リハビリテーション病院【1:病院】【診療科目:内科_整形外科_リウマチ科_リハビリテーション科_放射線科】【一般病床数:0療養病床数:80精神病床数:0感染症病床数:0合計病床数:80】静岡県浜松市中央区大山町３８０５" }, "geometry": { "type": "Point", "coordinates": [ 137.692921, 34.786743 ] } },
{ "type": "Feature", "properties": { "ID": 2211223304100, "正式名称": "十全記念病院", "機関区分": 1, "都道府県コード": 22, "市区町村コード": 139, "所在地": "静岡県浜松市浜名区小松１７００", "緯度": 34.792535, "経度": 137.763514, "url": "https://www.iryou.teikyouseido.mhlw.go.jp/znk-web/juminkanja/S2430/initialize?prefCd=22&kikanCd=1223304100&kikanKbn=1", "url2": "http://www.jyuzen-byouin.com", "内容": "十全記念病院【1:病院】【診療科目:内科_糖尿病・内分泌内科_循環器内科_消化器内科_腎臓内科_肝臓内科_外科_脳神経外科_心臓血管外科_消化器外科_乳腺外科_整形外科_形成外科_産婦人科_眼科_耳鼻いんこう科_皮膚科_泌尿器科_歯科_歯科口腔外科_リハビリテーション科_放射線科_麻酔科】【一般病床数:95療養病床数:204精神病床数:0感染症病床数:0合計病床数:299】静岡県浜松市浜名区小松１７００" }, "geometry": { "type": "Point", "coordinates": [ 137.763514, 34.792535 ] } },
{ "type": "Feature", "properties": { "ID": 2211223304230, "正式名称": "平安の森記念病院", "機関区分": 1, "都道府県コード": 22, "市区町村コード": 138, "所在地": "静岡県浜松市中央区八幡町１８１番地", "緯度": 34.715056, "経度": 137.73447, "url": "https://www.iryou.teikyouseido.mhlw.go.jp/znk-web/juminkanja/S2430/initialize?prefCd=22&kikanCd=1223304230&kikanKbn=1", "url2": "https://www.azumakai.or.jp/", "内容": "平安の森記念病院【1:病院】【診療科目:内科_皮膚科_泌尿器科_リハビリテーション科】【一般病床数:0療養病床数:118精神病床数:0感染症病床数:0合計病床数:118】静岡県浜松市中央区八幡町１８１番地" }, "geometry": { "type": "Point", "coordinates": [ 137.73447, 34.715056 ] } },
{ "type": "Feature", "properties": { "ID": 2211223400190, "正式名称": "しずおか整形外科病院", "機関区分": 1, "都道府県コード": 22, "市区町村コード": 101, "所在地": "静岡県静岡市葵区柚木９０番地の１", "緯度": 34.979959, "経度": 138.405144, "url": "https://www.iryou.teikyouseido.mhlw.go.jp/znk-web/juminkanja/S2430/initialize?prefCd=22&kikanCd=1223400190&kikanKbn=1", "url2": "https://www.r-and-o.jp/shizuoka-riumachi/", "内容": "しずおか整形外科病院【1:病院】【診療科目:内科_循環器内科_整形外科_リウマチ科_リハビリテーション科_麻酔科】【一般病床数:24療養病床数:64精神病床数:0感染症病床数:0合計病床数:88】静岡県静岡市葵区柚木９０番地の１" }, "geometry": { "type": "Point", "coordinates": [ 138.405144, 34.979959 ] } },
{ "type": "Feature", "properties": { "ID": 2211223400220, "正式名称": "白萩病院", "機関区分": 1, "都道府県コード": 22, "市区町村コード": 102, "所在地": "静岡県静岡市駿河区西大谷１６－１", "緯度": 34.951613, "経度": 138.426373, "url": "https://www.iryou.teikyouseido.mhlw.go.jp/znk-web/juminkanja/S2430/initialize?prefCd=22&kikanCd=1223400220&kikanKbn=1", "url2": "http://www.shujikai.jp/", "内容": "白萩病院【1:病院】【診療科目:内科_循環器内科_腎臓内科_心臓血管外科_耳鼻いんこう科_皮膚科_リハビリテーション科】【一般病床数:0療養病床数:120精神病床数:0感染症病床数:0合計病床数:120】静岡県静岡市駿河区西大谷１６－１" }, "geometry": { "type": "Point", "coordinates": [ 138.426373, 34.951613 ] } },
{ "type": "Feature", "properties": { "ID": 2211223400350, "正式名称": "静清リハビリテーション病院", "機関区分": 1, "都道府県コード": 22, "市区町村コード": 101, "所在地": "静岡県静岡市葵区春日２－１２－２５", "緯度": 34.979171, "経度": 138.403599, "url": "https://www.iryou.teikyouseido.mhlw.go.jp/znk-web/juminkanja/S2430/initialize?prefCd=22&kikanCd=1223400350&kikanKbn=1", "url2": "https://www.r-and-o.jp/seiseiriha/", "内容": "静清リハビリテーション病院【1:病院】【診療科目:内科_循環器内科_神経内科_外科_脳神経外科_整形外科_歯科_リハビリテーション科】【一般病床数:0療養病床数:250精神病床数:0感染症病床数:0合計病床数:250】静岡県静岡市葵区春日２－１２－２５" }, "geometry": { "type": "Point", "coordinates": [ 138.403599, 34.979171 ] } },
{ "type": "Feature", "properties": { "ID": 2211223400480, "正式名称": "医療法人　徳洲会　静岡徳洲会病院", "機関区分": 1, "都道府県コード": 22, "市区町村コード": 102, "所在地": "静岡県静岡市駿河区下川原南１１番１号", "緯度": 34.931224, "経度": 138.384301, "url": "https://www.iryou.teikyouseido.mhlw.go.jp/znk-web/juminkanja/S2430/initialize?prefCd=22&kikanCd=1223400480&kikanKbn=1", "url2": "http://www.shizutoku.jp/", "内容": "医療法人　徳洲会　静岡徳洲会病院【1:病院】【診療科目:内科_呼吸器内科_循環器内科_消化器内科_神経内科_外科_脳神経外科_心臓血管外科_整形外科_形成外科_小児科_産婦人科_眼科_耳鼻いんこう科_皮膚科_泌尿器科_歯科口腔外科_リハビリテーション科_放射線科_病理診断科_麻酔科】【一般病床数:364療養病床数:55精神病床数:0感染症病床数:0合計病床数:419】静岡県静岡市駿河区下川原南１１番１号" }, "geometry": { "type": "Point", "coordinates": [ 138.384301, 34.931224 ] } },
{ "type": "Feature", "properties": { "ID": 2211225100380, "正式名称": "医療法人社団健育会　熱川温泉病院", "機関区分": 1, "都道府県コード": 22, "市区町村コード": 301, "所在地": "静岡県賀茂郡東伊豆町白田４２４", "緯度": 34.80684, "経度": 139.053832, "url": "https://www.iryou.teikyouseido.mhlw.go.jp/znk-web/juminkanja/S2430/initialize?prefCd=22&kikanCd=1225100380&kikanKbn=1", "url2": "http://www.atagawa.gr.jp", "内容": "医療法人社団健育会　熱川温泉病院【1:病院】【診療科目:内科_糖尿病・内分泌内科_脳神経内科_循環器内科_人工透析内科_外科_脳神経外科_呼吸器外科_整形外科_小児科_皮膚科_泌尿器科_リウマチ科_リハビリテーション科】【一般病床数:0療養病床数:199精神病床数:0感染症病床数:0合計病床数:199】静岡県賀茂郡東伊豆町白田４２４" }, "geometry": { "type": "Point", "coordinates": [ 139.053832, 34.80684 ] } },
{ "type": "Feature", "properties": { "ID": 2211225100540, "正式名称": "医療法人社団康心会　康心会伊豆東部病院", "機関区分": 1, "都道府県コード": 22, "市区町村コード": 301, "所在地": "静岡県賀茂郡東伊豆町稲取１７－２", "緯度": 34.778891, "経度": 139.044087, "url": "https://www.iryou.teikyouseido.mhlw.go.jp/znk-web/juminkanja/S2430/initialize?prefCd=22&kikanCd=1225100540&kikanKbn=1", "url2": "http://www.fureai-g.or.jp", "内容": "医療法人社団康心会　康心会伊豆東部病院【1:病院】【診療科目:内科_脳神経内科_循環器内科_消化器内科_腎臓内科_外科_脳神経外科_整形外科_婦人科_眼科_リハビリテーション科】【一般病床数:160療養病床数:0精神病床数:0感染症病床数:0合計病床数:160】静岡県賀茂郡東伊豆町稲取１７－２" }, "geometry": { "type": "Point", "coordinates": [ 139.044087, 34.778891 ] } },
{ "type": "Feature", "properties": { "ID": 2211225100670, "正式名称": "河津浜病院", "機関区分": 1, "都道府県コード": 22, "市区町村コード": 302, "所在地": "静岡県賀茂郡河津町川津筏場１５１２－７", "緯度": 34.785333, "経度": 138.973703, "url": "https://www.iryou.teikyouseido.mhlw.go.jp/znk-web/juminkanja/S2430/initialize?prefCd=22&kikanCd=1225100670&kikanKbn=1", "url2": "https://www.kawazuhama-omoto.com/wp/", "内容": "河津浜病院【1:病院】【診療科目:精神科】【一般病床数:0療養病床数:0精神病床数:190感染症病床数:0合計病床数:190】静岡県賀茂郡河津町川津筏場１５１２－７" }, "geometry": { "type": "Point", "coordinates": [ 138.973703, 34.785333 ] } },
{ "type": "Feature", "properties": { "ID": 2211225100700, "正式名称": "医療法人社団辰五会ふれあい南伊豆ホスピタル", "機関区分": 1, "都道府県コード": 22, "市区町村コード": 304, "所在地": "静岡県賀茂郡南伊豆町青市８４８", "緯度": 34.666317, "経度": 138.897743, "url": "https://www.iryou.teikyouseido.mhlw.go.jp/znk-web/juminkanja/S2430/initialize?prefCd=22&kikanCd=1225100700&kikanKbn=1", "url2": "http://www.fureai-g.or.jp/m-izu/", "内容": "医療法人社団辰五会ふれあい南伊豆ホスピタル【1:病院】【診療科目:精神科_心療内科】【一般病床数:0療養病床数:0精神病床数:248感染症病床数:0合計病床数:248】静岡県賀茂郡南伊豆町青市８４８" }, "geometry": { "type": "Point", "coordinates": [ 138.897743, 34.666317 ] } },
{ "type": "Feature", "properties": { "ID": 2211225101130, "正式名称": "医療法人社団健育会西伊豆健育会病院", "機関区分": 1, "都道府県コード": 22, "市区町村コード": 306, "所在地": "静岡県賀茂郡西伊豆町仁科１３８－２", "緯度": 34.770165, "経度": 138.78047, "url": "https://www.iryou.teikyouseido.mhlw.go.jp/znk-web/juminkanja/S2430/initialize?prefCd=22&kikanCd=1225101130&kikanKbn=1", "url2": "http://www.nishiizu.gr.jp/", "内容": "医療法人社団健育会西伊豆健育会病院【1:病院】【診療科目:内科_循環器内科_呼吸器外科_整形外科_皮膚科_泌尿器科_リハビリテーション科】【一般病床数:78療養病床数:0精神病床数:0感染症病床数:0合計病床数:78】静岡県賀茂郡西伊豆町仁科１３８－２" }, "geometry": { "type": "Point", "coordinates": [ 138.78047, 34.770165 ] } },
{ "type": "Feature", "properties": { "ID": 2211225101260, "正式名称": "医療法人社団桑寿会下田温泉病院", "機関区分": 1, "都道府県コード": 22, "市区町村コード": 219, "所在地": "静岡県下田市柿崎９９７－２", "緯度": 34.672225, "経度": 138.967367, "url": "https://www.iryou.teikyouseido.mhlw.go.jp/znk-web/juminkanja/S2430/initialize?prefCd=22&kikanCd=1225101260&kikanKbn=1", "url2": "https://soujukai.crayonsite.info", "内容": "医療法人社団桑寿会下田温泉病院【1:病院】【診療科目:内科_リハビリテーション科】【一般病床数:0療養病床数:40精神病床数:0感染症病床数:0合計病床数:40】静岡県下田市柿崎９９７－２" }, "geometry": { "type": "Point", "coordinates": [ 138.967367, 34.672225 ] } },
{ "type": "Feature", "properties": { "ID": 2211225101420, "正式名称": "公益社団法人地域医療振興協会　伊豆今井浜病院", "機関区分": 1, "都道府県コード": 22, "市区町村コード": 302, "所在地": "静岡県賀茂郡河津町見高１７８", "緯度": 34.754226, "経度": 139.004035, "url": "https://www.iryou.teikyouseido.mhlw.go.jp/znk-web/juminkanja/S2430/initialize?prefCd=22&kikanCd=1225101420&kikanKbn=1", "url2": "http://izuimaihama.jadecom.or.jp/", "内容": "公益社団法人地域医療振興協会　伊豆今井浜病院【1:病院】【診療科目:内科_循環器内科_外科_整形外科_小児科_婦人科_眼科_耳鼻いんこう科_皮膚科_リハビリテーション科_麻酔科】【一般病床数:100療養病床数:0精神病床数:0感染症病床数:0合計病床数:100】静岡県賀茂郡河津町見高１７８" }, "geometry": { "type": "Point", "coordinates": [ 139.004035, 34.754226 ] } },
{ "type": "Feature", "properties": { "ID": 2211225101550, "正式名称": "下田メディカルセンター", "機関区分": 1, "都道府県コード": 22, "市区町村コード": 219, "所在地": "静岡県下田市六丁目４－１０", "緯度": 34.674206, "経度": 138.938128, "url": "https://www.iryou.teikyouseido.mhlw.go.jp/znk-web/juminkanja/S2430/initialize?prefCd=22&kikanCd=1225101550&kikanKbn=1", "url2": "http://www.s-m-a.or.jp/shimoda/", "内容": "下田メディカルセンター【1:病院】【診療科目:内科_糖尿病内科_循環器内科_消化器内科_外科_脳神経外科_整形外科_小児科_婦人科_眼科_耳鼻いんこう科_皮膚科_泌尿器科_リハビリテーション科_麻酔科】【一般病床数:126療養病床数:0精神病床数:0感染症病床数:4合計病床数:130】静岡県下田市六丁目４－１０" }, "geometry": { "type": "Point", "coordinates": [ 138.938128, 34.674206 ] } },
{ "type": "Feature", "properties": { "ID": 2211225300180, "正式名称": "国際医療福祉大学熱海病院", "機関区分": 1, "都道府県コード": 22, "市区町村コード": 205, "所在地": "静岡県熱海市東海岸町１３－１", "緯度": 35.103079, "経度": 139.082652, "url": "https://www.iryou.teikyouseido.mhlw.go.jp/znk-web/juminkanja/S2430/initialize?prefCd=22&kikanCd=1225300180&kikanKbn=1", "url2": "http://atami.iuhw.ac.jp/", "内容": "国際医療福祉大学熱海病院【1:病院】【診療科目:内科_糖尿病内科_内分泌内科_代謝・内分泌内科_脳神経内科_呼吸器内科_循環器内科_消化器内科_腎臓内科_漢方内科_外科_脳神経外科_呼吸器外科_心臓血管外科_消化器外科_ペインクリニック外科_移植外科_整形外科_形成外科_小児科_産婦人科_眼科_耳鼻いんこう科_皮膚科_泌尿器科_精神科_歯科口腔外科_リハビリテーション科_放射線科_病理診断科_臨床検査科_救急科_麻酔科】【一般病床数:234療養病床数:31精神病床数:0感染症病床数:4合計病床数:269】静岡県熱海市東海岸町１３－１" }, "geometry": { "type": "Point", "coordinates": [ 139.082652, 35.103079 ] } },
{ "type": "Feature", "properties": { "ID": 2211225300920, "正式名称": "医療法人社団伊豆七海会　熱海所記念病院", "機関区分": 1, "都道府県コード": 22, "市区町村コード": 205, "所在地": "静岡県熱海市昭和町２０－２０", "緯度": 35.091497, "経度": 139.068515, "url": "https://www.iryou.teikyouseido.mhlw.go.jp/znk-web/juminkanja/S2430/initialize?prefCd=22&kikanCd=1225300920&kikanKbn=1", "url2": "http://atami-tokoro.jp", "内容": "医療法人社団伊豆七海会　熱海所記念病院【1:病院】【診療科目:内科_血液内科_糖尿病内科_呼吸器内科_循環器内科_消化器内科_神経内科_外科_脳神経外科_消化器外科_乳腺外科_ペインクリニック外科_整形外科_小児科_婦人科_皮膚科_泌尿器科_リハビリテーション科_放射線科_麻酔科】【一般病床数:144療養病床数:0精神病床数:0感染症病床数:0合計病床数:144】静岡県熱海市昭和町２０－２０" }, "geometry": { "type": "Point", "coordinates": [ 139.068515, 35.091497 ] } },
{ "type": "Feature", "properties": { "ID": 2211225301060, "正式名称": "医療法人財団桜会熱海ちとせ病院", "機関区分": 1, "都道府県コード": 22, "市区町村コード": 205, "所在地": "静岡県熱海市泉１７－１", "緯度": 35.144686, "経度": 139.072734, "url": "https://www.iryou.teikyouseido.mhlw.go.jp/znk-web/juminkanja/S2430/initialize?prefCd=22&kikanCd=1225301060&kikanKbn=1", "url2": "https://www.aoikai.jp/atamichitose/", "内容": "医療法人財団桜会熱海ちとせ病院【1:病院】【診療科目:内科_リハビリテーション科】【一般病床数:0療養病床数:89精神病床数:0感染症病床数:0合計病床数:89】静岡県熱海市泉１７－１" }, "geometry": { "type": "Point", "coordinates": [ 139.072734, 35.144686 ] } },
{ "type": "Feature", "properties": { "ID": 2211225301220, "正式名称": "社会福祉法人愛誠会　南熱海病院", "機関区分": 1, "都道府県コード": 22, "市区町村コード": 205, "所在地": "静岡県熱海市下多賀４７７", "緯度": 35.045752, "経度": 139.081127, "url": "https://www.iryou.teikyouseido.mhlw.go.jp/znk-web/juminkanja/S2430/initialize?prefCd=22&kikanCd=1225301220&kikanKbn=1", "url2": null, "内容": "社会福祉法人愛誠会　南熱海病院【1:病院】【診療科目:内科_腎臓内科_腎臓内科（人工透析）_整形外科_皮膚科_泌尿器科_リハビリテーション科】【一般病床数:20療養病床数:90精神病床数:0感染症病床数:0合計病床数:110】静岡県熱海市下多賀４７７" }, "geometry": { "type": "Point", "coordinates": [ 139.081127, 35.045752 ] } },
{ "type": "Feature", "properties": { "ID": 2211225301480, "正式名称": "伊東市民病院", "機関区分": 1, "都道府県コード": 22, "市区町村コード": 208, "所在地": "静岡県伊東市岡１９６－１", "緯度": 34.960428, "経度": 139.088019, "url": "https://www.iryou.teikyouseido.mhlw.go.jp/znk-web/juminkanja/S2430/initialize?prefCd=22&kikanCd=1225301480&kikanKbn=1", "url2": "http://www.ito-shimin-hp.jp", "内容": "伊東市民病院【1:病院】【診療科目:内科_循環器内科_消化器内科_外科_脳神経外科_整形外科_形成外科_小児科_産婦人科_眼科_耳鼻いんこう科_皮膚科_泌尿器科_リハビリテーション科_放射線科_麻酔科】【一般病床数:250療養病床数:0精神病床数:0感染症病床数:0合計病床数:250】静岡県伊東市岡１９６－１" }, "geometry": { "type": "Point", "coordinates": [ 139.088019, 34.960428 ] } },
{ "type": "Feature", "properties": { "ID": 2211225301510, "正式名称": "医療法人社団　伊豆七海会　熱海　海の見える病院", "機関区分": 1, "都道府県コード": 22, "市区町村コード": 205, "所在地": "静岡県熱海市熱海字上ノ山１８４３番１", "緯度": 35.094646, "経度": 139.062643, "url": "https://www.iryou.teikyouseido.mhlw.go.jp/znk-web/juminkanja/S2430/initialize?prefCd=22&kikanCd=1225301510&kikanKbn=1", "url2": "http://www.tmg.or.jp/uminomieru/", "内容": "医療法人社団　伊豆七海会　熱海　海の見える病院【1:病院】【診療科目:内科_腎臓内科_人工透析内科_腫瘍内科_リハビリテーション科】【一般病床数:76療養病床数:36精神病床数:0感染症病床数:0合計病床数:112】静岡県熱海市熱海字上ノ山１８４３番１" }, "geometry": { "type": "Point", "coordinates": [ 139.062643, 35.094646 ] } },
{ "type": "Feature", "properties": { "ID": 2211225500140, "正式名称": "伊豆赤十字病院", "機関区分": 1, "都道府県コード": 22, "市区町村コード": 222, "所在地": "静岡県伊豆市小立野１００", "緯度": 34.97584, "経度": 138.945363, "url": "https://www.iryou.teikyouseido.mhlw.go.jp/znk-web/juminkanja/S2430/initialize?prefCd=22&kikanCd=1225500140&kikanKbn=1", "url2": "http://izurc.jp", "内容": "伊豆赤十字病院【1:病院】【診療科目:内科_外科_整形外科_小児科_婦人科_泌尿器科_精神科】【一般病床数:43療養病床数:41精神病床数:0感染症病床数:0合計病床数:84】静岡県伊豆市小立野１００" }, "geometry": { "type": "Point", "coordinates": [ 138.945363, 34.97584 ] } },
{ "type": "Feature", "properties": { "ID": 2211225500300, "正式名称": "ＪＡ静岡厚生連中伊豆温泉病院", "機関区分": 1, "都道府県コード": 22, "市区町村コード": 222, "所在地": "静岡県伊豆市下白岩７５番地", "緯度": 34.960037, "経度": 138.983944, "url": "https://www.iryou.teikyouseido.mhlw.go.jp/znk-web/juminkanja/S2430/initialize?prefCd=22&kikanCd=1225500300&kikanKbn=1", "url2": "http://www.k-nakaizu.jp/", "内容": "ＪＡ静岡厚生連中伊豆温泉病院【1:病院】【診療科目:内科_糖尿病・内分泌内科_外科_脳神経外科_消化器外科_整形外科_眼科_皮膚科_泌尿器科_リウマチ科_リハビリテーション科】【一般病床数:110療養病床数:118精神病床数:0感染症病床数:0合計病床数:228】静岡県伊豆市下白岩７５番地" }, "geometry": { "type": "Point", "coordinates": [ 138.983944, 34.960037 ] } },
{ "type": "Feature", "properties": { "ID": 2211225500430, "正式名称": "農協共済中伊豆リハビリテーションセンター", "機関区分": 1, "都道府県コード": 22, "市区町村コード": 222, "所在地": "静岡県伊豆市冷川１５２３－１０８", "緯度": 34.924264, "経度": 139.019749, "url": "https://www.iryou.teikyouseido.mhlw.go.jp/znk-web/juminkanja/S2430/initialize?prefCd=22&kikanCd=1225500430&kikanKbn=1", "url2": "http://www.janrc.or.jp/", "内容": "農協共済中伊豆リハビリテーションセンター【1:病院】【診療科目:内科_循環器内科_神経内科_脳神経外科_整形外科_泌尿器科_歯科_リハビリテーション科】【一般病床数:0療養病床数:128精神病床数:0感染症病床数:0合計病床数:128】静岡県伊豆市冷川１５２３－１０８" }, "geometry": { "type": "Point", "coordinates": [ 139.019749, 34.924264 ] } },
{ "type": "Feature", "properties": { "ID": 2211225500560, "正式名称": "伊豆保健医療センター", "機関区分": 1, "都道府県コード": 22, "市区町村コード": 225, "所在地": "静岡県伊豆の国市田京２７０－１", "緯度": 35.01342, "経度": 138.944945, "url": "https://www.iryou.teikyouseido.mhlw.go.jp/znk-web/juminkanja/S2430/initialize?prefCd=22&kikanCd=1225500560&kikanKbn=1", "url2": "http://izu-hmc.jp", "内容": "伊豆保健医療センター【1:病院】【診療科目:内科_呼吸器内科_外科_脳神経外科_整形外科_皮膚科_泌尿器科_放射線科】【一般病床数:97療養病床数:0精神病床数:0感染症病床数:0合計病床数:97】静岡県伊豆の国市田京２７０－１" }, "geometry": { "type": "Point", "coordinates": [ 138.944945, 35.01342 ] } },
{ "type": "Feature", "properties": { "ID": 2211225500690, "正式名称": "医療法人社団同仁会中島病院", "機関区分": 1, "都道府県コード": 22, "市区町村コード": 222, "所在地": "静岡県伊豆市松ケ瀬７５", "緯度": 34.942829, "経度": 138.930976, "url": "https://www.iryou.teikyouseido.mhlw.go.jp/znk-web/juminkanja/S2430/initialize?prefCd=22&kikanCd=1225500690&kikanKbn=1", "url2": "https://nakajimahospital.or.jp", "内容": "医療法人社団同仁会中島病院【1:病院】【診療科目:内科_呼吸器内科_循環器内科_外科_ペインクリニック外科_整形外科_小児科_耳鼻いんこう科】【一般病床数:0療養病床数:40精神病床数:0感染症病床数:0合計病床数:40】静岡県伊豆市松ケ瀬７５" }, "geometry": { "type": "Point", "coordinates": [ 138.930976, 34.942829 ] } },
{ "type": "Feature", "properties": { "ID": 2211225600170, "正式名称": "公益財団法人復康会沼津中央病院", "機関区分": 1, "都道府県コード": 22, "市区町村コード": 203, "所在地": "静岡県沼津市中瀬町２４－１", "緯度": 35.100604, "経度": 138.881974, "url": "https://www.iryou.teikyouseido.mhlw.go.jp/znk-web/juminkanja/S2430/initialize?prefCd=22&kikanCd=1225600170&kikanKbn=1", "url2": "http://www.numazuchuo.jp", "内容": "公益財団法人復康会沼津中央病院【1:病院】【診療科目:精神科_心療内科】【一般病床数:0療養病床数:0精神病床数:270感染症病床数:0合計病床数:270】静岡県沼津市中瀬町２４－１" }, "geometry": { "type": "Point", "coordinates": [ 138.881974, 35.100604 ] } },
{ "type": "Feature", "properties": { "ID": 2211225600200, "正式名称": "ふれあい沼津ホスピタル", "機関区分": 1, "都道府県コード": 22, "市区町村コード": 203, "所在地": "静岡県沼津市市道町８－６", "緯度": 35.095853, "経度": 138.851116, "url": "https://www.iryou.teikyouseido.mhlw.go.jp/znk-web/juminkanja/S2430/initialize?prefCd=22&kikanCd=1225600200&kikanKbn=1", "url2": "http://www.fureai-g.or.jp/senbon-hp/", "内容": "ふれあい沼津ホスピタル【1:病院】【診療科目:内科_精神科_心療内科】【一般病床数:293療養病床数:0精神病床数:293感染症病床数:0合計病床数:293】静岡県沼津市市道町８－６" }, "geometry": { "type": "Point", "coordinates": [ 138.851116, 35.095853 ] } },
{ "type": "Feature", "properties": { "ID": 2211225600590, "正式名称": "公益財団法人復康会沼津リハビリテーション病院", "機関区分": 1, "都道府県コード": 22, "市区町村コード": 203, "所在地": "静岡県沼津市上香貫蔓陀ケ原２５１０－２２", "緯度": 35.075078, "経度": 138.863338, "url": "https://www.iryou.teikyouseido.mhlw.go.jp/znk-web/juminkanja/S2430/initialize?prefCd=22&kikanCd=1225600590&kikanKbn=1", "url2": "http://www.fukkou-kai.jp/nrh/", "内容": "公益財団法人復康会沼津リハビリテーション病院【1:病院】【診療科目:内科_消化器内科_神経内科_リハビリテーション科】【一般病床数:0療養病床数:106精神病床数:0感染症病床数:0合計病床数:106】静岡県沼津市上香貫蔓陀ケ原２５１０－２２" }, "geometry": { "type": "Point", "coordinates": [ 138.863338, 35.075078 ] } },
{ "type": "Feature", "properties": { "ID": 2211225600880, "正式名称": "医療法人社団賢仁会沼津はまゆう病院", "機関区分": 1, "都道府県コード": 22, "市区町村コード": 203, "所在地": "静岡県沼津市錦町３－５", "緯度": 35.100659, "経度": 138.850032, "url": "https://www.iryou.teikyouseido.mhlw.go.jp/znk-web/juminkanja/S2430/initialize?prefCd=22&kikanCd=1225600880&kikanKbn=1", "url2": "http://kenjinkai.hospital", "内容": "医療法人社団賢仁会沼津はまゆう病院【1:病院】【診療科目:内科_呼吸器内科】【一般病床数:0療養病床数:50精神病床数:0感染症病床数:0合計病床数:50】静岡県沼津市錦町３－５" }, "geometry": { "type": "Point", "coordinates": [ 138.850032, 35.100659 ] } },
{ "type": "Feature", "properties": { "ID": 2211225601050, "正式名称": "医療法人財団フリージア会沼津西病院", "機関区分": 1, "都道府県コード": 22, "市区町村コード": 203, "所在地": "静岡県沼津市原２５０－８", "緯度": 35.12285, "経度": 138.797647, "url": "https://www.iryou.teikyouseido.mhlw.go.jp/znk-web/juminkanja/S2430/initialize?prefCd=22&kikanCd=1225601050&kikanKbn=1", "url2": null, "内容": "医療法人財団フリージア会沼津西病院【1:病院】【診療科目:内科_外科】【一般病床数:60療養病床数:0精神病床数:0感染症病床数:0合計病床数:60】静岡県沼津市原２５０－８" }, "geometry": { "type": "Point", "coordinates": [ 138.797647, 35.12285 ] } },
{ "type": "Feature", "properties": { "ID": 2211225601470, "正式名称": "独立行政法人　地域医療機能推進機構　三島総合病院", "機関区分": 1, "都道府県コード": 22, "市区町村コード": 206, "所在地": "静岡県三島市谷田藤久保２２７６", "緯度": 35.123769, "経度": 138.952634, "url": "https://www.iryou.teikyouseido.mhlw.go.jp/znk-web/juminkanja/S2430/initialize?prefCd=22&kikanCd=1225601470&kikanKbn=1", "url2": "http://mishima.jcho.go.jp/", "内容": "独立行政法人　地域医療機能推進機構　三島総合病院【1:病院】【診療科目:内科_呼吸器内科_循環器内科_消化器内科_外科_脳神経外科_乳腺外科_整形外科_産婦人科_眼科_耳鼻いんこう科_皮膚科_泌尿器科_放射線科_麻酔科】【一般病床数:159療養病床数:0精神病床数:0感染症病床数:0合計病床数:159】静岡県三島市谷田藤久保２２７６" }, "geometry": { "type": "Point", "coordinates": [ 138.952634, 35.123769 ] } },
{ "type": "Feature", "properties": { "ID": 2211225601500, "正式名称": "医療法人社団　清風会　芹沢病院", "機関区分": 1, "都道府県コード": 22, "市区町村コード": 206, "所在地": "静岡県三島市幸原町２－３－１", "緯度": 35.137989, "経度": 138.912331, "url": "https://www.iryou.teikyouseido.mhlw.go.jp/znk-web/juminkanja/S2430/initialize?prefCd=22&kikanCd=1225601500&kikanKbn=1", "url2": "http://serizawa-hp.com/wp/", "内容": "医療法人社団　清風会　芹沢病院【1:病院】【診療科目:内科_脳神経内科_循環器内科_胃腸内科_外科_整形外科_リハビリテーション科】【一般病床数:0療養病床数:105精神病床数:0感染症病床数:0合計病床数:105】静岡県三島市幸原町２－３－１" }, "geometry": { "type": "Point", "coordinates": [ 138.912331, 35.137989 ] } },
{ "type": "Feature", "properties": { "ID": 2211225601760, "正式名称": "医療法人社団福仁会三島東海病院", "機関区分": 1, "都道府県コード": 22, "市区町村コード": 206, "所在地": "静岡県三島市川原ケ谷２６４－１２", "緯度": 35.123296, "経度": 138.933719, "url": "https://www.iryou.teikyouseido.mhlw.go.jp/znk-web/juminkanja/S2430/initialize?prefCd=22&kikanCd=1225601760&kikanKbn=1", "url2": "http//www.mishimatohkaihp.or.jp/", "内容": "医療法人社団福仁会三島東海病院【1:病院】【診療科目:内科_外科_脳神経外科_消化器外科_肛門外科_整形外科_リハビリテーション科_放射線科】【一般病床数:55療養病床数:44精神病床数:0感染症病床数:0合計病床数:99】静岡県三島市川原ケ谷２６４－１２" }, "geometry": { "type": "Point", "coordinates": [ 138.933719, 35.123296 ] } },
{ "type": "Feature", "properties": { "ID": 2211225601890, "正式名称": "裾野赤十字病院", "機関区分": 1, "都道府県コード": 22, "市区町村コード": 220, "所在地": "静岡県裾野市佐野７１３", "緯度": 35.179207, "経度": 138.911885, "url": "https://www.iryou.teikyouseido.mhlw.go.jp/znk-web/juminkanja/S2430/initialize?prefCd=22&kikanCd=1225601890&kikanKbn=1", "url2": "http://www.susono-jrc.jp", "内容": "裾野赤十字病院【1:病院】【診療科目:内科_外科_整形外科_婦人科】【一般病床数:98療養病床数:0精神病床数:0感染症病床数:6合計病床数:104】静岡県裾野市佐野７１３" }, "geometry": { "type": "Point", "coordinates": [ 138.911885, 35.179207 ] } },
{ "type": "Feature", "properties": { "ID": 2211225602060, "正式名称": "順天堂大学医学部附属静岡病院", "機関区分": 1, "都道府県コード": 22, "市区町村コード": 225, "所在地": "静岡県伊豆の国市長岡１１２９", "緯度": 35.029362, "経度": 138.935834, "url": "https://www.iryou.teikyouseido.mhlw.go.jp/znk-web/juminkanja/S2430/initialize?prefCd=22&kikanCd=1225602060&kikanKbn=1", "url2": "http://www.hosp-shizuoka.juntendo.ac.jp", "内容": "順天堂大学医学部附属静岡病院【1:病院】【診療科目:内科_血液内科_糖尿病・内分泌内科_脳神経内科_呼吸器内科_循環器内科_消化器内科_腎臓内科_ペインクリニック内科_外科_脳神経外科_呼吸器外科_心臓血管外科_乳腺外科_整形外科_形成外科_小児科_小児外科_新生児内科_産婦人科_眼科_耳鼻いんこう科_皮膚科_泌尿器科_精神科_歯科口腔外科_アレルギー科_リウマチ科_リハビリテーション科_放射線科_病理診断科_臨床検査科_救急科_麻酔科】【一般病床数:633療養病床数:0精神病床数:0感染症病床数:0合計病床数:633】静岡県伊豆の国市長岡１１２９" }, "geometry": { "type": "Point", "coordinates": [ 138.935834, 35.029362 ] } },
{ "type": "Feature", "properties": { "ID": 2211225602190, "正式名称": "長岡リハビリテーション病院", "機関区分": 1, "都道府県コード": 22, "市区町村コード": 225, "所在地": "静岡県伊豆の国市長岡９４６", "緯度": 35.037111, "経度": 138.930779, "url": "https://www.iryou.teikyouseido.mhlw.go.jp/znk-web/juminkanja/S2430/initialize?prefCd=22&kikanCd=1225602190&kikanKbn=1", "url2": "www.naga-reha.or.jp", "内容": "長岡リハビリテーション病院【1:病院】【診療科目:内科_脳神経内科_消化器内科_リハビリテーション科】【一般病床数:0療養病床数:54精神病床数:0感染症病床数:0合計病床数:54】静岡県伊豆の国市長岡９４６" }, "geometry": { "type": "Point", "coordinates": [ 138.930779, 35.037111 ] } },
{ "type": "Feature", "properties": { "ID": 2211225602350, "正式名称": "ＮＴＴ東日本伊豆病院", "機関区分": 1, "都道府県コード": 22, "市区町村コード": 325, "所在地": "静岡県田方郡函南町平井７５０", "緯度": 35.0898, "経度": 138.956691, "url": "https://www.iryou.teikyouseido.mhlw.go.jp/znk-web/juminkanja/S2430/initialize?prefCd=22&kikanCd=1225602350&kikanKbn=1", "url2": "https://www.izu-hospital.ntt-east.co.jp/", "内容": "ＮＴＴ東日本伊豆病院【1:病院】【診療科目:内科_神経内科_整形外科_精神科_歯科_リハビリテーション科_放射線科】【一般病床数:150療養病床数:0精神病床数:46感染症病床数:0合計病床数:196】静岡県田方郡函南町平井７５０" }, "geometry": { "type": "Point", "coordinates": [ 138.956691, 35.0898 ] } },
{ "type": "Feature", "properties": { "ID": 2211225602510, "正式名称": "医療法人新光会　伊豆平和病院", "機関区分": 1, "都道府県コード": 22, "市区町村コード": 325, "所在地": "静岡県田方郡函南町平井１６９０－１３", "緯度": 35.107605, "経度": 138.986909, "url": "https://www.iryou.teikyouseido.mhlw.go.jp/znk-web/juminkanja/S2430/initialize?prefCd=22&kikanCd=1225602510&kikanKbn=1", "url2": "http://www.shinkohkai.jp/heiwa/", "内容": "医療法人新光会　伊豆平和病院【1:病院】【診療科目:内科_整形外科_リハビリテーション科_男性更年期外来】【一般病床数:0療養病床数:109精神病床数:0感染症病床数:0合計病床数:109】静岡県田方郡函南町平井１６９０－１３" }, "geometry": { "type": "Point", "coordinates": [ 138.986909, 35.107605 ] } },
{ "type": "Feature", "properties": { "ID": 2211225602640, "正式名称": "伊豆医療福祉センター", "機関区分": 1, "都道府県コード": 22, "市区町村コード": 225, "所在地": "静岡県伊豆の国市寺家２０２", "緯度": 35.048638, "経度": 138.943305, "url": "https://www.iryou.teikyouseido.mhlw.go.jp/znk-web/juminkanja/S2430/initialize?prefCd=22&kikanCd=1225602640&kikanKbn=1", "url2": "http://www.izuiryo.jp/", "内容": "伊豆医療福祉センター【1:病院】【診療科目:脳神経外科_整形外科_小児科_精神科_神経科_歯科_リハビリテーション科】【一般病床数:43療養病床数:0精神病床数:0感染症病床数:0合計病床数:43】静岡県伊豆の国市寺家２０２" }, "geometry": { "type": "Point", "coordinates": [ 138.943305, 35.048638 ] } },
{ "type": "Feature", "properties": { "ID": 2211225602770, "正式名称": "伊豆韮山温泉病院", "機関区分": 1, "都道府県コード": 22, "市区町村コード": 225, "所在地": "静岡県伊豆の国市中條２３４", "緯度": 35.042555, "経度": 138.940139, "url": "https://www.iryou.teikyouseido.mhlw.go.jp/znk-web/juminkanja/S2430/initialize?prefCd=22&kikanCd=1225602770&kikanKbn=1", "url2": "http://www.izu-nirayama-hp.or.jp/", "内容": "伊豆韮山温泉病院【1:病院】【診療科目:内科_整形外科_皮膚科_リハビリテーション科】【一般病床数:0療養病床数:100精神病床数:0感染症病床数:0合計病床数:100】静岡県伊豆の国市中條２３４" }, "geometry": { "type": "Point", "coordinates": [ 138.940139, 35.042555 ] } },
{ "type": "Feature", "properties": { "ID": 2211225602800, "正式名称": "独立行政法人国立病院機構静岡医療センター", "機関区分": 1, "都道府県コード": 22, "市区町村コード": 341, "所在地": "静岡県駿東郡清水町長沢７６２－１", "緯度": 35.100159, "経度": 138.889751, "url": "https://www.iryou.teikyouseido.mhlw.go.jp/znk-web/juminkanja/S2430/initialize?prefCd=22&kikanCd=1225602800&kikanKbn=1", "url2": "https://shizuoka-mc.hosp.go.jp/", "内容": "独立行政法人国立病院機構静岡医療センター【1:病院】【診療科目:内科_脳神経内科_呼吸器内科_循環器内科_消化器内科_外科_脳神経外科_呼吸器外科_心臓血管外科_消化器外科_整形外科_形成外科_小児科_小児外科_産婦人科_眼科_耳鼻いんこう科_皮膚科_泌尿器科_精神科_歯科口腔外科_リウマチ科_リハビリテーション科_放射線科_病理診断科_救急科_麻酔科】【一般病床数:421療養病床数:0精神病床数:0感染症病床数:0合計病床数:421】静岡県駿東郡清水町長沢７６２－１" }, "geometry": { "type": "Point", "coordinates": [ 138.889751, 35.100159 ] } },
{ "type": "Feature", "properties": { "ID": 2211225602930, "正式名称": "医療法人社団聡誠会　池田病院", "機関区分": 1, "都道府県コード": 22, "市区町村コード": 342, "所在地": "静岡県駿東郡長泉町本宿４１１－５", "緯度": 35.120407, "経度": 138.8905, "url": "https://www.iryou.teikyouseido.mhlw.go.jp/znk-web/juminkanja/S2430/initialize?prefCd=22&kikanCd=1225602930&kikanKbn=1", "url2": "http://www.ikeda-hp-g.or.jp", "内容": "医療法人社団聡誠会　池田病院【1:病院】【診療科目:内科_循環器内科_消化器内科_外科_脳神経外科_消化器外科_肛門外科_整形外科_婦人科_リウマチ科_リハビリテーション科_放射線科】【一般病床数:44療養病床数:44精神病床数:0感染症病床数:0合計病床数:88】静岡県駿東郡長泉町本宿４１１－５" }, "geometry": { "type": "Point", "coordinates": [ 138.8905, 35.120407 ] } },
{ "type": "Feature", "properties": { "ID": 2211225603100, "正式名称": "医療法人社団宏和会岡村記念病院", "機関区分": 1, "都道府県コード": 22, "市区町村コード": 341, "所在地": "静岡県駿東郡清水町柿田２９３番地の１", "緯度": 35.102575, "経度": 138.895788, "url": "https://www.iryou.teikyouseido.mhlw.go.jp/znk-web/juminkanja/S2430/initialize?prefCd=22&kikanCd=1225603100&kikanKbn=1", "url2": "https://www.okamura.or.jp/", "内容": "医療法人社団宏和会岡村記念病院【1:病院】【診療科目:循環器内科_心臓血管外科_リハビリテーション科_麻酔科】【一般病床数:65療養病床数:0精神病床数:0感染症病床数:0合計病床数:65】静岡県駿東郡清水町柿田２９３番地の１" }, "geometry": { "type": "Point", "coordinates": [ 138.895788, 35.102575 ] } },
{ "type": "Feature", "properties": { "ID": 2211225603360, "正式名称": "社会医療法人青虎会　フジ虎ノ門整形外科病院", "機関区分": 1, "都道府県コード": 22, "市区町村コード": 215, "所在地": "静岡県御殿場市川島田字中原１０６７－１", "緯度": 35.294607, "経度": 138.919088, "url": "https://www.iryou.teikyouseido.mhlw.go.jp/znk-web/juminkanja/S2430/initialize?prefCd=22&kikanCd=1225603360&kikanKbn=1", "url2": "http://toranomon.or.jp/index.html", "内容": "社会医療法人青虎会　フジ虎ノ門整形外科病院【1:病院】【診療科目:内科_呼吸器内科_循環器内科_消化器内科_神経内科_外科_脳神経外科_整形外科_形成外科_美容外科_小児科_皮膚科_泌尿器科_精神科_心療内科_歯科_歯科口腔外科_リウマチ科_リハビリテーション科_放射線科_麻酔科】【一般病床数:168療養病床数:43精神病床数:0感染症病床数:0合計病床数:211】静岡県御殿場市川島田字中原１０６７－１" }, "geometry": { "type": "Point", "coordinates": [ 138.919088, 35.294607 ] } },
{ "type": "Feature", "properties": { "ID": 2211225603490, "正式名称": "医療法人社団静岡健生会三島共立病院", "機関区分": 1, "都道府県コード": 22, "市区町村コード": 206, "所在地": "静岡県三島市玉川３５３", "緯度": 35.107489, "経度": 138.914099, "url": "https://www.iryou.teikyouseido.mhlw.go.jp/znk-web/juminkanja/S2430/initialize?prefCd=22&kikanCd=1225603490&kikanKbn=1", "url2": "http://www.mishima-kyouritsu.com", "内容": "医療法人社団静岡健生会三島共立病院【1:病院】【診療科目:内科_呼吸器内科_循環器内科_消化器内科_整形外科_小児科_皮膚科_泌尿器科_精神科_リハビリテーション科_放射線科】【一般病床数:84療養病床数:0精神病床数:0感染症病床数:0合計病床数:84】静岡県三島市玉川３５３" }, "geometry": { "type": "Point", "coordinates": [ 138.914099, 35.107489 ] } },
{ "type": "Feature", "properties": { "ID": 2211225603650, "正式名称": "御殿場かいせい病院", "機関区分": 1, "都道府県コード": 22, "市区町村コード": 215, "所在地": "静岡県御殿場市大坂５７－８", "緯度": 35.245367, "経度": 138.925186, "url": "https://www.iryou.teikyouseido.mhlw.go.jp/znk-web/juminkanja/S2430/initialize?prefCd=22&kikanCd=1225603650&kikanKbn=1", "url2": "http://www.gotenba-kaisei.jp", "内容": "御殿場かいせい病院【1:病院】【診療科目:内科_皮膚科_リハビリテーション科_放射線科】【一般病床数:60療養病床数:60精神病床数:0感染症病床数:0合計病床数:120】静岡県御殿場市大坂５７－８" }, "geometry": { "type": "Point", "coordinates": [ 138.925186, 35.245367 ] } },
{ "type": "Feature", "properties": { "ID": 2211225603810, "正式名称": "公益社団法人有隣厚生会富士小山病院", "機関区分": 1, "都道府県コード": 22, "市区町村コード": 344, "所在地": "静岡県駿東郡小山町用沢４３７－１", "緯度": 35.349661, "経度": 138.945457, "url": "https://www.iryou.teikyouseido.mhlw.go.jp/znk-web/juminkanja/S2430/initialize?prefCd=22&kikanCd=1225603810&kikanKbn=1", "url2": "http://fujioyama-hospital.com/", "内容": "公益社団法人有隣厚生会富士小山病院【1:病院】【診療科目:内科_糖尿病内科_循環器内科_消化器内科_漢方内科_外科_整形外科_婦人科_眼科_皮膚科_リハビリテーション科_放射線科】【一般病床数:39療養病床数:57精神病床数:0感染症病床数:0合計病床数:96】静岡県駿東郡小山町用沢４３７－１" }, "geometry": { "type": "Point", "coordinates": [ 138.945457, 35.349661 ] } },
{ "type": "Feature", "properties": { "ID": 2211225603940, "正式名称": "沼津市立病院", "機関区分": 1, "都道府県コード": 22, "市区町村コード": 203, "所在地": "静岡県沼津市東椎路字春ノ木５５０", "緯度": 35.119656, "経度": 138.835144, "url": "https://www.iryou.teikyouseido.mhlw.go.jp/znk-web/juminkanja/S2430/initialize?prefCd=22&kikanCd=1225603940&kikanKbn=1", "url2": "http://www.numazu-hospital.shizuoka.jp/", "内容": "沼津市立病院【1:病院】【診療科目:内科_脳神経内科_呼吸器内科_循環器内科_消化器内科_外科_脳神経外科_心臓血管外科_整形外科_形成外科_小児科_小児外科_産婦人科_眼科_耳鼻いんこう科_皮膚科_泌尿器科_歯科口腔外科_リウマチ科_リハビリテーション科_放射線科_救急科_麻酔科】【一般病床数:326療養病床数:0精神病床数:0感染症病床数:0合計病床数:326】静岡県沼津市東椎路字春ノ木５５０" }, "geometry": { "type": "Point", "coordinates": [ 138.835144, 35.119656 ] } },
{ "type": "Feature", "properties": { "ID": 2211225604080, "正式名称": "医療法人社団　親和会　西島病院", "機関区分": 1, "都道府県コード": 22, "市区町村コード": 203, "所在地": "静岡県沼津市大岡２８３５－７", "緯度": 35.118546, "経度": 138.877474, "url": "https://www.iryou.teikyouseido.mhlw.go.jp/znk-web/juminkanja/S2430/initialize?prefCd=22&kikanCd=1225604080&kikanKbn=1", "url2": "https://www.shinwakai.or.jp/nishijima/", "内容": "医療法人社団　親和会　西島病院【1:病院】【診療科目:内科_糖尿病内科_脳神経内科_循環器内科_脳神経外科_消化器外科_整形外科_眼科_リウマチ科_リハビリテーション科_放射線科_麻酔科】【一般病床数:150療養病床数:0精神病床数:0感染症病床数:0合計病床数:150】静岡県沼津市大岡２８３５－７" }, "geometry": { "type": "Point", "coordinates": [ 138.877474, 35.118546 ] } },
{ "type": "Feature", "properties": { "ID": 2211225604240, "正式名称": "公益社団法人有隣厚生会　東部病院", "機関区分": 1, "都道府県コード": 22, "市区町村コード": 215, "所在地": "静岡県御殿場市茱萸沢１１８０番地の２", "緯度": 35.306221, "経度": 138.921017, "url": "https://www.iryou.teikyouseido.mhlw.go.jp/znk-web/juminkanja/S2430/initialize?prefCd=22&kikanCd=1225604240&kikanKbn=1", "url2": "http://www.tobubyoin.org", "内容": "公益社団法人有隣厚生会　東部病院【1:病院】【診療科目:内科_循環器内科_消化器内科_外科_心臓血管外科_整形外科_形成外科_婦人科_泌尿器科_リハビリテーション科】【一般病床数:60療養病床数:0精神病床数:0感染症病床数:0合計病床数:60】静岡県御殿場市茱萸沢１１８０番地の２" }, "geometry": { "type": "Point", "coordinates": [ 138.921017, 35.306221 ] } },
{ "type": "Feature", "properties": { "ID": 2211225604370, "正式名称": "医療法人社団榮紀会東名裾野病院", "機関区分": 1, "都道府県コード": 22, "市区町村コード": 220, "所在地": "静岡県裾野市御宿１４７２", "緯度": 35.212564, "経度": 138.910605, "url": "https://www.iryou.teikyouseido.mhlw.go.jp/znk-web/juminkanja/S2430/initialize?prefCd=22&kikanCd=1225604370&kikanKbn=1", "url2": "http://www.eikikai.or.jp/susono/", "内容": "医療法人社団榮紀会東名裾野病院【1:病院】【診療科目:内科_整形外科_泌尿器科_リハビリテーション科】【一般病床数:0療養病床数:94精神病床数:0感染症病床数:0合計病床数:94】静岡県裾野市御宿１４７２" }, "geometry": { "type": "Point", "coordinates": [ 138.910605, 35.212564 ] } },
{ "type": "Feature", "properties": { "ID": 2211225604400, "正式名称": "医療法人新光会（社団）　伊豆函南病院", "機関区分": 1, "都道府県コード": 22, "市区町村コード": 325, "所在地": "静岡県田方郡函南町平井１６９４番地", "緯度": 35.105105, "経度": 138.983854, "url": "https://www.iryou.teikyouseido.mhlw.go.jp/znk-web/juminkanja/S2430/initialize?prefCd=22&kikanCd=1225604400&kikanKbn=1", "url2": "http://izukannami-hp.jp/", "内容": "医療法人新光会（社団）　伊豆函南病院【1:病院】【診療科目:内科_精神科_神経科_心療内科】【一般病床数:0療養病床数:0精神病床数:247感染症病床数:0合計病床数:247】静岡県田方郡函南町平井１６９４番地" }, "geometry": { "type": "Point", "coordinates": [ 138.983854, 35.105105 ] } },
{ "type": "Feature", "properties": { "ID": 2211225604660, "正式名称": "一般財団法人芙蓉協会　聖隷沼津病院", "機関区分": 1, "都道府県コード": 22, "市区町村コード": 203, "所在地": "静岡県沼津市松下七反田９０２－６", "緯度": 35.09452, "経度": 138.850588, "url": "https://www.iryou.teikyouseido.mhlw.go.jp/znk-web/juminkanja/S2430/initialize?prefCd=22&kikanCd=1225604660&kikanKbn=1", "url2": "https://numazu.seirei.or.jp/hospital/", "内容": "一般財団法人芙蓉協会　聖隷沼津病院【1:病院】【診療科目:内科_循環器内科_外科_脳神経外科_呼吸器外科_整形外科_形成外科_小児科_産婦人科_眼科_耳鼻いんこう科_皮膚科_泌尿器科_歯科口腔外科_放射線科】【一般病床数:232療養病床数:0精神病床数:0感染症病床数:0合計病床数:232】静岡県沼津市松下七反田９０２－６" }, "geometry": { "type": "Point", "coordinates": [ 138.850588, 35.09452 ] } },
{ "type": "Feature", "properties": { "ID": 2211225700100, "正式名称": "国立駿河療養所", "機関区分": 1, "都道府県コード": 22, "市区町村コード": 215, "所在地": "静岡県御殿場市神山１９１５", "緯度": 35.228813, "経度": 138.939824, "url": "https://www.iryou.teikyouseido.mhlw.go.jp/znk-web/juminkanja/S2430/initialize?prefCd=22&kikanCd=1225700100&kikanKbn=1", "url2": "https://www.mhlw.go.jp/seisakunitsuite/bunya/kenkou_iryou/iryou/hansen/suruga/", "内容": "国立駿河療養所【1:病院】【診療科目:内科_外科_眼科_耳鼻いんこう科_皮膚科_歯科】【一般病床数:243療養病床数:0精神病床数:0感染症病床数:0合計病床数:243】静岡県御殿場市神山１９１５" }, "geometry": { "type": "Point", "coordinates": [ 138.939824, 35.228813 ] } },
{ "type": "Feature", "properties": { "ID": 2211225700230, "正式名称": "一般財団法人神山復生会神山復生病院", "機関区分": 1, "都道府県コード": 22, "市区町村コード": 215, "所在地": "静岡県御殿場市神山１０９", "緯度": 35.237451, "経度": 138.922964, "url": "https://www.iryou.teikyouseido.mhlw.go.jp/znk-web/juminkanja/S2430/initialize?prefCd=22&kikanCd=1225700230&kikanKbn=1", "url2": "http//www.fukusei.jp", "内容": "一般財団法人神山復生会神山復生病院【1:病院】【診療科目:内科_消化器内科_緩和ケア内科】【一般病床数:20療養病床数:0精神病床数:0感染症病床数:0合計病床数:20】静岡県御殿場市神山１０９" }, "geometry": { "type": "Point", "coordinates": [ 138.922964, 35.237451 ] } },
{ "type": "Feature", "properties": { "ID": 2211225700360, "正式名称": "公益社団法人　有隣厚生会　富士病院", "機関区分": 1, "都道府県コード": 22, "市区町村コード": 215, "所在地": "静岡県御殿場市新橋１７８４", "緯度": 35.298389, "経度": 138.935711, "url": "https://www.iryou.teikyouseido.mhlw.go.jp/znk-web/juminkanja/S2430/initialize?prefCd=22&kikanCd=1225700360&kikanKbn=1", "url2": "http//www.yuurinkouseikai.or.jp/", "内容": "公益社団法人　有隣厚生会　富士病院【1:病院】【診療科目:内科_糖尿病内科_脳神経内科_呼吸器内科_循環器内科_消化器内科_腎臓内科_ペインクリニック内科_外科_脳神経外科_心臓血管外科_乳腺外科_整形外科_小児科_婦人科_眼科_皮膚科_泌尿器科_リハビリテーション科_放射線科_麻酔科】【一般病床数:160療養病床数:0精神病床数:0感染症病床数:0合計病床数:160】静岡県御殿場市新橋１７８４" }, "geometry": { "type": "Point", "coordinates": [ 138.935711, 35.298389 ] } },
{ "type": "Feature", "properties": { "ID": 2211225700650, "正式名称": "医療法人社団　駿栄会　御殿場石川病院", "機関区分": 1, "都道府県コード": 22, "市区町村コード": 215, "所在地": "静岡県御殿場市深沢１２８５－２", "緯度": 35.30625, "経度": 138.959486, "url": "https://www.iryou.teikyouseido.mhlw.go.jp/znk-web/juminkanja/S2430/initialize?prefCd=22&kikanCd=1225700650&kikanKbn=1", "url2": "https://www.gotemba-ishikawa-hp.org/", "内容": "医療法人社団　駿栄会　御殿場石川病院【1:病院】【診療科目:内科_糖尿病内科_呼吸器内科_消化器内科_腎臓内科_人工透析内科_漢方内科_外科_乳腺外科_整形外科_泌尿器科_リハビリテーション科】【一般病床数:46療養病床数:113精神病床数:0感染症病床数:0合計病床数:159】静岡県御殿場市深沢１２８５－２" }, "geometry": { "type": "Point", "coordinates": [ 138.959486, 35.30625 ] } },
{ "type": "Feature", "properties": { "ID": 2211225700940, "正式名称": "自衛隊富士病院", "機関区分": 1, "都道府県コード": 22, "市区町村コード": 344, "所在地": "静岡県駿東郡小山町須走４８１－２７", "緯度": 35.358326, "経度": 138.863242, "url": "https://www.iryou.teikyouseido.mhlw.go.jp/znk-web/juminkanja/S2430/initialize?prefCd=22&kikanCd=1225700940&kikanKbn=1", "url2": null, "内容": "自衛隊富士病院【1:病院】【診療科目:内科_外科_整形外科_歯科】【一般病床数:50療養病床数:0精神病床数:0感染症病床数:0合計病床数:50】静岡県駿東郡小山町須走４８１－２７" }, "geometry": { "type": "Point", "coordinates": [ 138.863242, 35.358326 ] } },
{ "type": "Feature", "properties": { "ID": 2211225701080, "正式名称": "東富士病院", "機関区分": 1, "都道府県コード": 22, "市区町村コード": 215, "所在地": "静岡県御殿場市御殿場４３３－１", "緯度": 35.318906, "経度": 138.948734, "url": "https://www.iryou.teikyouseido.mhlw.go.jp/znk-web/juminkanja/S2430/initialize?prefCd=22&kikanCd=1225701080&kikanKbn=1", "url2": "http://higashifujihp.com", "内容": "東富士病院【1:病院】【診療科目:内科_小児科_美容皮膚科_精神科_神経科_心療内科】【一般病床数:0療養病床数:0精神病床数:77感染症病床数:0合計病床数:77】静岡県御殿場市御殿場４３３－１" }, "geometry": { "type": "Point", "coordinates": [ 138.948734, 35.318906 ] } },
{ "type": "Feature", "properties": { "ID": 2211225800260, "正式名称": "医療法人財団新六会大富士病院", "機関区分": 1, "都道府県コード": 22, "市区町村コード": 210, "所在地": "静岡県富士市中野２４９－２", "緯度": 35.205367, "経度": 138.683986, "url": "https://www.iryou.teikyouseido.mhlw.go.jp/znk-web/juminkanja/S2430/initialize?prefCd=22&kikanCd=1225800260&kikanKbn=1", "url2": "http://www.ofuji.or.jp", "内容": "医療法人財団新六会大富士病院【1:病院】【診療科目:精神科_神経科_心療内科】【一般病床数:0療養病床数:0精神病床数:160感染症病床数:0合計病床数:160】静岡県富士市中野２４９－２" }, "geometry": { "type": "Point", "coordinates": [ 138.683986, 35.205367 ] } },
{ "type": "Feature", "properties": { "ID": 2211225800390, "正式名称": "公益財団法人復康会鷹岡病院", "機関区分": 1, "都道府県コード": 22, "市区町村コード": 210, "所在地": "静岡県富士市天間１５８５", "緯度": 35.206477, "経度": 138.648627, "url": "https://www.iryou.teikyouseido.mhlw.go.jp/znk-web/juminkanja/S2430/initialize?prefCd=22&kikanCd=1225800390&kikanKbn=1", "url2": "http://www.fukkou-kai.jp/takaoka/", "内容": "公益財団法人復康会鷹岡病院【1:病院】【診療科目:精神科_心療内科】【一般病床数:0療養病床数:0精神病床数:151感染症病床数:0合計病床数:151】静岡県富士市天間１５８５" }, "geometry": { "type": "Point", "coordinates": [ 138.648627, 35.206477 ] } },
{ "type": "Feature", "properties": { "ID": 2211225800680, "正式名称": "芦川病院", "機関区分": 1, "都道府県コード": 22, "市区町村コード": 210, "所在地": "静岡県富士市中央町２－１３－２０", "緯度": 35.163621, "経度": 138.682127, "url": "https://www.iryou.teikyouseido.mhlw.go.jp/znk-web/juminkanja/S2430/initialize?prefCd=22&kikanCd=1225800680&kikanKbn=1", "url2": "https://www.ashikawa-hospital.or.jp", "内容": "芦川病院【1:病院】【診療科目:内科_循環器内科_胃腸内科_外科_肛門外科_整形外科_眼科_リハビリテーション科】【一般病床数:0療養病床数:60精神病床数:0感染症病床数:0合計病床数:60】静岡県富士市中央町２－１３－２０" }, "geometry": { "type": "Point", "coordinates": [ 138.682127, 35.163621 ] } },
{ "type": "Feature", "properties": { "ID": 2211225800710, "正式名称": "医療法人社団英志会富士整形外科病院", "機関区分": 1, "都道府県コード": 22, "市区町村コード": 210, "所在地": "静岡県富士市錦町１－４－２３", "緯度": 35.159557, "経度": 138.679353, "url": "https://www.iryou.teikyouseido.mhlw.go.jp/znk-web/juminkanja/S2430/initialize?prefCd=22&kikanCd=1225800710&kikanKbn=1", "url2": "https://www.fujiseikei.com/", "内容": "医療法人社団英志会富士整形外科病院【1:病院】【診療科目:内科_整形外科_リウマチ科_リハビリテーション科_麻酔科】【一般病床数:106療養病床数:0精神病床数:0感染症病床数:0合計病床数:106】静岡県富士市錦町１－４－２３" }, "geometry": { "type": "Point", "coordinates": [ 138.679353, 35.159557 ] } },
{ "type": "Feature", "properties": { "ID": 2211225800840, "正式名称": "医療法人社団秀峰会川村病院", "機関区分": 1, "都道府県コード": 22, "市区町村コード": 210, "所在地": "静岡県富士市中島３２７", "緯度": 35.162327, "経度": 138.6487, "url": "https://www.iryou.teikyouseido.mhlw.go.jp/znk-web/juminkanja/S2430/initialize?prefCd=22&kikanCd=1225800840&kikanKbn=1", "url2": "http://www.kawamura-jp.jp/", "内容": "医療法人社団秀峰会川村病院【1:病院】【診療科目:内科_消化器内科_胃腸内科_腫瘍内科_漢方内科_緩和ケア内科_外科_消化器外科_胃腸外科_乳腺外科_肛門外科_整形外科_精神科_リハビリテーション科】【一般病床数:76療養病床数:0精神病床数:0感染症病床数:0合計病床数:76】静岡県富士市中島３２７" }, "geometry": { "type": "Point", "coordinates": [ 138.6487, 35.162327 ] } },
{ "type": "Feature", "properties": { "ID": 2211225800970, "正式名称": "富士市立中央病院", "機関区分": 1, "都道府県コード": 22, "市区町村コード": 210, "所在地": "静岡県富士市高島町５０番地", "緯度": 35.158399, "経度": 138.67083, "url": "https://www.iryou.teikyouseido.mhlw.go.jp/znk-web/juminkanja/S2430/initialize?prefCd=22&kikanCd=1225800970&kikanKbn=1", "url2": "https://byoin.city.fuji.shizuoka.jp", "内容": "富士市立中央病院【1:病院】【診療科目:内科_血液内科_糖尿病・内分泌内科_脳神経内科_呼吸器内科_循環器内科_消化器内科_腎臓内科_外科_脳神経外科_心臓血管外科_消化器外科_整形外科_形成外科_小児科_産婦人科_眼科_耳鼻いんこう科_皮膚科_泌尿器科_精神科_歯科口腔外科_リウマチ科_リハビリテーション科_放射線診断科_放射線治療科_病理診断科_麻酔科】【一般病床数:504療養病床数:0精神病床数:0感染症病床数:6合計病床数:520】静岡県富士市高島町５０番地" }, "geometry": { "type": "Point", "coordinates": [ 138.67083, 35.158399 ] } },
{ "type": "Feature", "properties": { "ID": 2211225801010, "正式名称": "医療法人社団喜生会　新富士病院", "機関区分": 1, "都道府県コード": 22, "市区町村コード": 210, "所在地": "静岡県富士市大淵字大峯３８９８－１", "緯度": 35.215671, "経度": 138.669486, "url": "https://www.iryou.teikyouseido.mhlw.go.jp/znk-web/juminkanja/S2430/initialize?prefCd=22&kikanCd=1225801010&kikanKbn=1", "url2": "https://shinfuji.or.jp/", "内容": "医療法人社団喜生会　新富士病院【1:病院】【診療科目:内科_循環器内科_消化器内科_腎臓内科_神経内科_外科_整形外科_皮膚科_泌尿器科_歯科_リハビリテーション科】【一般病床数:104療養病床数:102精神病床数:0感染症病床数:0合計病床数:206】静岡県富士市大淵字大峯３８９８－１" }, "geometry": { "type": "Point", "coordinates": [ 138.669486, 35.215671 ] } },
{ "type": "Feature", "properties": { "ID": 2211225801140, "正式名称": "医療法人十全会聖明病院", "機関区分": 1, "都道府県コード": 22, "市区町村コード": 210, "所在地": "静岡県富士市大淵８８８番地", "緯度": 35.209894, "経度": 138.699512, "url": "https://www.iryou.teikyouseido.mhlw.go.jp/znk-web/juminkanja/S2430/initialize?prefCd=22&kikanCd=1225801140&kikanKbn=1", "url2": "http://www.seimei-hp.or.jp", "内容": "医療法人十全会聖明病院【1:病院】【診療科目:内科_精神科_神経科】【一般病床数:0療養病床数:0精神病床数:182感染症病床数:0合計病床数:182】静岡県富士市大淵８８８番地" }, "geometry": { "type": "Point", "coordinates": [ 138.699512, 35.209894 ] } },
{ "type": "Feature", "properties": { "ID": 2211225801270, "正式名称": "医療法人財団湖聖会湖山リハビリテーション病院", "機関区分": 1, "都道府県コード": 22, "市区町村コード": 210, "所在地": "静岡県富士市大淵大渕４０５－２５", "緯度": 35.196479, "経度": 138.696568, "url": "https://www.iryou.teikyouseido.mhlw.go.jp/znk-web/juminkanja/S2430/initialize?prefCd=22&kikanCd=1225801270&kikanKbn=1", "url2": "http://momoha.or.jp", "内容": "医療法人財団湖聖会湖山リハビリテーション病院【1:病院】【診療科目:内科_脳神経内科_リハビリテーション科】【一般病床数:0療養病床数:208精神病床数:0感染症病床数:0合計病床数:208】静岡県富士市大淵大渕４０５－２５" }, "geometry": { "type": "Point", "coordinates": [ 138.696568, 35.196479 ] } },
{ "type": "Feature", "properties": { "ID": 2211225801300, "正式名称": "富士いきいき病院", "機関区分": 1, "都道府県コード": 22, "市区町村コード": 210, "所在地": "静岡県富士市天間字大久保１６４０番１", "緯度": 35.208227, "経度": 138.651627, "url": "https://www.iryou.teikyouseido.mhlw.go.jp/znk-web/juminkanja/S2430/initialize?prefCd=22&kikanCd=1225801300&kikanKbn=1", "url2": "http://iki-iki-hp.com", "内容": "富士いきいき病院【1:病院】【診療科目:内科_呼吸器内科_循環器内科_消化器内科_脳神経外科_整形外科_リハビリテーション科】【一般病床数:0療養病床数:197精神病床数:0感染症病床数:0合計病床数:197】静岡県富士市天間字大久保１６４０番１" }, "geometry": { "type": "Point", "coordinates": [ 138.651627, 35.208227 ] } },
{ "type": "Feature", "properties": { "ID": 2211225801430, "正式名称": "一般財団法人恵愛会聖隷富士病院", "機関区分": 1, "都道府県コード": 22, "市区町村コード": 210, "所在地": "静岡県富士市南町３－１", "緯度": 35.160705, "経度": 138.687849, "url": "https://www.iryou.teikyouseido.mhlw.go.jp/znk-web/juminkanja/S2430/initialize?prefCd=22&kikanCd=1225801430&kikanKbn=1", "url2": "http://www.seirei.or.jp/rel/fuji/index.html", "内容": "一般財団法人恵愛会聖隷富士病院【1:病院】【診療科目:内科_呼吸器内科_循環器内科_消化器内科_腎臓内科_外科_脳神経外科_消化器外科_肛門外科_整形外科_眼科_皮膚科_泌尿器科_リウマチ科_リハビリテーション科_放射線科_麻酔科】【一般病床数:132療養病床数:0精神病床数:0感染症病床数:0合計病床数:132】静岡県富士市南町３－１" }, "geometry": { "type": "Point", "coordinates": [ 138.687849, 35.160705 ] } },
{ "type": "Feature", "properties": { "ID": 2211225900160, "正式名称": "医療法人社団鵬友会フジヤマ病院", "機関区分": 1, "都道府県コード": 22, "市区町村コード": 207, "所在地": "静岡県富士宮市原６８３－１", "緯度": 35.314486, "経度": 138.583161, "url": "https://www.iryou.teikyouseido.mhlw.go.jp/znk-web/juminkanja/S2430/initialize?prefCd=22&kikanCd=1225900160&kikanKbn=1", "url2": "http://www.fujiyama-hosp.com", "内容": "医療法人社団鵬友会フジヤマ病院【1:病院】【診療科目:内科_神経内科_外科_整形外科_リハビリテーション科_放射線科】【一般病床数:60療養病床数:50精神病床数:0感染症病床数:0合計病床数:110】静岡県富士宮市原６８３－１" }, "geometry": { "type": "Point", "coordinates": [ 138.583161, 35.314486 ] } },
{ "type": "Feature", "properties": { "ID": 2211225900290, "正式名称": "一般財団法人　富士脳障害研究所附属病院", "機関区分": 1, "都道府県コード": 22, "市区町村コード": 207, "所在地": "静岡県富士宮市杉田２７０－１２", "緯度": 35.212643, "経度": 138.663154, "url": "https://www.iryou.teikyouseido.mhlw.go.jp/znk-web/juminkanja/S2430/initialize?prefCd=22&kikanCd=1225900290&kikanKbn=1", "url2": "http://www.fuji-nouken.or.jp", "内容": "一般財団法人　富士脳障害研究所附属病院【1:病院】【診療科目:循環器内科_神経内科_脳神経外科_リハビリテーション科_麻酔科】【一般病床数:80療養病床数:80精神病床数:0感染症病床数:0合計病床数:160】静岡県富士宮市杉田２７０－１２" }, "geometry": { "type": "Point", "coordinates": [ 138.663154, 35.212643 ] } },
{ "type": "Feature", "properties": { "ID": 2211225900450, "正式名称": "医療法人社団仁信会　南富士病院", "機関区分": 1, "都道府県コード": 22, "市区町村コード": 207, "所在地": "静岡県富士宮市宮原３４８－１", "緯度": 35.250591, "経度": 138.611405, "url": "https://www.iryou.teikyouseido.mhlw.go.jp/znk-web/juminkanja/S2430/initialize?prefCd=22&kikanCd=1225900450&kikanKbn=1", "url2": "http://iryou-jinshinkai.jp/", "内容": "医療法人社団仁信会　南富士病院【1:病院】【診療科目:精神科_神経科_心療内科】【一般病床数:0療養病床数:0精神病床数:170感染症病床数:0合計病床数:170】静岡県富士宮市宮原３４８－１" }, "geometry": { "type": "Point", "coordinates": [ 138.611405, 35.250591 ] } },
{ "type": "Feature", "properties": { "ID": 2211225900870, "正式名称": "一般財団法人　富士心身リハビリテーション研究所附属病院", "機関区分": 1, "都道府県コード": 22, "市区町村コード": 207, "所在地": "静岡県富士宮市星山１１２９", "緯度": 35.194255, "経度": 138.613575, "url": "https://www.iryou.teikyouseido.mhlw.go.jp/znk-web/juminkanja/S2430/initialize?prefCd=22&kikanCd=1225900870&kikanKbn=1", "url2": "www.fujireha.org", "内容": "一般財団法人　富士心身リハビリテーション研究所附属病院【1:病院】【診療科目:内科_精神科_神経科_心療内科】【一般病床数:0療養病床数:0精神病床数:120感染症病床数:0合計病床数:120】静岡県富士宮市星山１１２９" }, "geometry": { "type": "Point", "coordinates": [ 138.613575, 35.194255 ] } },
{ "type": "Feature", "properties": { "ID": 2211225900900, "正式名称": "富士宮市立病院", "機関区分": 1, "都道府県コード": 22, "市区町村コード": 207, "所在地": "静岡県富士宮市錦町３－１", "緯度": 35.219669, "経度": 138.615241, "url": "https://www.iryou.teikyouseido.mhlw.go.jp/znk-web/juminkanja/S2430/initialize?prefCd=22&kikanCd=1225900900&kikanKbn=1", "url2": "https://fujinomiya-hp.jp", "内容": "富士宮市立病院【1:病院】【診療科目:内科_循環器内科_消化器内科_腎臓内科_外科_脳神経外科_消化器外科_整形外科_小児科_産婦人科_眼科_耳鼻いんこう科_皮膚科_泌尿器科_放射線科_病理診断科_麻酔科】【一般病床数:380療養病床数:0精神病床数:0感染症病床数:0合計病床数:380】静岡県富士宮市錦町３－１" }, "geometry": { "type": "Point", "coordinates": [ 138.615241, 35.219669 ] } },
{ "type": "Feature", "properties": { "ID": 2211226000100, "正式名称": "ＪＡ静岡厚生連清水厚生病院", "機関区分": 1, "都道府県コード": 22, "市区町村コード": 103, "所在地": "静岡県静岡市清水区庵原町５７８番地の１", "緯度": 35.045545, "経度": 138.474398, "url": "https://www.iryou.teikyouseido.mhlw.go.jp/znk-web/juminkanja/S2430/initialize?prefCd=22&kikanCd=1226000100&kikanKbn=1", "url2": "http://www.ja-shizuoka.or.jp/k-shimizu/http:/", "内容": "ＪＡ静岡厚生連清水厚生病院【1:病院】【診療科目:内科_循環器内科_外科_脳神経外科_消化器外科_乳腺外科_整形外科_小児科_婦人科_眼科_耳鼻いんこう科_皮膚科_泌尿器科_精神科_リウマチ科_リハビリテーション科_放射線科_麻酔科】【一般病床数:154療養病床数:0精神病床数:0感染症病床数:0合計病床数:154】静岡県静岡市清水区庵原町５７８番地の１" }, "geometry": { "type": "Point", "coordinates": [ 138.474398, 35.045545 ] } },
{ "type": "Feature", "properties": { "ID": 2211226000230, "正式名称": "医療法人清仁会日本平病院", "機関区分": 1, "都道府県コード": 22, "市区町村コード": 103, "所在地": "静岡県静岡市清水区駒越２３５９番地の２４", "緯度": 34.976026, "経度": 138.480152, "url": "https://www.iryou.teikyouseido.mhlw.go.jp/znk-web/juminkanja/S2430/initialize?prefCd=22&kikanCd=1226000230&kikanKbn=1", "url2": "https://www.seijin-kai.or.jp/", "内容": "医療法人清仁会日本平病院【1:病院】【診療科目:内科_精神科_心療内科】【一般病床数:0療養病床数:0精神病床数:189感染症病床数:0合計病床数:189】静岡県静岡市清水区駒越２３５９番地の２４" }, "geometry": { "type": "Point", "coordinates": [ 138.480152, 34.976026 ] } },
{ "type": "Feature", "properties": { "ID": 2211226000360, "正式名称": "清水駿府病院", "機関区分": 1, "都道府県コード": 22, "市区町村コード": 103, "所在地": "静岡県静岡市清水区日立町１７番８号", "緯度": 34.993868, "経度": 138.485423, "url": "https://www.iryou.teikyouseido.mhlw.go.jp/znk-web/juminkanja/S2430/initialize?prefCd=22&kikanCd=1226000360&kikanKbn=1", "url2": "http://www.shimizu-sunpu.jp", "内容": "清水駿府病院【1:病院】【診療科目:内科_精神科_神経科】【一般病床数:0療養病床数:0精神病床数:160感染症病床数:0合計病床数:160】静岡県静岡市清水区日立町１７番８号" }, "geometry": { "type": "Point", "coordinates": [ 138.485423, 34.993868 ] } },
{ "type": "Feature", "properties": { "ID": 2211226000780, "正式名称": "独立行政法人　地域医療機能推進機構　清水さくら病院", "機関区分": 1, "都道府県コード": 22, "市区町村コード": 103, "所在地": "静岡県静岡市清水区袖師町２００１番地", "緯度": 35.024521, "経度": 138.489839, "url": "https://www.iryou.teikyouseido.mhlw.go.jp/znk-web/juminkanja/S2430/initialize?prefCd=22&kikanCd=1226000780&kikanKbn=1", "url2": "http://sakuragaoka.jcho.go.jp/", "内容": "独立行政法人　地域医療機能推進機構　清水さくら病院【1:病院】【診療科目:内科_循環器内科_外科_整形外科_眼科_泌尿器科_歯科口腔外科_放射線科】【一般病床数:159療養病床数:0精神病床数:0感染症病床数:0合計病床数:159】静岡県静岡市清水区袖師町２００１番地" }, "geometry": { "type": "Point", "coordinates": [ 138.489839, 35.024521 ] } },
{ "type": "Feature", "properties": { "ID": 2211226001080, "正式名称": "共立蒲原総合病院", "機関区分": 1, "都道府県コード": 22, "市区町村コード": 210, "所在地": "静岡県富士市中之郷２５００－１", "緯度": 35.132623, "経度": 138.615606, "url": "https://www.iryou.teikyouseido.mhlw.go.jp/znk-web/juminkanja/S2430/initialize?prefCd=22&kikanCd=1226001080&kikanKbn=1", "url2": "https://www.kanbarahp.com", "内容": "共立蒲原総合病院【1:病院】【診療科目:内科_糖尿病・内分泌内科_呼吸器内科_循環器内科_消化器内科_神経内科_外科_脳神経外科_呼吸器外科_整形外科_小児科_婦人科_眼科_耳鼻いんこう科_皮膚科_泌尿器科_精神科_心療内科_リハビリテーション科_放射線科_麻酔科】【一般病床数:175療養病床数:92精神病床数:0感染症病床数:0合計病床数:267】静岡県富士市中之郷２５００－１" }, "geometry": { "type": "Point", "coordinates": [ 138.615606, 35.132623 ] } },
{ "type": "Feature", "properties": { "ID": 2211226001240, "正式名称": "静岡市立清水病院", "機関区分": 1, "都道府県コード": 22, "市区町村コード": 103, "所在地": "静岡県静岡市清水区宮加三１２３１番地", "緯度": 34.982776, "経度": 138.490234, "url": "https://www.iryou.teikyouseido.mhlw.go.jp/znk-web/juminkanja/S2430/initialize?prefCd=22&kikanCd=1226001240&kikanKbn=1", "url2": "http://www.shimizuhospital.com/", "内容": "静岡市立清水病院【1:病院】【診療科目:内科_呼吸器内科_循環器内科_消化器内科_神経内科_外科_脳神経外科_呼吸器外科_血管外科_消化器外科_乳腺外科_整形外科_形成外科_小児科_産婦人科_眼科_耳鼻いんこう科_皮膚科_泌尿器科_精神科_歯科口腔外科_リハビリテーション科_放射線診断科_放射線治療科_病理診断科_麻酔科】【一般病床数:463療養病床数:0精神病床数:0感染症病床数:0合計病床数:463】静岡県静岡市清水区宮加三１２３１番地" }, "geometry": { "type": "Point", "coordinates": [ 138.490234, 34.982776 ] } },
{ "type": "Feature", "properties": { "ID": 2211226100130, "正式名称": "岡本石井病院", "機関区分": 1, "都道府県コード": 22, "市区町村コード": 212, "所在地": "静岡県焼津市小川新町５－２－３", "緯度": 34.853342, "経度": 138.317838, "url": "https://www.iryou.teikyouseido.mhlw.go.jp/znk-web/juminkanja/S2430/initialize?prefCd=22&kikanCd=1226100130&kikanKbn=1", "url2": "http://wwwseishinkai-med.or.jp", "内容": "岡本石井病院【1:病院】【診療科目:内科_呼吸器内科_循環器内科_消化器内科_老年内科_糖尿病・内分泌・代謝内科_外科_脳神経外科_乳腺外科_肛門外科_整形外科_美容外科_脊椎外科_産婦人科_眼科_耳鼻いんこう科_泌尿器科_アレルギー科_リウマチ科_リハビリテーション科_放射線科_救急科】【一般病床数:43療養病床数:154精神病床数:0感染症病床数:0合計病床数:197】静岡県焼津市小川新町５－２－３" }, "geometry": { "type": "Point", "coordinates": [ 138.317838, 34.853342 ] } },
{ "type": "Feature", "properties": { "ID": 2211226100260, "正式名称": "医療法人社団高草会焼津病院", "機関区分": 1, "都道府県コード": 22, "市区町村コード": 212, "所在地": "静岡県焼津市策牛４８", "緯度": 34.896226, "経度": 138.294505, "url": "https://www.iryou.teikyouseido.mhlw.go.jp/znk-web/juminkanja/S2430/initialize?prefCd=22&kikanCd=1226100260&kikanKbn=1", "url2": "http://yaizu-hospital.org/", "内容": "医療法人社団高草会焼津病院【1:病院】【診療科目:内科_精神科】【一般病床数:0療養病床数:0精神病床数:180感染症病床数:0合計病床数:180】静岡県焼津市策牛４８" }, "geometry": { "type": "Point", "coordinates": [ 138.294505, 34.896226 ] } },
{ "type": "Feature", "properties": { "ID": 2211226100550, "正式名称": "医療法人社団平成会藤枝平成記念病院", "機関区分": 1, "都道府県コード": 22, "市区町村コード": 214, "所在地": "静岡県藤枝市水上１２３－１", "緯度": 34.854091, "経度": 138.243039, "url": "https://www.iryou.teikyouseido.mhlw.go.jp/znk-web/juminkanja/S2430/initialize?prefCd=22&kikanCd=1226100550&kikanKbn=1", "url2": "https://heiseihp.com/", "内容": "医療法人社団平成会藤枝平成記念病院【1:病院】【診療科目:内科_感染症内科_血液内科_循環器内科_胃腸内科_神経内科_老年内科_外科_脳神経外科_循環器外科_消化器外科_整形外科_皮膚科_泌尿器科_歯科口腔外科_アレルギー科_リウマチ科_リハビリテーション科_放射線科_麻酔科】【一般病床数:113療養病床数:86精神病床数:0感染症病床数:0合計病床数:199】静岡県藤枝市水上１２３－１" }, "geometry": { "type": "Point", "coordinates": [ 138.243039, 34.854091 ] } },
{ "type": "Feature", "properties": { "ID": 2211226100680, "正式名称": "医療法人社団凜和会藤枝駿府病院", "機関区分": 1, "都道府県コード": 22, "市区町村コード": 214, "所在地": "静岡県藤枝市小石川町２－９－１８", "緯度": 34.856202, "経度": 138.257454, "url": "https://www.iryou.teikyouseido.mhlw.go.jp/znk-web/juminkanja/S2430/initialize?prefCd=22&kikanCd=1226100680&kikanKbn=1", "url2": "www.rinwakai.or.jp/sunpu", "内容": "医療法人社団凜和会藤枝駿府病院【1:病院】【診療科目:精神科】【一般病床数:0療養病床数:0精神病床数:170感染症病床数:0合計病床数:170】静岡県藤枝市小石川町２－９－１８" }, "geometry": { "type": "Point", "coordinates": [ 138.257454, 34.856202 ] } },
{ "type": "Feature", "properties": { "ID": 2211226100840, "正式名称": "焼津市立総合病院", "機関区分": 1, "都道府県コード": 22, "市区町村コード": 212, "所在地": "静岡県焼津市道原１０００", "緯度": 34.837733, "経度": 138.306117, "url": "https://www.iryou.teikyouseido.mhlw.go.jp/znk-web/juminkanja/S2430/initialize?prefCd=22&kikanCd=1226100840&kikanKbn=1", "url2": "https://www.hospital.yaizu.shizuoka.jp/", "内容": "焼津市立総合病院【1:病院】【診療科目:内科_血液内科_代謝・内分泌内科_脳神経内科_呼吸器内科_循環器内科_消化器内科_腎臓内科_外科_脳神経外科_消化器外科_乳腺外科_胸部外科_整形外科_形成外科_小児科_産婦人科_眼科_耳鼻いんこう科_皮膚科_泌尿器科_精神科_歯科口腔外科_リハビリテーション科_放射線科_病理診断科_救急科_麻酔科】【一般病床数:423療養病床数:0精神病床数:0感染症病床数:0合計病床数:423】静岡県焼津市道原１０００" }, "geometry": { "type": "Point", "coordinates": [ 138.306117, 34.837733 ] } },
{ "type": "Feature", "properties": { "ID": 2211226100970, "正式名称": "社会医療法人駿甲会　コミュニティーホスピタル甲賀病院", "機関区分": 1, "都道府県コード": 22, "市区町村コード": 212, "所在地": "静岡県焼津市大覚寺二丁目３０番地の１", "緯度": 34.875701, "経度": 138.300116, "url": "https://www.iryou.teikyouseido.mhlw.go.jp/znk-web/juminkanja/S2430/initialize?prefCd=22&kikanCd=1226100970&kikanKbn=1", "url2": "http://www.sunkohkai.or.jp", "内容": "社会医療法人駿甲会　コミュニティーホスピタル甲賀病院【1:病院】【診療科目:内科_血液内科_糖尿病内科_呼吸器内科_循環器内科_消化器内科_腎臓内科_神経内科_腫瘍内科_ペインクリニック内科_外科_脳神経外科_呼吸器外科_血管外科_消化器外科_乳腺外科_整形外科_形成外科_眼科_耳鼻いんこう科_皮膚科_泌尿器科_精神科_リウマチ科_リハビリテーション科_放射線科_病理診断科_救急科_麻酔科】【一般病床数:349療養病床数:0精神病床数:0感染症病床数:0合計病床数:349】静岡県焼津市大覚寺二丁目３０番地の１" }, "geometry": { "type": "Point", "coordinates": [ 138.300116, 34.875701 ] } },
{ "type": "Feature", "properties": { "ID": 2211226101010, "正式名称": "医療法人社団　八洲会　誠和藤枝病院", "機関区分": 1, "都道府県コード": 22, "市区町村コード": 214, "所在地": "静岡県藤枝市中ノ合２６番地の１", "緯度": 34.909557, "経度": 138.245369, "url": "https://www.iryou.teikyouseido.mhlw.go.jp/znk-web/juminkanja/S2430/initialize?prefCd=22&kikanCd=1226101010&kikanKbn=1", "url2": "https://www.seiwa-fujieda.jp", "内容": "医療法人社団　八洲会　誠和藤枝病院【1:病院】【診療科目:内科_リハビリテーション科】【一般病床数:0療養病床数:165精神病床数:0感染症病床数:0合計病床数:165】静岡県藤枝市中ノ合２６番地の１" }, "geometry": { "type": "Point", "coordinates": [ 138.245369, 34.909557 ] } },
{ "type": "Feature", "properties": { "ID": 2211226101140, "正式名称": "医療法人社団綾和会　駿河西病院", "機関区分": 1, "都道府県コード": 22, "市区町村コード": 212, "所在地": "静岡県焼津市中根新田１３１５", "緯度": 34.82915, "経度": 138.286842, "url": "https://www.iryou.teikyouseido.mhlw.go.jp/znk-web/juminkanja/S2430/initialize?prefCd=22&kikanCd=1226101140&kikanKbn=1", "url2": "http://www.suruga-nishi.com/", "内容": "医療法人社団綾和会　駿河西病院【1:病院】【診療科目:内科_リハビリテーション科】【一般病床数:0療養病床数:150精神病床数:0感染症病床数:0合計病床数:150】静岡県焼津市中根新田１３１５" }, "geometry": { "type": "Point", "coordinates": [ 138.286842, 34.82915 ] } },
{ "type": "Feature", "properties": { "ID": 2211226101270, "正式名称": "医療法人社団聖稜会　聖稜リハビリテーション病院", "機関区分": 1, "都道府県コード": 22, "市区町村コード": 214, "所在地": "静岡県藤枝市宮原６７６－１", "緯度": 34.897336, "経度": 138.205206, "url": "https://www.iryou.teikyouseido.mhlw.go.jp/znk-web/juminkanja/S2430/initialize?prefCd=22&kikanCd=1226101270&kikanKbn=1", "url2": "www.seiryoukai.or.jp", "内容": "医療法人社団聖稜会　聖稜リハビリテーション病院【1:病院】【診療科目:内科_リハビリテーション科】【一般病床数:0療養病床数:125精神病床数:0感染症病床数:0合計病床数:125】静岡県藤枝市宮原６７６－１" }, "geometry": { "type": "Point", "coordinates": [ 138.205206, 34.897336 ] } },
{ "type": "Feature", "properties": { "ID": 2211226101300, "正式名称": "藤枝市立総合病院", "機関区分": 1, "都道府県コード": 22, "市区町村コード": 214, "所在地": "静岡県藤枝市駿河台４－１－１１", "緯度": 34.861062, "経度": 138.230095, "url": "https://www.iryou.teikyouseido.mhlw.go.jp/znk-web/juminkanja/S2430/initialize?prefCd=22&kikanCd=1226101300&kikanKbn=1", "url2": "https://www.hospital.fujieda.shizuoka.jp/", "内容": "藤枝市立総合病院【1:病院】【診療科目:内科_血液内科_糖尿病・内分泌内科_脳神経内科_呼吸器内科_循環器内科_消化器内科_腎臓内科_外科_脳神経外科_呼吸器外科_血管外科_心臓血管外科_消化器外科_肝臓・胆のう・膵臓外科_乳腺外科_整形外科_形成外科_小児科_産婦人科_眼科_耳鼻いんこう科_皮膚科_泌尿器科_精神科_心療内科_歯科口腔外科_リウマチ科_リハビリテーション科_放射線診断科_放射線治療科_病理診断科_臨床検査科_救急科_麻酔科】【一般病床数:488療養病床数:0精神病床数:0感染症病床数:2合計病床数:490】静岡県藤枝市駿河台４－１－１１" }, "geometry": { "type": "Point", "coordinates": [ 138.230095, 34.861062 ] } },
{ "type": "Feature", "properties": { "ID": 2211226101430, "正式名称": "医療法人社団　八洲会　はいなん吉田病院", "機関区分": 1, "都道府県コード": 22, "市区町村コード": 424, "所在地": "静岡県榛原郡吉田町神戸２５７１－６", "緯度": 34.777599, "経度": 138.241848, "url": "https://www.iryou.teikyouseido.mhlw.go.jp/znk-web/juminkanja/S2430/initialize?prefCd=22&kikanCd=1226101430&kikanKbn=1", "url2": "https://www.hainan-yoshida.jp", "内容": "医療法人社団　八洲会　はいなん吉田病院【1:病院】【診療科目:内科_リハビリテーション科】【一般病床数:0療養病床数:120精神病床数:0感染症病床数:0合計病床数:120】静岡県榛原郡吉田町神戸２５７１－６" }, "geometry": { "type": "Point", "coordinates": [ 138.241848, 34.777599 ] } },
{ "type": "Feature", "properties": { "ID": 2211226200160, "正式名称": "島田市立総合医療センター", "機関区分": 1, "都道府県コード": 22, "市区町村コード": 209, "所在地": "静岡県島田市野田１２００－５", "緯度": 34.846118, "経度": 138.183183, "url": "https://www.iryou.teikyouseido.mhlw.go.jp/znk-web/juminkanja/S2430/initialize?prefCd=22&kikanCd=1226200160&kikanKbn=1", "url2": "https://www.shimada-hp.shizuoka.jp", "内容": "島田市立総合医療センター【1:病院】【診療科目:内科_血液内科_糖尿病・内分泌内科_呼吸器内科_循環器内科_消化器内科_腎臓内科_神経内科_漢方内科_緩和ケア内科_外科_脳神経外科_呼吸器外科_整形外科_形成外科_小児科_産婦人科_眼科_耳鼻いんこう科_皮膚科_泌尿器科_精神科_心療内科_歯科口腔外科_リハビリテーション科_放射線診断科_放射線治療科_病理診断科_臨床検査科_麻酔科】【一般病床数:435療養病床数:0精神病床数:0感染症病床数:6合計病床数:445】静岡県島田市野田１２００－５" }, "geometry": { "type": "Point", "coordinates": [ 138.183183, 34.846118 ] } },
{ "type": "Feature", "properties": { "ID": 2211226300190, "正式名称": "榛原総合病院", "機関区分": 1, "都道府県コード": 22, "市区町村コード": 226, "所在地": "静岡県牧之原市細江２８８７番地１", "緯度": 34.755685, "経度": 138.238182, "url": "https://www.iryou.teikyouseido.mhlw.go.jp/znk-web/juminkanja/S2430/initialize?prefCd=22&kikanCd=1226300190&kikanKbn=1", "url2": "http://www.hospital.haibara.shizuoka.jp/", "内容": "榛原総合病院【1:病院】【診療科目:内科_呼吸器内科_循環器内科_消化器内科_腎臓内科_神経内科_外科_脳神経外科_呼吸器外科_心臓血管外科_整形外科_形成外科_小児科_産婦人科_眼科_耳鼻いんこう科_皮膚科_泌尿器科_精神科_矯正歯科_歯科口腔外科_リウマチ科_リハビリテーション科_放射線科_病理診断科_救急科_麻酔科】【一般病床数:355療養病床数:42精神病床数:0感染症病床数:0合計病床数:397】静岡県牧之原市細江２８８７番地１" }, "geometry": { "type": "Point", "coordinates": [ 138.238182, 34.755685 ] } },
{ "type": "Feature", "properties": { "ID": 2211226400120, "正式名称": "小笠病院", "機関区分": 1, "都道府県コード": 22, "市区町村コード": 213, "所在地": "静岡県掛川市篠場７０８", "緯度": 34.760957, "経度": 137.967482, "url": "https://www.iryou.teikyouseido.mhlw.go.jp/znk-web/juminkanja/S2430/initialize?prefCd=22&kikanCd=1226400120&kikanKbn=1", "url2": "https://www.k-ogasa.org/", "内容": "小笠病院【1:病院】【診療科目:精神科_神経科】【一般病床数:0療養病床数:0精神病床数:210感染症病床数:0合計病床数:210】静岡県掛川市篠場７０８" }, "geometry": { "type": "Point", "coordinates": [ 137.967482, 34.760957 ] } },
{ "type": "Feature", "properties": { "ID": 2211226400250, "正式名称": "医療法人（社団）川口会　川口会病院", "機関区分": 1, "都道府県コード": 22, "市区町村コード": 213, "所在地": "静岡県掛川市大池６８０", "緯度": 34.775456, "経度": 137.987758, "url": "https://www.iryou.teikyouseido.mhlw.go.jp/znk-web/juminkanja/S2430/initialize?prefCd=22&kikanCd=1226400250&kikanKbn=1", "url2": "http://kawaguchikai.com", "内容": "医療法人（社団）川口会　川口会病院【1:病院】【診療科目:精神科】【一般病床数:0療養病床数:0精神病床数:180感染症病床数:0合計病床数:180】静岡県掛川市大池６８０" }, "geometry": { "type": "Point", "coordinates": [ 137.987758, 34.775456 ] } },
{ "type": "Feature", "properties": { "ID": 2211226400700, "正式名称": "市立御前崎総合病院", "機関区分": 1, "都道府県コード": 22, "市区町村コード": 223, "所在地": "静岡県御前崎市池新田２０６０", "緯度": 34.645778, "経度": 138.119031, "url": "https://www.iryou.teikyouseido.mhlw.go.jp/znk-web/juminkanja/S2430/initialize?prefCd=22&kikanCd=1226400700&kikanKbn=1", "url2": "https://omaezaki-hospital.jp/", "内容": "市立御前崎総合病院【1:病院】【診療科目:内科_消化器内科_外科_脳神経外科_整形外科_形成外科_小児科_産婦人科_眼科_耳鼻いんこう科_皮膚科_泌尿器科_リウマチ科_リハビリテーション科_放射線科_麻酔科】【一般病床数:145療養病床数:54精神病床数:0感染症病床数:0合計病床数:199】静岡県御前崎市池新田２０６０" }, "geometry": { "type": "Point", "coordinates": [ 138.119031, 34.645778 ] } },
{ "type": "Feature", "properties": { "ID": 2211226400830, "正式名称": "菊川市立総合病院", "機関区分": 1, "都道府県コード": 22, "市区町村コード": 224, "所在地": "静岡県菊川市東横地１６３２", "緯度": 34.735323, "経度": 138.099361, "url": "https://www.iryou.teikyouseido.mhlw.go.jp/znk-web/juminkanja/S2430/initialize?prefCd=22&kikanCd=1226400830&kikanKbn=1", "url2": "http://www.kikugawa-hosp.jp", "内容": "菊川市立総合病院【1:病院】【診療科目:内科_外科_整形外科_形成外科_小児科_産婦人科_耳鼻いんこう科_皮膚科_泌尿器科_精神科_リハビリテーション科_麻酔科】【一般病床数:198療養病床数:0精神病床数:58感染症病床数:0合計病床数:256】静岡県菊川市東横地１６３２" }, "geometry": { "type": "Point", "coordinates": [ 138.099361, 34.735323 ] } },
{ "type": "Feature", "properties": { "ID": 2211226600180, "正式名称": "磐田原病院", "機関区分": 1, "都道府県コード": 22, "市区町村コード": 211, "所在地": "静岡県磐田市大久保４２－１５", "緯度": 34.754428, "経度": 137.852464, "url": "https://www.iryou.teikyouseido.mhlw.go.jp/znk-web/juminkanja/S2430/initialize?prefCd=22&kikanCd=1226600180&kikanKbn=1", "url2": "https://www.iwatabara.com/", "内容": "磐田原病院【1:病院】【診療科目:精神科_神経科】【一般病床数:0療養病床数:0精神病床数:120感染症病床数:0合計病床数:120】静岡県磐田市大久保４２－１５" }, "geometry": { "type": "Point", "coordinates": [ 137.852464, 34.754428 ] } },
{ "type": "Feature", "properties": { "ID": 2211226600470, "正式名称": "医療法人社団進正会服部病院", "機関区分": 1, "都道府県コード": 22, "市区町村コード": 211, "所在地": "静岡県磐田市西貝塚３７８１－２", "緯度": 34.733292, "経度": 137.878713, "url": "https://www.iryou.teikyouseido.mhlw.go.jp/znk-web/juminkanja/S2430/initialize?prefCd=22&kikanCd=1226600470&kikanKbn=1", "url2": "https://www.shinseikai-shizuoka.com/", "内容": "医療法人社団進正会服部病院【1:病院】【診療科目:内科_精神科_神経科】【一般病床数:0療養病床数:0精神病床数:168感染症病床数:0合計病床数:168】静岡県磐田市西貝塚３７８１－２" }, "geometry": { "type": "Point", "coordinates": [ 137.878713, 34.733292 ] } },
{ "type": "Feature", "properties": { "ID": 2211226600760, "正式名称": "福田西病院", "機関区分": 1, "都道府県コード": 22, "市区町村コード": 211, "所在地": "静岡県磐田市一色２２", "緯度": 34.678297, "経度": 137.856273, "url": "https://www.iryou.teikyouseido.mhlw.go.jp/znk-web/juminkanja/S2430/initialize?prefCd=22&kikanCd=1226600760&kikanKbn=1", "url2": "http://kinokinenkai.com/", "内容": "福田西病院【1:病院】【診療科目:児童精神科_精神科_老年精神科_摂食障害、依存症（薬物、アルコール）】【一般病床数:0療養病床数:0精神病床数:141感染症病床数:0合計病床数:141】静岡県磐田市一色２２" }, "geometry": { "type": "Point", "coordinates": [ 137.856273, 34.678297 ] } },
{ "type": "Feature", "properties": { "ID": 2211226600920, "正式名称": "袋井みつかわ病院", "機関区分": 1, "都道府県コード": 22, "市区町村コード": 216, "所在地": "静岡県袋井市友永１１１１", "緯度": 34.799823, "経度": 137.889404, "url": "https://www.iryou.teikyouseido.mhlw.go.jp/znk-web/juminkanja/S2430/initialize?prefCd=22&kikanCd=1226600920&kikanKbn=1", "url2": "https://www.mitsukawa-fukuroi.jp/", "内容": "袋井みつかわ病院【1:病院】【診療科目:内科_リハビリテーション科】【一般病床数:0療養病床数:159精神病床数:0感染症病床数:0合計病床数:159】静岡県袋井市友永１１１１" }, "geometry": { "type": "Point", "coordinates": [ 137.889404, 34.799823 ] } },
{ "type": "Feature", "properties": { "ID": 2211226601060, "正式名称": "公立森町病院", "機関区分": 1, "都道府県コード": 22, "市区町村コード": 461, "所在地": "静岡県周智郡森町草ケ谷３９１－１", "緯度": 34.824922, "経度": 137.918067, "url": "https://www.iryou.teikyouseido.mhlw.go.jp/znk-web/juminkanja/S2430/initialize?prefCd=22&kikanCd=1226601060&kikanKbn=1", "url2": "http://hospital.town.morimachi.shizuoka.jp/", "内容": "公立森町病院【1:病院】【診療科目:内科_外科_肛門外科_整形外科_小児科_眼科_耳鼻いんこう科_皮膚科_泌尿器科_精神科_歯科口腔外科_リハビリテーション科_麻酔科】【一般病床数:131療養病床数:0精神病床数:0感染症病床数:0合計病床数:131】静岡県周智郡森町草ケ谷３９１－１" }, "geometry": { "type": "Point", "coordinates": [ 137.918067, 34.824922 ] } },
{ "type": "Feature", "properties": { "ID": 2211226700110, "正式名称": "精神科・神経科　浜北病院", "機関区分": 1, "都道府県コード": 22, "市区町村コード": 139, "所在地": "静岡県浜松市浜名区小松３３１２番地", "緯度": 34.783535, "経度": 137.77172, "url": "https://www.iryou.teikyouseido.mhlw.go.jp/znk-web/juminkanja/S2430/initialize?prefCd=22&kikanCd=1226700110&kikanKbn=1", "url2": "https://www.hamakita.or.jp", "内容": "精神科・神経科　浜北病院【1:病院】【診療科目:精神科_神経科】【一般病床数:0療養病床数:0精神病床数:162感染症病床数:0合計病床数:162】静岡県浜松市浜名区小松３３１２番地" }, "geometry": { "type": "Point", "coordinates": [ 137.77172, 34.783535 ] } },
{ "type": "Feature", "properties": { "ID": 2211226700240, "正式名称": "独立行政法人国立病院機構天竜病院", "機関区分": 1, "都道府県コード": 22, "市区町村コード": 139, "所在地": "静岡県浜松市浜名区於呂４２０１番地の２", "緯度": 34.854725, "経度": 137.799288, "url": "https://www.iryou.teikyouseido.mhlw.go.jp/znk-web/juminkanja/S2430/initialize?prefCd=22&kikanCd=1226700240&kikanKbn=1", "url2": "https://tenryu.hosp.go.jp/", "内容": "独立行政法人国立病院機構天竜病院【1:病院】【診療科目:内科_代謝・内分泌内科_脳神経内科_呼吸器内科_小児科_児童精神科】【一般病床数:258療養病床数:0精神病床数:50感染症病床数:0合計病床数:316】静岡県浜松市浜名区於呂４２０１番地の２" }, "geometry": { "type": "Point", "coordinates": [ 137.799288, 34.854725 ] } },
{ "type": "Feature", "properties": { "ID": 2211226700370, "正式名称": "浜松市国民健康保険佐久間病院", "機関区分": 1, "都道府県コード": 22, "市区町村コード": 140, "所在地": "静岡県浜松市天竜区佐久間町中部１８番地の５", "緯度": 35.081892, "経度": 137.800204, "url": "https://www.iryou.teikyouseido.mhlw.go.jp/znk-web/juminkanja/S2430/initialize?prefCd=22&kikanCd=1226700370&kikanKbn=1", "url2": "http://www.sakumahp.com/", "内容": "浜松市国民健康保険佐久間病院【1:病院】【診療科目:内科_消化器内科_外科_整形外科_小児科_眼科_精神科_リハビリテーション科】【一般病床数:36療養病床数:0精神病床数:0感染症病床数:4合計病床数:40】静岡県浜松市天竜区佐久間町中部１８番地の５" }, "geometry": { "type": "Point", "coordinates": [ 137.800204, 35.081892 ] } },
{ "type": "Feature", "properties": { "ID": 2211226700400, "正式名称": "遠江病院", "機関区分": 1, "都道府県コード": 22, "市区町村コード": 139, "所在地": "静岡県浜松市浜名区中瀬３８３２－１", "緯度": 34.819587, "経度": 137.811409, "url": "https://www.iryou.teikyouseido.mhlw.go.jp/znk-web/juminkanja/S2430/initialize?prefCd=22&kikanCd=1226700400&kikanKbn=1", "url2": "https://totomihp.com", "内容": "遠江病院【1:病院】【診療科目:内科_精神科_神経科_歯科_リハビリテーション科】【一般病床数:0療養病床数:0精神病床数:147感染症病床数:0合計病床数:147】静岡県浜松市浜名区中瀬３８３２－１" }, "geometry": { "type": "Point", "coordinates": [ 137.811409, 34.819587 ] } },
{ "type": "Feature", "properties": { "ID": 2211226700660, "正式名称": "医療法人社団　誠心会　浜北さくら台病院", "機関区分": 1, "都道府県コード": 22, "市区町村コード": 139, "所在地": "静岡県浜松市浜名区四大地９－６８", "緯度": 34.837988, "経度": 137.759351, "url": "https://www.iryou.teikyouseido.mhlw.go.jp/znk-web/juminkanja/S2430/initialize?prefCd=22&kikanCd=1226700660&kikanKbn=1", "url2": "https://sakuradai.or.jp", "内容": "医療法人社団　誠心会　浜北さくら台病院【1:病院】【診療科目:内科_整形外科_精神科_リハビリテーション科】【一般病床数:0療養病床数:138精神病床数:120感染症病床数:0合計病床数:258】静岡県浜松市浜名区四大地９－６８" }, "geometry": { "type": "Point", "coordinates": [ 137.759351, 34.837988 ] } },
{ "type": "Feature", "properties": { "ID": 2211226700790, "正式名称": "医療法人弘遠会天竜すずかけ病院", "機関区分": 1, "都道府県コード": 22, "市区町村コード": 140, "所在地": "静岡県浜松市天竜区二俣町二俣２３９６－５６", "緯度": 34.857111, "経度": 137.813907, "url": "https://www.iryou.teikyouseido.mhlw.go.jp/znk-web/juminkanja/S2430/initialize?prefCd=22&kikanCd=1226700790&kikanKbn=1", "url2": "http://www.suzukake.or.jp/", "内容": "医療法人弘遠会天竜すずかけ病院【1:病院】【診療科目:内科_脳神経内科_リハビリテーション科】【一般病床数:0療養病床数:165精神病床数:0感染症病床数:0合計病床数:165】静岡県浜松市天竜区二俣町二俣２３９６－５６" }, "geometry": { "type": "Point", "coordinates": [ 137.813907, 34.857111 ] } },
{ "type": "Feature", "properties": { "ID": 2211226900170, "正式名称": "市立湖西病院", "機関区分": 1, "都道府県コード": 22, "市区町村コード": 221, "所在地": "静岡県湖西市鷲津２２５９－１", "緯度": 34.71251, "経度": 137.549075, "url": "https://www.iryou.teikyouseido.mhlw.go.jp/znk-web/juminkanja/S2430/initialize?prefCd=22&kikanCd=1226900170&kikanKbn=1", "url2": "http://www.hospital.kosai.shizuoka.jp", "内容": "市立湖西病院【1:病院】【診療科目:内科_呼吸器内科_循環器内科_消化器内科_腎臓内科_神経内科_外科_脳神経外科_肛門外科_整形外科_形成外科_小児科_婦人科_眼科_耳鼻いんこう科_皮膚科_泌尿器科_精神科_リハビリテーション科_麻酔科】【一般病床数:196療養病床数:0精神病床数:0感染症病床数:0合計病床数:196】静岡県湖西市鷲津２２５９－１" }, "geometry": { "type": "Point", "coordinates": [ 137.549075, 34.71251 ] } },
{ "type": "Feature", "properties": { "ID": 2211226900200, "正式名称": "浜名病院", "機関区分": 1, "都道府県コード": 22, "市区町村コード": 221, "所在地": "静岡県湖西市新所・岡崎・梅田入会地　１５－７０", "緯度": 34.723869, "経度": 137.493385, "url": "https://www.iryou.teikyouseido.mhlw.go.jp/znk-web/juminkanja/S2430/initialize?prefCd=22&kikanCd=1226900200&kikanKbn=1", "url2": "http://www.hamanakai.or.jp", "内容": "浜名病院【1:病院】【診療科目:内科_呼吸器内科_循環器内科_消化器内科_外科_脳神経外科_消化器外科_整形外科_小児科_眼科_泌尿器科_歯科口腔外科_リハビリテーション科_麻酔科】【一般病床数:89療養病床数:44精神病床数:0感染症病床数:0合計病床数:133】静岡県湖西市新所・岡崎・梅田入会地　１５－７０" }, "geometry": { "type": "Point", "coordinates": [ 137.493385, 34.723869 ] } },
{ "type": "Feature", "properties": { "ID": 2211227100140, "正式名称": "医療法人社団　慈広会記念病院", "機関区分": 1, "都道府県コード": 22, "市区町村コード": 225, "所在地": "静岡県伊豆の国市長岡７４１－１", "緯度": 35.038973, "経度": 138.924809, "url": "https://www.iryou.teikyouseido.mhlw.go.jp/znk-web/juminkanja/S2430/initialize?prefCd=22&kikanCd=1227100140&kikanKbn=1", "url2": null, "内容": "医療法人社団　慈広会記念病院【1:病院】【診療科目:内科_リハビリテーション科】【一般病床数:0療養病床数:101精神病床数:0感染症病床数:0合計病床数:101】静岡県伊豆の国市長岡７４１－１" }, "geometry": { "type": "Point", "coordinates": [ 138.924809, 35.038973 ] } },
{ "type": "Feature", "properties": { "ID": 2211227100270, "正式名称": "医療法人社団　真養会　きせがわ病院", "機関区分": 1, "都道府県コード": 22, "市区町村コード": 203, "所在地": "静岡県沼津市大岡１１５５", "緯度": 35.104075, "経度": 138.881252, "url": "https://www.iryou.teikyouseido.mhlw.go.jp/znk-web/juminkanja/S2430/initialize?prefCd=22&kikanCd=1227100270&kikanKbn=1", "url2": "http://www.kisegawa.net/", "内容": "医療法人社団　真養会　きせがわ病院【1:病院】【診療科目:内科_呼吸器内科_胃腸内科_心療内科_リハビリテーション科】【一般病床数:0療養病床数:87精神病床数:0感染症病床数:0合計病床数:87】静岡県沼津市大岡１１５５" }, "geometry": { "type": "Point", "coordinates": [ 138.881252, 35.104075 ] } },
{ "type": "Feature", "properties": { "ID": 2211227100430, "正式名称": "社会医療法人　志仁会　三島中央病院", "機関区分": 1, "都道府県コード": 22, "市区町村コード": 206, "所在地": "静岡県三島市緑町１－３", "緯度": 35.117213, "経度": 138.912443, "url": "https://www.iryou.teikyouseido.mhlw.go.jp/znk-web/juminkanja/S2430/initialize?prefCd=22&kikanCd=1227100430&kikanKbn=1", "url2": "https://mchp.or.jp", "内容": "社会医療法人　志仁会　三島中央病院【1:病院】【診療科目:内科_呼吸器内科_循環器内科_消化器内科_外科_脳神経外科_消化器外科_肛門外科_頭頸部外科_整形外科_耳鼻いんこう科_泌尿器科_救急科_麻酔科】【一般病床数:111療養病床数:85精神病床数:0感染症病床数:0合計病床数:196】静岡県三島市緑町１－３" }, "geometry": { "type": "Point", "coordinates": [ 138.912443, 35.117213 ] } },
{ "type": "Feature", "properties": { "ID": 2211227100690, "正式名称": "静岡県立静岡がんセンター", "機関区分": 1, "都道府県コード": 22, "市区町村コード": 342, "所在地": "静岡県駿東郡長泉町下長窪１００７", "緯度": 35.156348, "経度": 138.884471, "url": "https://www.iryou.teikyouseido.mhlw.go.jp/znk-web/juminkanja/S2430/initialize?prefCd=22&kikanCd=1227100690&kikanKbn=1", "url2": "https://www.scchr.jp/", "内容": "静岡県立静岡がんセンター【1:病院】【診療科目:内科_感染症内科_血液内科_代謝・内分泌内科_脳神経内科_呼吸器内科_循環器内科_消化器内科_腎臓内科_女性内科_内視鏡内科_緩和ケア内科_外科_脳神経外科_呼吸器外科_食道外科_胃腸外科_大腸外科_肝臓・胆のう・膵臓外科_乳腺外科_頭頸部外科_整形外科_形成外科_小児科_婦人科_眼科_耳鼻いんこう科_皮膚科_泌尿器科_精神科_歯科_リハビリテーション科_放射線診断科_放射線治療科_病理診断科_臨床検査科_麻酔科】【一般病床数:615療養病床数:0精神病床数:0感染症病床数:0合計病床数:615】静岡県駿東郡長泉町下長窪１００７" }, "geometry": { "type": "Point", "coordinates": [ 138.884471, 35.156348 ] } },
{ "type": "Feature", "properties": { "ID": 2211227100720, "正式名称": "医療法人社団　形外会　三島森田病院", "機関区分": 1, "都道府県コード": 22, "市区町村コード": 206, "所在地": "静岡県三島市徳倉１１９５－７９３", "緯度": 35.155848, "経度": 138.922746, "url": "https://www.iryou.teikyouseido.mhlw.go.jp/znk-web/juminkanja/S2430/initialize?prefCd=22&kikanCd=1227100720&kikanKbn=1", "url2": "http://www.mishimamorita.jp/", "内容": "医療法人社団　形外会　三島森田病院【1:病院】【診療科目:精神科_心療内科】【一般病床数:0療養病床数:0精神病床数:203感染症病床数:0合計病床数:203】静岡県三島市徳倉１１９５－７９３" }, "geometry": { "type": "Point", "coordinates": [ 138.922746, 35.155848 ] } },
{ "type": "Feature", "properties": { "ID": 2211227100850, "正式名称": "医療法人桂名会　瀬尾記念慶友病院", "機関区分": 1, "都道府県コード": 22, "市区町村コード": 203, "所在地": "静岡県沼津市下香貫島郷２７７３－１", "緯度": 35.074995, "経度": 138.872171, "url": "https://www.iryou.teikyouseido.mhlw.go.jp/znk-web/juminkanja/S2430/initialize?prefCd=22&kikanCd=1227100850&kikanKbn=1", "url2": "http:www.seomh.net", "内容": "医療法人桂名会　瀬尾記念慶友病院【1:病院】【診療科目:内科_循環器内科_整形外科_リハビリテーション科】【一般病床数:74療養病床数:0精神病床数:0感染症病床数:0合計病床数:74】静岡県沼津市下香貫島郷２７７３－１" }, "geometry": { "type": "Point", "coordinates": [ 138.872171, 35.074995 ] } },
{ "type": "Feature", "properties": { "ID": 2211227101020, "正式名称": "医療法人全心会　伊豆慶友病院", "機関区分": 1, "都道府県コード": 22, "市区町村コード": 222, "所在地": "静岡県伊豆市月ケ瀬３８０番２", "緯度": 34.917957, "経度": 138.92509, "url": "https://www.iryou.teikyouseido.mhlw.go.jp/znk-web/juminkanja/S2430/initialize?prefCd=22&kikanCd=1227101020&kikanKbn=1", "url2": "https://www.izukeiyu.jp/", "内容": "医療法人全心会　伊豆慶友病院【1:病院】【診療科目:内科_循環器内科_肛門外科_整形外科_リハビリテーション科】【一般病床数:0療養病床数:47精神病床数:0感染症病床数:0合計病床数:47】静岡県伊豆市月ケ瀬３８０番２" }, "geometry": { "type": "Point", "coordinates": [ 138.92509, 34.917957 ] } },
{ "type": "Feature", "properties": { "ID": 2211227300100, "正式名称": "磐田市立総合病院", "機関区分": 1, "都道府県コード": 22, "市区町村コード": 211, "所在地": "静岡県磐田市大久保５１２－３", "緯度": 34.769232, "経度": 137.856936, "url": "https://www.iryou.teikyouseido.mhlw.go.jp/znk-web/juminkanja/S2430/initialize?prefCd=22&kikanCd=1227300100&kikanKbn=1", "url2": "https://www.hospital.iwata.shizuoka.jp", "内容": "磐田市立総合病院【1:病院】【診療科目:内科_血液内科_糖尿病・内分泌内科_脳神経内科_呼吸器内科_循環器内科_消化器内科_腎臓内科_肝臓内科_緩和ケア内科_外科_脳神経外科_呼吸器外科_血管外科_消化器外科_乳腺外科_整形外科_形成外科_小児科_産婦人科_眼科_耳鼻いんこう科_皮膚科_泌尿器科_精神科_歯科口腔外科_リウマチ科_リハビリテーション科_放射線診断科_放射線治療科_病理診断科_臨床検査科_救急科_麻酔科】【一般病床数:498療養病床数:0精神病床数:0感染症病床数:2合計病床数:500】静岡県磐田市大久保５１２－３" }, "geometry": { "type": "Point", "coordinates": [ 137.856936, 34.769232 ] } },
{ "type": "Feature", "properties": { "ID": 2211227300230, "正式名称": "豊田えいせい病院", "機関区分": 1, "都道府県コード": 22, "市区町村コード": 211, "所在地": "静岡県磐田市小立野１０２番地", "緯度": 34.72768, "経度": 137.819579, "url": "https://www.iryou.teikyouseido.mhlw.go.jp/znk-web/juminkanja/S2430/initialize?prefCd=22&kikanCd=1227300230&kikanKbn=1", "url2": "https://www.keiseikai.org/", "内容": "豊田えいせい病院【1:病院】【診療科目:内科_呼吸器内科_循環器内科_消化器内科_外科_脳神経外科_整形外科_皮膚科_リハビリテーション科】【一般病床数:0療養病床数:180精神病床数:0感染症病床数:0合計病床数:180】静岡県磐田市小立野１０２番地" }, "geometry": { "type": "Point", "coordinates": [ 137.819579, 34.72768 ] } },
{ "type": "Feature", "properties": { "ID": 2211227300360, "正式名称": "医療法人社団綾和会掛川北病院", "機関区分": 1, "都道府県コード": 22, "市区町村コード": 213, "所在地": "静岡県掛川市下垂木３３５０", "緯度": 34.786816, "経度": 137.996145, "url": "https://www.iryou.teikyouseido.mhlw.go.jp/znk-web/juminkanja/S2430/initialize?prefCd=22&kikanCd=1227300360&kikanKbn=1", "url2": "http://www.kakegawa-kita.com/", "内容": "医療法人社団綾和会掛川北病院【1:病院】【診療科目:内科_リハビリテーション科】【一般病床数:0療養病床数:100精神病床数:0感染症病床数:0合計病床数:100】静岡県掛川市下垂木３３５０" }, "geometry": { "type": "Point", "coordinates": [ 137.996145, 34.786816 ] } },
{ "type": "Feature", "properties": { "ID": 2211227300490, "正式名称": "医療法人社団澄明会磐南中央病院", "機関区分": 1, "都道府県コード": 22, "市区町村コード": 211, "所在地": "静岡県磐田市気子島９７８", "緯度": 34.708048, "経度": 137.832928, "url": "https://www.iryou.teikyouseido.mhlw.go.jp/znk-web/juminkanja/S2430/initialize?prefCd=22&kikanCd=1227300490&kikanKbn=1", "url2": null, "内容": "医療法人社団澄明会磐南中央病院【1:病院】【診療科目:内科_糖尿病内科_内分泌内科_糖尿病・代謝内科_神経内科_緩和ケア内科_リハビリテーション科】【一般病床数:0療養病床数:100精神病床数:0感染症病床数:0合計病床数:100】静岡県磐田市気子島９７８" }, "geometry": { "type": "Point", "coordinates": [ 137.832928, 34.708048 ] } },
{ "type": "Feature", "properties": { "ID": 2211227300520, "正式名称": "すずかけヘルスケアホスピタル", "機関区分": 1, "都道府県コード": 22, "市区町村コード": 211, "所在地": "静岡県磐田市大原２０４２－４", "緯度": 34.693518, "経度": 137.858689, "url": "https://www.iryou.teikyouseido.mhlw.go.jp/znk-web/juminkanja/S2430/initialize?prefCd=22&kikanCd=1227300520&kikanKbn=1", "url2": "http://www.suzukake.or.jp/healthcare/", "内容": "すずかけヘルスケアホスピタル【1:病院】【診療科目:内科_脳神経外科_整形外科_リウマチ科_リハビリテーション科】【一般病床数:0療養病床数:160精神病床数:0感染症病床数:0合計病床数:160】静岡県磐田市大原２０４２－４" }, "geometry": { "type": "Point", "coordinates": [ 137.858689, 34.693518 ] } },
{ "type": "Feature", "properties": { "ID": 2211227302250, "正式名称": "医療法人社団　新都市病院", "機関区分": 1, "都道府県コード": 22, "市区町村コード": 211, "所在地": "静岡県磐田市中泉７０３", "緯度": 34.707988, "経度": 137.850217, "url": "https://www.iryou.teikyouseido.mhlw.go.jp/znk-web/juminkanja/S2430/initialize?prefCd=22&kikanCd=1227302250&kikanKbn=1", "url2": "www.shintoshi-hosp.com", "内容": "医療法人社団　新都市病院【1:病院】【診療科目:内科_内分泌内科_糖尿病・内分泌内科_循環器内科_消化器内科_ペインクリニック外科_整形外科_婦人科_眼科_泌尿器科_リハビリテーション科_放射線科_麻酔科】【一般病床数:50療養病床数:0精神病床数:0感染症病床数:0合計病床数:50】静岡県磐田市中泉７０３" }, "geometry": { "type": "Point", "coordinates": [ 137.850217, 34.707988 ] } },
{ "type": "Feature", "properties": { "ID": 2211227302380, "正式名称": "掛川市・袋井市病院企業団立中東遠総合医療センター", "機関区分": 1, "都道府県コード": 22, "市区町村コード": 213, "所在地": "静岡県掛川市菖蒲ヶ池１番地の１", "緯度": 34.758625, "経度": 138.000396, "url": "https://www.iryou.teikyouseido.mhlw.go.jp/znk-web/juminkanja/S2430/initialize?prefCd=22&kikanCd=1227302380&kikanKbn=1", "url2": "https://www.chutoen-hp.shizuoka.jp/", "内容": "掛川市・袋井市病院企業団立中東遠総合医療センター【1:病院】【診療科目:内科_血液・腫瘍内科_糖尿病・内分泌内科_脳神経内科_呼吸器内科_循環器内科_消化器内科_腎臓内科_外科_脳神経外科_呼吸器外科_血管外科_心臓血管外科_消化器外科_乳腺外科_整形外科_小児科_産婦人科_眼科_耳鼻いんこう科_皮膚科_泌尿器科_歯科口腔外科_リハビリテーション科_放射線診断科_腫瘍放射線科_病理診断科_臨床検査科_救急科_麻酔科】【一般病床数:496療養病床数:0精神病床数:0感染症病床数:4合計病床数:500】静岡県掛川市菖蒲ヶ池１番地の１" }, "geometry": { "type": "Point", "coordinates": [ 138.000396, 34.758625 ] } },
{ "type": "Feature", "properties": { "ID": 2211227302410, "正式名称": "袋井市立聖隷袋井市民病院", "機関区分": 1, "都道府県コード": 22, "市区町村コード": 216, "所在地": "静岡県袋井市久能２５１５－１", "緯度": 34.769049, "経度": 137.917724, "url": "https://www.iryou.teikyouseido.mhlw.go.jp/znk-web/juminkanja/S2430/initialize?prefCd=22&kikanCd=1227302410&kikanKbn=1", "url2": "http://www.seirei.or.jp/fukuroi/", "内容": "袋井市立聖隷袋井市民病院【1:病院】【診療科目:内科_脳神経外科_整形外科_耳鼻いんこう科_リハビリテーション科】【一般病床数:100療養病床数:50精神病床数:0感染症病床数:0合計病床数:150】静岡県袋井市久能２５１５－１" }, "geometry": { "type": "Point", "coordinates": [ 137.917724, 34.769049 ] } },
{ "type": "Feature", "properties": { "ID": 2211227400390, "正式名称": "白梅豊岡病院", "機関区分": 1, "都道府県コード": 22, "市区町村コード": 211, "所在地": "静岡県磐田市下神増１８５－１９", "緯度": 34.807182, "経度": 137.837297, "url": "https://www.iryou.teikyouseido.mhlw.go.jp/znk-web/juminkanja/S2430/initialize?prefCd=22&kikanCd=1227400390&kikanKbn=1", "url2": "https://www.shiraume.or.jp", "内容": "白梅豊岡病院【1:病院】【診療科目:内科_リハビリテーション科】【一般病床数:0療養病床数:50精神病床数:0感染症病床数:0合計病床数:50】静岡県磐田市下神増１８５－１９" }, "geometry": { "type": "Point", "coordinates": [ 137.837297, 34.807182 ] } },
{ "type": "Feature", "properties": { "ID": 2212220161790, "正式名称": "すまいるクリニック", "機関区分": 1, "都道府県コード": 22, "市区町村コード": 103, "所在地": "静岡県静岡市清水区本郷町１－１清水駅前ビル４階", "緯度": 35.023676, "経度": 138.486988, "url": "https://www.iryou.teikyouseido.mhlw.go.jp/znk-web/juminkanja/S2430/initialize?prefCd=22&kikanCd=2220161790&kikanKbn=1", "url2": null, "内容": "すまいるクリニック【1:病院】【診療科目:内科】【一般病床数:0療養病床数:0精神病床数:0感染症病床数:0合計病床数:0】静岡県静岡市清水区本郷町１－１清水駅前ビル４階" }, "geometry": { "type": "Point", "coordinates": [ 138.486988, 35.023676 ] } }
]
}
