{
"type": "FeatureCollection",
"name": "geo_22_特定施設入居者生活介護（有料老人ホーム）",
"crs": { "type": "name", "properties": { "name": "urn:ogc:def:crs:OGC:1.3:CRS84" } },
"features": [
{ "type": "Feature", "properties": { "内容": "さわやか　あおい館【特定施設入居者生活介護（有料老人ホーム）】静岡県静岡市葵区唐瀬2丁目2番3号", "url": "https://www.kaigokensaku.mhlw.go.jp/22/index.php?action_kouhyou_detail_004_kani=true&JigyosyoCd=2274208954-00&ServiceCd=331&Type=search", "url2": "http://www.sawayakaclub.jp" }, "geometry": { "type": "Point", "coordinates": [ 138.38910158836066, 35.010507303982664 ] } },
{ "type": "Feature", "properties": { "内容": "ロングライフ・クイーンズ静岡呉服町【特定施設入居者生活介護（有料老人ホーム）】静岡県静岡市葵区呉服町1-30", "url": "https://www.kaigokensaku.mhlw.go.jp/22/index.php?action_kouhyou_detail_004_kani=true&JigyosyoCd=2274210158-00&ServiceCd=331&Type=search", "url2": "http://www.j-longlife.co.jp/gohukucho/" }, "geometry": { "type": "Point", "coordinates": [ 138.3815128, 34.9752309 ] } },
{ "type": "Feature", "properties": { "内容": "そんぽの家　東静岡【特定施設入居者生活介護（有料老人ホーム）】静岡市葵区長沼984-34そんぽの家　東静岡", "url": "https://www.kaigokensaku.mhlw.go.jp/22/index.php?action_kouhyou_detail_004_kani=true&JigyosyoCd=2274200721-00&ServiceCd=331&Type=search", "url2": "https://www.sompocare.com/service/home/kaigo/H000173" }, "geometry": { "type": "Point", "coordinates": [ 138.4208112, 34.9906834 ] } },
{ "type": "Feature", "properties": { "内容": "グライフ東鷹匠【特定施設入居者生活介護（有料老人ホーム）】静岡市葵区東鷹匠町1番27号", "url": "https://www.kaigokensaku.mhlw.go.jp/22/index.php?action_kouhyou_detail_004_kani=true&JigyosyoCd=2274203476-00&ServiceCd=331&Type=search", "url2": "https://www.shizutetsu.co.jp/care/home/glifehigashitakajyou" }, "geometry": { "type": "Point", "coordinates": [ 138.390375400000039, 34.981500199999985 ] } },
{ "type": "Feature", "properties": { "内容": "グランフォレストしずおか葵の森【特定施設入居者生活介護（有料老人ホーム）】静岡県静岡市葵区柳町185-2", "url": "https://www.kaigokensaku.mhlw.go.jp/22/index.php?action_kouhyou_detail_004_kani=true&JigyosyoCd=2274203682-00&ServiceCd=331&Type=search", "url2": "http://www.fillcare.co.jp//facilities/aoinomori/" }, "geometry": { "type": "Point", "coordinates": [ 138.362800099999959, 34.9800892 ] } },
{ "type": "Feature", "properties": { "内容": "はなまるハウス若松町【特定施設入居者生活介護（有料老人ホーム）】静岡市葵区若松町６７", "url": "https://www.kaigokensaku.mhlw.go.jp/22/index.php?action_kouhyou_detail_004_kani=true&JigyosyoCd=2274204177-00&ServiceCd=331&Type=search", "url2": "http://www.aiseifukushi.jp/" }, "geometry": { "type": "Point", "coordinates": [ 138.367104691401664, 34.978492090357065 ] } },
{ "type": "Feature", "properties": { "内容": "グライフ北安東【特定施設入居者生活介護（有料老人ホーム）】北安東二丁目２８番１０号静岡鉄道(株)北安東高齢者介護複合施設", "url": "https://www.kaigokensaku.mhlw.go.jp/22/index.php?action_kouhyou_detail_004_kani=true&JigyosyoCd=2274206578-00&ServiceCd=331&Type=search", "url2": "https://www.shizutetsu.co.jp/care/home/home2.php" }, "geometry": { "type": "Point", "coordinates": [ 138.385714670500164, 34.998381182249368 ] } },
{ "type": "Feature", "properties": { "内容": "ベストライフ静岡葵【特定施設入居者生活介護（有料老人ホーム）】静岡県静岡市葵区平和1-2-53", "url": "https://www.kaigokensaku.mhlw.go.jp/22/index.php?action_kouhyou_detail_004_kani=true&JigyosyoCd=2274210224-00&ServiceCd=331&Type=search", "url2": null }, "geometry": { "type": "Point", "coordinates": [ 138.3653253, 34.9870324 ] } },
{ "type": "Feature", "properties": { "内容": "介護付有料老人ホーム　ふるーら昭府【特定施設入居者生活介護（有料老人ホーム）】静岡県静岡市葵区昭府1丁目18-6", "url": "https://www.kaigokensaku.mhlw.go.jp/22/index.php?action_kouhyou_detail_004_kani=true&JigyosyoCd=2274210752-00&ServiceCd=331&Type=search", "url2": "http://www.earth-group.co.jp" }, "geometry": { "type": "Point", "coordinates": [ 138.3706755, 34.9988244 ] } },
{ "type": "Feature", "properties": { "内容": "ふるーら城北【特定施設入居者生活介護（有料老人ホーム）】静岡県静岡市葵区池ヶ谷東5-10", "url": "https://www.kaigokensaku.mhlw.go.jp/22/index.php?action_kouhyou_detail_004_kani=true&JigyosyoCd=2274210745-00&ServiceCd=331&Type=search", "url2": "http//www.earth-group.co.jp" }, "geometry": { "type": "Point", "coordinates": [ 138.384398800000014, 35.0054556 ] } },
{ "type": "Feature", "properties": { "内容": "アクタガワ　ハートライフ千代田【特定施設入居者生活介護（有料老人ホーム）】静岡市葵区千代田6丁目14番7号", "url": "https://www.kaigokensaku.mhlw.go.jp/22/index.php?action_kouhyou_detail_004_kani=true&JigyosyoCd=2274204169-00&ServiceCd=331&Type=search", "url2": "https://www.akutagawa-heartlife.jp/detail/premiumheartlifechiyoda/" }, "geometry": { "type": "Point", "coordinates": [ 138.407265, 34.9983404 ] } },
{ "type": "Feature", "properties": { "内容": "ベストライフ静岡【特定施設入居者生活介護（有料老人ホーム）】静岡県静岡市駿河区東新田1-1-33", "url": "https://www.kaigokensaku.mhlw.go.jp/22/index.php?action_kouhyou_detail_004_kani=true&JigyosyoCd=2274202106-00&ServiceCd=331&Type=search", "url2": null }, "geometry": { "type": "Point", "coordinates": [ 138.370211400000017, 34.9528841 ] } },
{ "type": "Feature", "properties": { "内容": "ナーシングホームあしたば【特定施設入居者生活介護（有料老人ホーム）】静岡市駿河区中島1687-39", "url": "https://www.kaigokensaku.mhlw.go.jp/22/index.php?action_kouhyou_detail_004_kani=true&JigyosyoCd=2274100987-00&ServiceCd=331&Type=search", "url2": "http://www.nh-ashitaba.co.jp" }, "geometry": { "type": "Point", "coordinates": [ 138.400750799999969, 34.9349446 ] } },
{ "type": "Feature", "properties": { "内容": "介護付有料老人ホーム　ウェル静岡【特定施設入居者生活介護（有料老人ホーム）】静岡県静岡市駿河区中野新田312", "url": "https://www.kaigokensaku.mhlw.go.jp/22/index.php?action_kouhyou_detail_004_kani=true&JigyosyoCd=2274201058-00&ServiceCd=331&Type=search", "url2": "https://www.wamtac-well.com" }, "geometry": { "type": "Point", "coordinates": [ 138.38792090000004, 34.9513204 ] } },
{ "type": "Feature", "properties": { "内容": "有料老人ホーム　ペリデ長田【特定施設入居者生活介護（有料老人ホーム）】静岡市駿河区寺田206-1", "url": "https://www.kaigokensaku.mhlw.go.jp/22/index.php?action_kouhyou_detail_004_kani=true&JigyosyoCd=2274202189-00&ServiceCd=331&Type=search", "url2": "http://www.pelide.jp/" }, "geometry": { "type": "Point", "coordinates": [ 138.357201799999984, 34.9396857 ] } },
{ "type": "Feature", "properties": { "内容": "有料老人ホーム　ペリデ下川原【特定施設入居者生活介護（有料老人ホーム）】下川原５丁目33-17", "url": "https://www.kaigokensaku.mhlw.go.jp/22/index.php?action_kouhyou_detail_004_kani=true&JigyosyoCd=2274205125-00&ServiceCd=331&Type=search", "url2": "http://www.pelide.jp" }, "geometry": { "type": "Point", "coordinates": [ 138.380051656483488, 34.932994005647615 ] } },
{ "type": "Feature", "properties": { "内容": "ベストライフ静岡【特定施設入居者生活介護（有料老人ホーム）】静岡県静岡市駿河区東新田1-1-33", "url": "https://www.kaigokensaku.mhlw.go.jp/22/index.php?action_kouhyou_detail_004_kani=true&JigyosyoCd=2274209895-00&ServiceCd=331&Type=search", "url2": null }, "geometry": { "type": "Point", "coordinates": [ 138.3703252, 34.9531593 ] } },
{ "type": "Feature", "properties": { "内容": "アクタガワ　ハートライフ小鹿公園前【特定施設入居者生活介護（有料老人ホーム）】静岡市駿河区小鹿９２７-１", "url": "https://www.kaigokensaku.mhlw.go.jp/22/index.php?action_kouhyou_detail_004_kani=true&JigyosyoCd=2274205323-00&ServiceCd=331&Type=search", "url2": "https://www.akutagawa-heartlife.jp/detail/premiumheartlifeoshikakouenmae/" }, "geometry": { "type": "Point", "coordinates": [ 138.425911300000053, 34.9728105 ] } },
{ "type": "Feature", "properties": { "内容": "ベストライフ三保の松原【特定施設入居者生活介護（有料老人ホーム）】三保2137-2", "url": "https://www.kaigokensaku.mhlw.go.jp/22/index.php?action_kouhyou_detail_004_kani=true&JigyosyoCd=2274204433-00&ServiceCd=331&Type=search", "url2": null }, "geometry": { "type": "Point", "coordinates": [ 138.525031899999931, 35.0105275 ] } },
{ "type": "Feature", "properties": { "内容": "介護付き有料老人ホーム　庵原屋日和館【特定施設入居者生活介護（有料老人ホーム）】静岡市清水区江尻町4番41号", "url": "https://www.kaigokensaku.mhlw.go.jp/22/index.php?action_kouhyou_detail_004_kani=true&JigyosyoCd=2274211354-00&ServiceCd=331&Type=search", "url2": null }, "geometry": { "type": "Point", "coordinates": [ 138.482927088360583, 35.019134801934953 ] } },
{ "type": "Feature", "properties": { "内容": "シンシア清水【特定施設入居者生活介護（有料老人ホーム）】静岡市清水区駒越西２丁目９－３０", "url": "https://www.kaigokensaku.mhlw.go.jp/22/index.php?action_kouhyou_detail_004_kani=true&JigyosyoCd=2274202635-00&ServiceCd=331&Type=search", "url2": "http//sincere-gri.com/" }, "geometry": { "type": "Point", "coordinates": [ 138.493858899999964, 34.974106 ] } },
{ "type": "Feature", "properties": { "内容": "アレンジメントケア桜ヶ丘【特定施設入居者生活介護（有料老人ホーム）】静岡市清水区桜が丘町5-15", "url": "https://www.kaigokensaku.mhlw.go.jp/22/index.php?action_kouhyou_detail_004_kani=true&JigyosyoCd=2274204680-00&ServiceCd=331&Type=search", "url2": "http://www.cq-s.com" }, "geometry": { "type": "Point", "coordinates": [ 138.476337199999989, 35.0116408 ] } },
{ "type": "Feature", "properties": { "内容": "ウェルビーイング清水【特定施設入居者生活介護（有料老人ホーム）】南矢部655番地の4", "url": "https://www.kaigokensaku.mhlw.go.jp/22/index.php?action_kouhyou_detail_004_kani=true&JigyosyoCd=2274205141-00&ServiceCd=331&Type=search", "url2": "http://w-being.jp" }, "geometry": { "type": "Point", "coordinates": [ 138.474676600000066, 34.9958369 ] } },
{ "type": "Feature", "properties": { "内容": "ベストライフ三保の松原【特定施設入居者生活介護（有料老人ホーム）】三保2137-2", "url": "https://www.kaigokensaku.mhlw.go.jp/22/index.php?action_kouhyou_detail_004_kani=true&JigyosyoCd=2274209911-00&ServiceCd=331&Type=search", "url2": null }, "geometry": { "type": "Point", "coordinates": [ 138.525038200000012, 35.0105191 ] } },
{ "type": "Feature", "properties": { "内容": "介護付有料老人ホームふるーら清水【特定施設入居者生活介護（有料老人ホーム）】静岡県静岡市清水区長崎507", "url": "https://www.kaigokensaku.mhlw.go.jp/22/index.php?action_kouhyou_detail_004_kani=true&JigyosyoCd=2274210216-00&ServiceCd=331&Type=search", "url2": "http://www.earth-group.co.jp/" }, "geometry": { "type": "Point", "coordinates": [ 138.439984399999986, 35.013882 ] } },
{ "type": "Feature", "properties": { "内容": "ラ・ナシカ三保の松原【特定施設入居者生活介護（有料老人ホーム）】三保61-1", "url": "https://www.kaigokensaku.mhlw.go.jp/22/index.php?action_kouhyou_detail_004_kani=true&JigyosyoCd=2274207444-00&ServiceCd=331&Type=search", "url2": "https://www.cedar-group.co.jp" }, "geometry": { "type": "Point", "coordinates": [ 138.517934474834078, 34.999385070115117 ] } },
{ "type": "Feature", "properties": { "内容": "ふるーら高部【特定施設入居者生活介護（有料老人ホーム）】静岡県静岡市清水区梅ヶ谷58", "url": "https://www.kaigokensaku.mhlw.go.jp/22/index.php?action_kouhyou_detail_004_kani=true&JigyosyoCd=2274210869-00&ServiceCd=331&Type=search", "url2": "http://www.earth-group.co.jp" }, "geometry": { "type": "Point", "coordinates": [ 138.4505009, 35.0358151 ] } },
{ "type": "Feature", "properties": { "内容": "ベストライフ浜松東【特定施設入居者生活介護（有料老人ホーム）】浜松市東区中野町117-2", "url": "https://www.kaigokensaku.mhlw.go.jp/22/index.php?action_kouhyou_detail_004_kani=true&JigyosyoCd=2277102238-00&ServiceCd=331&Type=search", "url2": null }, "geometry": { "type": "Point", "coordinates": [ 137.791611900000021, 34.7295211 ] } },
{ "type": "Feature", "properties": { "内容": "そんぽの家　浜松【特定施設入居者生活介護（有料老人ホーム）】浜松市中央区篠ヶ瀬町４１２そんぽの家浜松", "url": "https://www.kaigokensaku.mhlw.go.jp/22/index.php?action_kouhyou_detail_004_kani=true&JigyosyoCd=2277102055-00&ServiceCd=331&Type=search", "url2": "https://www.sompocare.com/service/home/kaigo/H000164/" }, "geometry": { "type": "Point", "coordinates": [ 137.774765161334187, 34.730307439972805 ] } },
{ "type": "Feature", "properties": { "内容": "さわやかはままつ館【特定施設入居者生活介護（有料老人ホーム）】静岡県浜松市中区葵東2-6-28さわやかはままつ館", "url": "https://www.kaigokensaku.mhlw.go.jp/22/index.php?action_kouhyou_detail_004_kani=true&JigyosyoCd=2277204927-00&ServiceCd=331&Type=search", "url2": "hppt://www.sawayakaclub.jp" }, "geometry": { "type": "Point", "coordinates": [ 137.725398600000062, 34.7581406 ] } },
{ "type": "Feature", "properties": { "内容": "介護付き有料老人ホーム夢眠はままつにし【特定施設入居者生活介護（有料老人ホーム）】静岡県浜松市中央区舞阪町浜田631番地の1", "url": "https://www.kaigokensaku.mhlw.go.jp/22/index.php?action_kouhyou_detail_004_kani=true&JigyosyoCd=2277206294-00&ServiceCd=331&Type=search", "url2": null }, "geometry": { "type": "Point", "coordinates": [ 137.624526399999979, 34.6812043 ] } },
{ "type": "Feature", "properties": { "内容": "ラクラス広沢レジデンス【特定施設入居者生活介護（有料老人ホーム）】静岡県浜松市中央区広沢1-18-5", "url": "https://www.kaigokensaku.mhlw.go.jp/22/index.php?action_kouhyou_detail_004_kani=true&JigyosyoCd=2277204240-00&ServiceCd=331&Type=search", "url2": "http://www.entetsu.co.jp/la-class" }, "geometry": { "type": "Point", "coordinates": [ 137.719245399999977, 34.7145367 ] } },
{ "type": "Feature", "properties": { "内容": "ラクラス富塚レジデンス【特定施設入居者生活介護（有料老人ホーム）】静岡県浜松市中央区富塚町440-6", "url": "https://www.kaigokensaku.mhlw.go.jp/22/index.php?action_kouhyou_detail_004_kani=true&JigyosyoCd=2277205023-00&ServiceCd=331&Type=search", "url2": "https://www.entetsu.co.jp/la-class/" }, "geometry": { "type": "Point", "coordinates": [ 137.700166200000012, 34.7206636 ] } },
{ "type": "Feature", "properties": { "内容": "三つ山晴風苑【特定施設入居者生活介護（有料老人ホーム）】静岡県浜松市中央区東伊場二丁目14番39号", "url": "https://www.kaigokensaku.mhlw.go.jp/22/index.php?action_kouhyou_detail_004_kani=true&JigyosyoCd=2277103830-00&ServiceCd=331&Type=search", "url2": "http://to-seki.net/" }, "geometry": { "type": "Point", "coordinates": [ 137.717283735070851, 34.697284541449918 ] } },
{ "type": "Feature", "properties": { "内容": "ベストライフ浜松【特定施設入居者生活介護（有料老人ホーム）】静岡県浜松市中央区和合町243-13", "url": "https://www.kaigokensaku.mhlw.go.jp/22/index.php?action_kouhyou_detail_004_kani=true&JigyosyoCd=2277205601-00&ServiceCd=331&Type=search", "url2": null }, "geometry": { "type": "Point", "coordinates": [ 137.713004066270457, 34.73756235814723 ] } },
{ "type": "Feature", "properties": { "内容": "アマノ・サンハート【特定施設入居者生活介護（有料老人ホーム）】浜松市中央区根洗町289-1", "url": "https://www.kaigokensaku.mhlw.go.jp/22/index.php?action_kouhyou_detail_004_kani=true&JigyosyoCd=2277102766-00&ServiceCd=331&Type=search", "url2": "http://www.amano-t.com/sunheart/" }, "geometry": { "type": "Point", "coordinates": [ 137.703463100000022, 34.800986600000016 ] } },
{ "type": "Feature", "properties": { "内容": "ベストライフ浜松東【特定施設入居者生活介護（有料老人ホーム）】静岡県浜松市中央区中野町117-2", "url": "https://www.kaigokensaku.mhlw.go.jp/22/index.php?action_kouhyou_detail_004_kani=true&JigyosyoCd=2277205619-00&ServiceCd=331&Type=search", "url2": null }, "geometry": { "type": "Point", "coordinates": [ 137.7916496, 34.7295462 ] } },
{ "type": "Feature", "properties": { "内容": "そんぽの家　浜松高丘【特定施設入居者生活介護（有料老人ホーム）】浜松市中央区高丘東5丁目7-24", "url": "https://www.kaigokensaku.mhlw.go.jp/22/index.php?action_kouhyou_detail_004_kani=true&JigyosyoCd=2277102436-00&ServiceCd=331&Type=search", "url2": "https://www.sompocare.com/service/home/kaigo/H000185" }, "geometry": { "type": "Point", "coordinates": [ 137.714690955921299, 34.761820596308795 ] } },
{ "type": "Feature", "properties": { "内容": "ハレルヤ奥浜名湖【特定施設入居者生活介護（有料老人ホーム）】浜松市浜名区細江町気賀845-1ハレルヤ奥浜名湖", "url": "https://www.kaigokensaku.mhlw.go.jp/22/index.php?action_kouhyou_detail_004_kani=true&JigyosyoCd=2278100025-00&ServiceCd=331&Type=search", "url2": null }, "geometry": { "type": "Point", "coordinates": [ 137.655435319634989, 34.811829302582275 ] } },
{ "type": "Feature", "properties": { "内容": "アンサンブル浜松尾野【特定施設入居者生活介護（有料老人ホーム）】静岡県浜松市浜名区尾野2131-3", "url": "https://www.kaigokensaku.mhlw.go.jp/22/index.php?action_kouhyou_detail_004_kani=true&JigyosyoCd=2277203671-00&ServiceCd=331&Type=search", "url2": "https://mcs-ensemble.com/institution/hamamatsu/" }, "geometry": { "type": "Point", "coordinates": [ 137.7867496, 34.8307797 ] } },
{ "type": "Feature", "properties": { "内容": "介護付有料老人ホーム　浜名湖エデンの園【特定施設入居者生活介護（有料老人ホーム）】浜松市浜名区細江町中川7220-99", "url": "https://www.kaigokensaku.mhlw.go.jp/22/index.php?action_kouhyou_detail_004_kani=true&JigyosyoCd=2278100124-00&ServiceCd=331&Type=search", "url2": "https://www.seirei.or.jp/eden/hamanako/" }, "geometry": { "type": "Point", "coordinates": [ 137.6910537, 34.7909375 ] } },
{ "type": "Feature", "properties": { "内容": "介護付有料老人ホーム　浜松〈ゆうゆうの里〉【特定施設入居者生活介護（有料老人ホーム）】静岡県浜松市浜名区細江町中川7399", "url": "https://www.kaigokensaku.mhlw.go.jp/22/index.php?action_kouhyou_detail_004_kani=true&JigyosyoCd=2278100082-00&ServiceCd=331&Type=search", "url2": "http://www.yuyunosato.or.jp/place/hama/" }, "geometry": { "type": "Point", "coordinates": [ 137.691442599999959, 34.7899765 ] } },
{ "type": "Feature", "properties": { "内容": "ウェルビーイング大岡【特定施設入居者生活介護（有料老人ホーム）】静岡県沼津市大岡２２６２－４", "url": "https://www.kaigokensaku.mhlw.go.jp/22/index.php?action_kouhyou_detail_004_kani=true&JigyosyoCd=2271101202-00&ServiceCd=331&Type=search", "url2": "http://w-being.jp" }, "geometry": { "type": "Point", "coordinates": [ 138.876691100000016, 35.1155498 ] } },
{ "type": "Feature", "properties": { "内容": "ライフケアセンターよつば【特定施設入居者生活介護（有料老人ホーム）】静岡県沼津市吉田町15番７号", "url": "https://www.kaigokensaku.mhlw.go.jp/22/index.php?action_kouhyou_detail_004_kani=true&JigyosyoCd=2271102895-00&ServiceCd=331&Type=search", "url2": "http://www7.ocn.ne.jp/~yotsu100/" }, "geometry": { "type": "Point", "coordinates": [ 138.862645499999985, 35.0897818 ] } },
{ "type": "Feature", "properties": { "内容": "有料老人ホームアージェントきせがわ【特定施設入居者生活介護（有料老人ホーム）】静岡県沼津市大岡1152番地", "url": "https://www.kaigokensaku.mhlw.go.jp/22/index.php?action_kouhyou_detail_004_kani=true&JigyosyoCd=2271101970-00&ServiceCd=331&Type=search", "url2": "https://www.argent.co.jp" }, "geometry": { "type": "Point", "coordinates": [ 138.881344, 35.1034509 ] } },
{ "type": "Feature", "properties": { "内容": "ウェルビーイング岡宮【特定施設入居者生活介護（有料老人ホーム）】沼津市岡宮575-1", "url": "https://www.kaigokensaku.mhlw.go.jp/22/index.php?action_kouhyou_detail_004_kani=true&JigyosyoCd=2271102234-00&ServiceCd=331&Type=search", "url2": "http://w-being.jp" }, "geometry": { "type": "Point", "coordinates": [ 138.8713467, 35.1250601 ] } },
{ "type": "Feature", "properties": { "内容": "オーチャード沼津【特定施設入居者生活介護（有料老人ホーム）】静岡県沼津市新宿町9－5", "url": "https://www.kaigokensaku.mhlw.go.jp/22/index.php?action_kouhyou_detail_004_kani=true&JigyosyoCd=2271102747-00&ServiceCd=331&Type=search", "url2": "http://numazu.orchard-care.co.jp/" }, "geometry": { "type": "Point", "coordinates": [ 138.86054230000002, 35.1072111 ] } },
{ "type": "Feature", "properties": { "内容": "有料老人ホーム青空【特定施設入居者生活介護（有料老人ホーム）】沼津市小諏訪１５－１", "url": "https://www.kaigokensaku.mhlw.go.jp/22/index.php?action_kouhyou_detail_004_kani=true&JigyosyoCd=2271101863-00&ServiceCd=331&Type=search", "url2": "http://www.aozora-h.com" }, "geometry": { "type": "Point", "coordinates": [ 138.839843500000029, 35.1135794 ] } },
{ "type": "Feature", "properties": { "内容": "ベストライフ沼津【特定施設入居者生活介護（有料老人ホーム）】静岡県沼津市西間門482-1", "url": "https://www.kaigokensaku.mhlw.go.jp/22/index.php?action_kouhyou_detail_004_kani=true&JigyosyoCd=2271103372-00&ServiceCd=331&Type=search", "url2": null }, "geometry": { "type": "Point", "coordinates": [ 138.840124300000014, 35.102748 ] } },
{ "type": "Feature", "properties": { "内容": "有料老人ホーム　センチュリー万平【特定施設入居者生活介護（有料老人ホーム）】沼津市大岡3781－1", "url": "https://www.kaigokensaku.mhlw.go.jp/22/index.php?action_kouhyou_detail_004_kani=true&JigyosyoCd=2271101194-00&ServiceCd=331&Type=search", "url2": "https://suruganosato.co.jp/facilitymanpei/" }, "geometry": { "type": "Point", "coordinates": [ 138.8883677, 35.1300654 ] } },
{ "type": "Feature", "properties": { "内容": "有料老人ホーム　駿河の里【特定施設入居者生活介護（有料老人ホーム）】静岡県沼津市大岡３４９７－２", "url": "https://www.kaigokensaku.mhlw.go.jp/22/index.php?action_kouhyou_detail_004_kani=true&JigyosyoCd=2271100642-00&ServiceCd=331&Type=search", "url2": "http://www.suruganosato.co.jp" }, "geometry": { "type": "Point", "coordinates": [ 138.887856599999964, 35.1337678 ] } },
{ "type": "Feature", "properties": { "内容": "フレンズ南熱海【特定施設入居者生活介護（有料老人ホーム）】静岡県熱海市下多賀842-4フレンズ南熱海", "url": "https://www.kaigokensaku.mhlw.go.jp/22/index.php?action_kouhyou_detail_004_kani=true&JigyosyoCd=2270500479-00&ServiceCd=331&Type=search", "url2": "http://www.fm-atami.net/" }, "geometry": { "type": "Point", "coordinates": [ 139.067949499999912, 35.046149299999989 ] } },
{ "type": "Feature", "properties": { "内容": "熱海ゆとりあの郷【特定施設入居者生活介護（有料老人ホーム）】熱海市西熱海町一丁目２４番1号", "url": "https://www.kaigokensaku.mhlw.go.jp/22/index.php?action_kouhyou_detail_004_kani=true&JigyosyoCd=2270500105-00&ServiceCd=331&Type=search", "url2": "https://www.reimeikai1945.jp/pages/110/" }, "geometry": { "type": "Point", "coordinates": [ 139.060017, 35.1040338 ] } },
{ "type": "Feature", "properties": { "内容": "ネオ・サミット湯河原【特定施設入居者生活介護（有料老人ホーム）】静岡県熱海市泉１７－２ネオ・サミット湯河原", "url": "https://www.kaigokensaku.mhlw.go.jp/22/index.php?action_kouhyou_detail_004_kani=true&JigyosyoCd=2270500669-00&ServiceCd=331&Type=search", "url2": "http:/www.neo-summit.com" }, "geometry": { "type": "Point", "coordinates": [ 139.096445799999969, 35.1403224 ] } },
{ "type": "Feature", "properties": { "内容": "中銀ケアホテル【特定施設入居者生活介護（有料老人ホーム）】静岡県熱海市咲見町6-5", "url": "https://www.kaigokensaku.mhlw.go.jp/22/index.php?action_kouhyou_detail_004_kani=true&JigyosyoCd=2270500388-00&ServiceCd=331&Type=search", "url2": "http://www.carehotel.co.jp/" }, "geometry": { "type": "Point", "coordinates": [ 139.072604700000056, 35.0993566 ] } },
{ "type": "Feature", "properties": { "内容": "ベストライフ熱海【特定施設入居者生活介護（有料老人ホーム）】静岡県熱海市泉413-126", "url": "https://www.kaigokensaku.mhlw.go.jp/22/index.php?action_kouhyou_detail_004_kani=true&JigyosyoCd=2270500933-00&ServiceCd=331&Type=search", "url2": null }, "geometry": { "type": "Point", "coordinates": [ 139.0581551, 35.1346628 ] } },
{ "type": "Feature", "properties": { "内容": "ぽっかぽか・熱海館１号館【特定施設入居者生活介護（有料老人ホーム）】静岡県熱海市西熱海町一丁目20番1号ぽっかぽか・熱海館1号館", "url": "https://www.kaigokensaku.mhlw.go.jp/22/index.php?action_kouhyou_detail_004_kani=true&JigyosyoCd=2270500552-00&ServiceCd=331&Type=search", "url2": "https://poka2.net" }, "geometry": { "type": "Point", "coordinates": [ 139.060530800000038, 35.1051698 ] } },
{ "type": "Feature", "properties": { "内容": "有料老人ホームサンリッチ三島【特定施設入居者生活介護（有料老人ホーム）】静岡県三島市川原ヶ谷264番地2", "url": "https://www.kaigokensaku.mhlw.go.jp/22/index.php?action_kouhyou_detail_004_kani=true&JigyosyoCd=2270600154-00&ServiceCd=331&Type=search", "url2": "http://www.sunrich-mishima.jp/" }, "geometry": { "type": "Point", "coordinates": [ 138.933077799999978, 35.123499500000037 ] } },
{ "type": "Feature", "properties": { "内容": "SOU介護付き有料老人ホームわかみや【特定施設入居者生活介護（有料老人ホーム）】小泉2302番地の8", "url": "https://www.kaigokensaku.mhlw.go.jp/22/index.php?action_kouhyou_detail_004_kani=true&JigyosyoCd=2272101110-00&ServiceCd=331&Type=search", "url2": "http://www.altidea.com" }, "geometry": { "type": "Point", "coordinates": [ 138.641680700000052, 35.2138029 ] } },
{ "type": "Feature", "properties": { "内容": "そんぽの家　富士宮【特定施設入居者生活介護（有料老人ホーム）】富士宮市小泉309-1", "url": "https://www.kaigokensaku.mhlw.go.jp/22/index.php?action_kouhyou_detail_004_kani=true&JigyosyoCd=2272100641-00&ServiceCd=331&Type=search", "url2": "https://www.sompocare.com/service/home/kaigo/H000223" }, "geometry": { "type": "Point", "coordinates": [ 138.6323036, 35.2101447 ] } },
{ "type": "Feature", "properties": { "内容": "介護付き有料老人ホーム　フクC-田中【特定施設入居者生活介護（有料老人ホーム）】田中町762番地の1", "url": "https://www.kaigokensaku.mhlw.go.jp/22/index.php?action_kouhyou_detail_004_kani=true&JigyosyoCd=2272101490-00&ServiceCd=331&Type=search", "url2": "http//freeway.server-shared.com/" }, "geometry": { "type": "Point", "coordinates": [ 138.619533100000012, 35.2167988 ] } },
{ "type": "Feature", "properties": { "内容": "ふるーら泉【特定施設入居者生活介護（有料老人ホーム）】静岡県富士宮市泉町626-3ふるーら泉", "url": "https://www.kaigokensaku.mhlw.go.jp/22/index.php?action_kouhyou_detail_004_kani=true&JigyosyoCd=2272101458-00&ServiceCd=331&Type=search", "url2": "http:/earth-group.co.jp" }, "geometry": { "type": "Point", "coordinates": [ 138.60069457790982, 35.222594464574605 ] } },
{ "type": "Feature", "properties": { "内容": "サンリッチ伊東【特定施設入居者生活介護（有料老人ホーム）】静岡県伊東市岡171番地の2サンリッチ伊東", "url": "https://www.kaigokensaku.mhlw.go.jp/22/index.php?action_kouhyou_detail_004_kani=true&JigyosyoCd=2270400563-00&ServiceCd=331&Type=search", "url2": "http://www.sunrich-ito.jp/" }, "geometry": { "type": "Point", "coordinates": [ 139.088890099999958, 34.9615479 ] } },
{ "type": "Feature", "properties": { "内容": "有料老人ホーム　緑寿の郷【特定施設入居者生活介護（有料老人ホーム）】静岡県　伊東市猪戸１－１－３", "url": "https://www.kaigokensaku.mhlw.go.jp/22/index.php?action_kouhyou_detail_004_kani=true&JigyosyoCd=2270400282-00&ServiceCd=331&Type=search", "url2": "ryokujyu@amber.plala.or.jp" }, "geometry": { "type": "Point", "coordinates": [ 139.09465309999996, 34.9726333 ] } },
{ "type": "Feature", "properties": { "内容": "伊豆高原〈ゆうゆうの里〉【特定施設入居者生活介護（有料老人ホーム）】静岡県伊東市八幡野1027", "url": "https://www.kaigokensaku.mhlw.go.jp/22/index.php?action_kouhyou_detail_004_kani=true&JigyosyoCd=2270400076-00&ServiceCd=331&Type=search", "url2": "https://www.yuyunosato.or.jp/place/izu/" }, "geometry": { "type": "Point", "coordinates": [ 139.113616, 34.8745263 ] } },
{ "type": "Feature", "properties": { "内容": "ウェルケア伊豆高原【特定施設入居者生活介護（有料老人ホーム）】伊東市八幡野1741-266", "url": "https://www.kaigokensaku.mhlw.go.jp/22/index.php?action_kouhyou_detail_004_kani=true&JigyosyoCd=2270400134-00&ServiceCd=331&Type=search", "url2": "https://www.wellcareizu.jp/" }, "geometry": { "type": "Point", "coordinates": [ 139.093819400000029, 34.8679463 ] } },
{ "type": "Feature", "properties": { "内容": "スカイテラス伊東【特定施設入居者生活介護（有料老人ホーム）】静岡県伊東市松原639-15", "url": "https://www.kaigokensaku.mhlw.go.jp/22/index.php?action_kouhyou_detail_004_kani=true&JigyosyoCd=2270401231-00&ServiceCd=331&Type=search", "url2": "https://www.skyterrace-ito.com" }, "geometry": { "type": "Point", "coordinates": [ 139.089153900000042, 34.9747255 ] } },
{ "type": "Feature", "properties": { "内容": "ニチイケアセンター伊東かどの【特定施設入居者生活介護（有料老人ホーム）】静岡県伊東市荻466-7", "url": "https://www.kaigokensaku.mhlw.go.jp/22/index.php?action_kouhyou_detail_004_kani=true&JigyosyoCd=2270400993-00&ServiceCd=331&Type=search", "url2": "http://www.nichiigakkan.co.jp" }, "geometry": { "type": "Point", "coordinates": [ 139.087705199999959, 34.9429495 ] } },
{ "type": "Feature", "properties": { "内容": "ラ・ナシカ　しまだ【特定施設入居者生活介護（有料老人ホーム）】静岡県島田市金谷東二丁目30-5", "url": "https://www.kaigokensaku.mhlw.go.jp/22/index.php?action_kouhyou_detail_004_kani=true&JigyosyoCd=2275400857-00&ServiceCd=331&Type=search", "url2": "http://www.cedar-group.co.jp" }, "geometry": { "type": "Point", "coordinates": [ 138.141632453442412, 34.823405800973845 ] } },
{ "type": "Feature", "properties": { "内容": "シンシア島田【特定施設入居者生活介護（有料老人ホーム）】静岡県島田市東町１１－１", "url": "https://www.kaigokensaku.mhlw.go.jp/22/index.php?action_kouhyou_detail_004_kani=true&JigyosyoCd=2275400337-00&ServiceCd=331&Type=search", "url2": "http://www.sincere-gri.com/" }, "geometry": { "type": "Point", "coordinates": [ 138.215264899999966, 34.8374968 ] } },
{ "type": "Feature", "properties": { "内容": "アースの介護付き有料老人ホームでらいと島田【特定施設入居者生活介護（有料老人ホーム）】静岡県島田市東町１８３番地でらいと島田", "url": "https://www.kaigokensaku.mhlw.go.jp/22/index.php?action_kouhyou_detail_004_kani=true&JigyosyoCd=2275400675-00&ServiceCd=331&Type=search", "url2": "https://earth-group.co.jp/services/delight-shimada/" }, "geometry": { "type": "Point", "coordinates": [ 138.220517200000018, 34.8336195 ] } },
{ "type": "Feature", "properties": { "内容": "ニチイケアセンター島田金谷有料老人ホームニチイのきらめき【特定施設入居者生活介護（有料老人ホーム）】静岡県島田市金谷栄町１９７－１", "url": "https://www.kaigokensaku.mhlw.go.jp/22/index.php?action_kouhyou_detail_004_kani=true&JigyosyoCd=2275400782-00&ServiceCd=331&Type=search", "url2": "http://www.nichiigakkan.co.jp" }, "geometry": { "type": "Point", "coordinates": [ 138.124287399999957, 34.8314276 ] } },
{ "type": "Feature", "properties": { "内容": "介護付有料老人ホーム　ウェルビーイング富士三ツ倉【特定施設入居者生活介護（有料老人ホーム）】静岡県富士市大渕2447-1", "url": "https://www.kaigokensaku.mhlw.go.jp/22/index.php?action_kouhyou_detail_004_kani=true&JigyosyoCd=2272302619-00&ServiceCd=331&Type=search", "url2": "http://w-being.jp" }, "geometry": { "type": "Point", "coordinates": [ 138.677858600741587, 35.194734191119238 ] } },
{ "type": "Feature", "properties": { "内容": "メディカルケアハウス　リライフ宇東川【特定施設入居者生活介護（有料老人ホーム）】静岡県富士市宇東川西町9-20", "url": "https://www.kaigokensaku.mhlw.go.jp/22/index.php?action_kouhyou_detail_004_kani=true&JigyosyoCd=2272302833-00&ServiceCd=331&Type=search", "url2": "http://www.relife-utougawa.jp/" }, "geometry": { "type": "Point", "coordinates": [ 138.701477762040668, 35.169651666133639 ] } },
{ "type": "Feature", "properties": { "内容": "メディカルケアハウス　リライフ富士【特定施設入居者生活介護（有料老人ホーム）】静岡県富士市石坂420-1百葉メディカルケアセンター", "url": "https://www.kaigokensaku.mhlw.go.jp/22/index.php?action_kouhyou_detail_004_kani=true&JigyosyoCd=2272302601-00&ServiceCd=331&Type=search", "url2": "http://momoha-medical.jp" }, "geometry": { "type": "Point", "coordinates": [ 138.68229139999994, 35.1820682 ] } },
{ "type": "Feature", "properties": { "内容": "ウェルビーイング富士【特定施設入居者生活介護（有料老人ホーム）】静岡県富士市厚原１１９２－１", "url": "https://www.kaigokensaku.mhlw.go.jp/22/index.php?action_kouhyou_detail_004_kani=true&JigyosyoCd=2272302049-00&ServiceCd=331&Type=search", "url2": "http://w-being.jp" }, "geometry": { "type": "Point", "coordinates": [ 138.661085100000037, 35.1874064 ] } },
{ "type": "Feature", "properties": { "内容": "有料老人ホーム　サニーライフ富士【特定施設入居者生活介護（有料老人ホーム）】静岡県富士市日乃出町123番地の1", "url": "https://www.kaigokensaku.mhlw.go.jp/22/index.php?action_kouhyou_detail_004_kani=true&JigyosyoCd=2272303534-00&ServiceCd=331&Type=search", "url2": "https://www.sunnylife-group.co.jp" }, "geometry": { "type": "Point", "coordinates": [ 138.666433399999988, 35.1641496 ] } },
{ "type": "Feature", "properties": { "内容": "ベストライフ富士【特定施設入居者生活介護（有料老人ホーム）】静岡県富士市水戸島元町4-16ベストライフ富士", "url": "https://www.kaigokensaku.mhlw.go.jp/22/index.php?action_kouhyou_detail_004_kani=true&JigyosyoCd=2272303195-00&ServiceCd=331&Type=search", "url2": null }, "geometry": { "type": "Point", "coordinates": [ 138.6492801, 35.1495794 ] } },
{ "type": "Feature", "properties": { "内容": "富士山するがテラス【特定施設入居者生活介護（有料老人ホーム）】静岡県富士市横割本町1-1", "url": "https://www.kaigokensaku.mhlw.go.jp/22/index.php?action_kouhyou_detail_004_kani=true&JigyosyoCd=2272302924-00&ServiceCd=331&Type=search", "url2": "http://www.ls.west-trust.co.jp/surugaterrace/" }, "geometry": { "type": "Point", "coordinates": [ 138.651066903041027, 35.150455813106383 ] } },
{ "type": "Feature", "properties": { "内容": "ニチイケアセンター富士厚原【特定施設入居者生活介護（有料老人ホーム）】静岡県富士市厚原626-2", "url": "https://www.kaigokensaku.mhlw.go.jp/22/index.php?action_kouhyou_detail_004_kani=true&JigyosyoCd=2272301751-00&ServiceCd=331&Type=search", "url2": "http://www.nichiigakkan.co.jp" }, "geometry": { "type": "Point", "coordinates": [ 138.659618599999931, 35.1840374 ] } },
{ "type": "Feature", "properties": { "内容": "ツクイ・サンシャイン富士【特定施設入居者生活介護（有料老人ホーム）】静岡県富士市錦町1-3-22", "url": "https://www.kaigokensaku.mhlw.go.jp/22/index.php?action_kouhyou_detail_004_kani=true&JigyosyoCd=2272303203-00&ServiceCd=331&Type=search", "url2": "https://www.tsukui.net/sunshine/fuji/" }, "geometry": { "type": "Point", "coordinates": [ 138.679038887835702, 35.160171649934178 ] } },
{ "type": "Feature", "properties": { "内容": "介護付有料老人ホーム　すずかけの木【特定施設入居者生活介護（有料老人ホーム）】静岡県焼津市小川新町４丁目３－２３", "url": "https://www.kaigokensaku.mhlw.go.jp/22/index.php?action_kouhyou_detail_004_kani=true&JigyosyoCd=2275100952-00&ServiceCd=331&Type=search", "url2": "https://suzukakeno-ki.com/" }, "geometry": { "type": "Point", "coordinates": [ 138.319320400000038, 34.853908 ] } },
{ "type": "Feature", "properties": { "内容": "シンシア焼津【特定施設入居者生活介護（有料老人ホーム）】焼津市南小川1-1-6", "url": "https://www.kaigokensaku.mhlw.go.jp/22/index.php?action_kouhyou_detail_004_kani=true&JigyosyoCd=2275100622-00&ServiceCd=331&Type=search", "url2": "http://sincere-gri.com/" }, "geometry": { "type": "Point", "coordinates": [ 138.312390899999968, 34.84886980000001 ] } },
{ "type": "Feature", "properties": { "内容": "アースの介護付有料老人ホーム　でらいと焼津【特定施設入居者生活介護（有料老人ホーム）】焼津市石津1丁目16番地7", "url": "https://www.kaigokensaku.mhlw.go.jp/22/index.php?action_kouhyou_detail_004_kani=true&JigyosyoCd=2275100960-00&ServiceCd=331&Type=search", "url2": "http://www.earth-group.co.jp/index.html" }, "geometry": { "type": "Point", "coordinates": [ 138.309415796620186, 34.841696137100136 ] } },
{ "type": "Feature", "properties": { "内容": "介護付き有料老人ホーム　浜当目プラス【特定施設入居者生活介護（有料老人ホーム）】静岡県焼津市浜当目４丁目１２－１", "url": "https://www.kaigokensaku.mhlw.go.jp/22/index.php?action_kouhyou_detail_004_kani=true&JigyosyoCd=2275101539-00&ServiceCd=331&Type=search", "url2": "http://seijukai-gp.jp/" }, "geometry": { "type": "Point", "coordinates": [ 138.334139599999986, 34.8813864 ] } },
{ "type": "Feature", "properties": { "内容": "アネシス・あじさい【特定施設入居者生活介護（有料老人ホーム）】静岡県掛川市杉谷南1丁目3番地の23", "url": "https://www.kaigokensaku.mhlw.go.jp/22/index.php?action_kouhyou_detail_004_kani=true&JigyosyoCd=2277400830-00&ServiceCd=331&Type=search", "url2": null }, "geometry": { "type": "Point", "coordinates": [ 138.0252654, 34.7631364 ] } },
{ "type": "Feature", "properties": { "内容": "介護付有料老人ホーム　ウィル掛川【特定施設入居者生活介護（有料老人ホーム）】静岡県掛川市横須賀１１９８－１", "url": "https://www.kaigokensaku.mhlw.go.jp/22/index.php?action_kouhyou_detail_004_kani=true&JigyosyoCd=2277400277-00&ServiceCd=331&Type=search", "url2": "http://www.will-planning.com/kakegawa/" }, "geometry": { "type": "Point", "coordinates": [ 137.978540109123259, 34.67974389488581 ] } },
{ "type": "Feature", "properties": { "内容": "介護付有料老人ホーム　アグリ大東【特定施設入居者生活介護（有料老人ホーム）】静岡県掛川市川久保1143-1", "url": "https://www.kaigokensaku.mhlw.go.jp/22/index.php?action_kouhyou_detail_004_kani=true&JigyosyoCd=2277400129-00&ServiceCd=331&Type=search", "url2": "http://kaigo-livent.jp/charges_aguri.html" }, "geometry": { "type": "Point", "coordinates": [ 138.053223900000035, 34.6858508 ] } },
{ "type": "Feature", "properties": { "内容": "介護付有料老人ホーム　アグリ大東　結【特定施設入居者生活介護（有料老人ホーム）】静岡県掛川市川久保１１３６－１", "url": "https://www.kaigokensaku.mhlw.go.jp/22/index.php?action_kouhyou_detail_004_kani=true&JigyosyoCd=2277400293-00&ServiceCd=331&Type=search", "url2": "http://kaigo-livent.jp/charges_aguri.html" }, "geometry": { "type": "Point", "coordinates": [ 138.053096099999948, 34.686248 ] } },
{ "type": "Feature", "properties": { "内容": "ケアホームぬくとんぼ【特定施設入居者生活介護（有料老人ホーム）】静岡県掛川市杉谷南２－８－６", "url": "https://www.kaigokensaku.mhlw.go.jp/22/index.php?action_kouhyou_detail_004_kani=true&JigyosyoCd=2276200272-00&ServiceCd=331&Type=search", "url2": null }, "geometry": { "type": "Point", "coordinates": [ 138.0309181, 34.7624068 ] } },
{ "type": "Feature", "properties": { "内容": "リヤンドファミーユ【特定施設入居者生活介護（有料老人ホーム）】静岡県藤枝市駅前一丁目8番11号", "url": "https://www.kaigokensaku.mhlw.go.jp/22/index.php?action_kouhyou_detail_004_kani=true&JigyosyoCd=2275301840-00&ServiceCd=331&Type=search", "url2": "http://liendefamille.jp" }, "geometry": { "type": "Point", "coordinates": [ 138.25301060000001, 34.8500829 ] } },
{ "type": "Feature", "properties": { "内容": "ベストライフ御殿場【特定施設入居者生活介護（有料老人ホーム）】静岡県御殿場市萩原５４８－２ベストライフ御殿場", "url": "https://www.kaigokensaku.mhlw.go.jp/22/index.php?action_kouhyou_detail_004_kani=true&JigyosyoCd=2271200764-00&ServiceCd=331&Type=search", "url2": null }, "geometry": { "type": "Point", "coordinates": [ 138.933084900000011, 35.3072176 ] } },
{ "type": "Feature", "properties": { "内容": "ツクイ・サンシャイン御殿場【特定施設入居者生活介護（有料老人ホーム）】静岡県御殿場市川島田788ツクイ・サンシャイン御殿場", "url": "https://www.kaigokensaku.mhlw.go.jp/22/index.php?action_kouhyou_detail_004_kani=true&JigyosyoCd=2271200772-00&ServiceCd=331&Type=search", "url2": "https://www.tsukui.net" }, "geometry": { "type": "Point", "coordinates": [ 138.9258322, 35.300305 ] } },
{ "type": "Feature", "properties": { "内容": "ラクラス可睡の杜レジデンス【特定施設入居者生活介護（有料老人ホーム）】静岡県袋井市可睡の杜51-7", "url": "https://www.kaigokensaku.mhlw.go.jp/22/index.php?action_kouhyou_detail_004_kani=true&JigyosyoCd=2277300279-00&ServiceCd=331&Type=search", "url2": "http://www.entetsu.co.jp/la-class/kasui/" }, "geometry": { "type": "Point", "coordinates": [ 137.919809900000018, 34.7796227 ] } },
{ "type": "Feature", "properties": { "内容": "ビスポーク袋井みかど【特定施設入居者生活介護（有料老人ホーム）】三門町5番地5", "url": "https://www.kaigokensaku.mhlw.go.jp/22/index.php?action_kouhyou_detail_004_kani=true&JigyosyoCd=2277300402-00&ServiceCd=331&Type=search", "url2": "http://www.be-spk.com/" }, "geometry": { "type": "Point", "coordinates": [ 137.922632199999953, 34.7430938 ] } },
{ "type": "Feature", "properties": { "内容": "アレンジメントケア裾野【特定施設入居者生活介護（有料老人ホーム）】裾野市御宿2-1アレンジメントケア裾野", "url": "https://www.kaigokensaku.mhlw.go.jp/22/index.php?action_kouhyou_detail_004_kani=true&JigyosyoCd=2271400257-00&ServiceCd=331&Type=search", "url2": "http:/www.carequality.co.jp/" }, "geometry": { "type": "Point", "coordinates": [ 138.909644500000013, 35.2042399 ] } },
{ "type": "Feature", "properties": { "内容": "ニチイホーム修善寺【特定施設入居者生活介護（有料老人ホーム）】静岡県伊豆市熊坂1255-706", "url": "https://www.kaigokensaku.mhlw.go.jp/22/index.php?action_kouhyou_detail_004_kani=true&JigyosyoCd=2270300359-00&ServiceCd=331&Type=search", "url2": "http://www.nichii-home.jp/" }, "geometry": { "type": "Point", "coordinates": [ 138.919753336709618, 34.980358999459185 ] } },
{ "type": "Feature", "properties": { "内容": "ナーシングホーム静養館【特定施設入居者生活介護（有料老人ホーム）】御前崎市門屋１７３９－１", "url": "https://www.kaigokensaku.mhlw.go.jp/22/index.php?action_kouhyou_detail_004_kani=true&JigyosyoCd=2275690036-00&ServiceCd=331&Type=search", "url2": "http://seiyoukan.co.jp" }, "geometry": { "type": "Point", "coordinates": [ 138.115619299999906, 34.6539286 ] } },
{ "type": "Feature", "properties": { "内容": "ナーシングホーム静養館御前崎オーシャンビュー【特定施設入居者生活介護（有料老人ホーム）】静岡県御前崎市御前崎32-20", "url": "https://www.kaigokensaku.mhlw.go.jp/22/index.php?action_kouhyou_detail_004_kani=true&JigyosyoCd=2275690143-00&ServiceCd=331&Type=search", "url2": "http://seiyoukan.co.jp" }, "geometry": { "type": "Point", "coordinates": [ 138.223842399999967, 34.6032379 ] } },
{ "type": "Feature", "properties": { "内容": "夢無限にらやま【特定施設入居者生活介護（有料老人ホーム）】静岡県伊豆の国市中條234-2", "url": "https://www.kaigokensaku.mhlw.go.jp/22/index.php?action_kouhyou_detail_004_kani=true&JigyosyoCd=2270800390-00&ServiceCd=331&Type=search", "url2": "http//www.yumemugen.com/" }, "geometry": { "type": "Point", "coordinates": [ 138.940591966934221, 35.042612095543795 ] } },
{ "type": "Feature", "properties": { "内容": "有料老人ホ－ム　夢無限　伊豆長岡【特定施設入居者生活介護（有料老人ホーム）】静岡県伊豆の国市長岡９９９-１", "url": "https://www.kaigokensaku.mhlw.go.jp/22/index.php?action_kouhyou_detail_004_kani=true&JigyosyoCd=2270800127-00&ServiceCd=331&Type=search", "url2": "http://yumemugen.com/nagaoka/" }, "geometry": { "type": "Point", "coordinates": [ 138.930209500000046, 35.0344902 ] } },
{ "type": "Feature", "properties": { "内容": "ライフケアガーデン熱川本館【特定施設入居者生活介護（有料老人ホーム）】静岡県賀茂郡東伊豆町白田415", "url": "https://www.kaigokensaku.mhlw.go.jp/22/index.php?action_kouhyou_detail_004_kani=true&JigyosyoCd=2270100643-00&ServiceCd=331&Type=search", "url2": "http://www.life-atagawa.jp/" }, "geometry": { "type": "Point", "coordinates": [ 139.054139299999946, 34.8066438 ] } },
{ "type": "Feature", "properties": { "内容": "ライフケアガーデン熱川別館【特定施設入居者生活介護（有料老人ホーム）】静岡県賀茂郡東伊豆町白田459", "url": "https://www.kaigokensaku.mhlw.go.jp/22/index.php?action_kouhyou_detail_004_kani=true&JigyosyoCd=2270100650-00&ServiceCd=331&Type=search", "url2": "http://www.life-atagawa.jp/" }, "geometry": { "type": "Point", "coordinates": [ 139.0536227, 34.8061549 ] } },
{ "type": "Feature", "properties": { "内容": "伊豆ヘルス・ケア特定施設入居者生活介護事業所【特定施設入居者生活介護（有料老人ホーム）】賀茂郡東伊豆町奈良本１４０５伊豆ヘルス･ケアマンション", "url": "https://www.kaigokensaku.mhlw.go.jp/22/index.php?action_kouhyou_detail_004_kani=true&JigyosyoCd=2270100155-00&ServiceCd=331&Type=search", "url2": "http://www.izu-hcm.com" }, "geometry": { "type": "Point", "coordinates": [ 139.054290760188223, 34.824186385201919 ] } },
{ "type": "Feature", "properties": { "内容": "介護付有料老人ホーム　ル・グランガーデン函南【特定施設入居者生活介護（有料老人ホーム）】静岡県田方郡函南町間宮734-3", "url": "https://www.kaigokensaku.mhlw.go.jp/22/index.php?action_kouhyou_detail_004_kani=true&JigyosyoCd=2270300987-00&ServiceCd=331&Type=search", "url2": "https://www.le-grand-gp.jp/" }, "geometry": { "type": "Point", "coordinates": [ 138.940492135581962, 35.083676139862206 ] } },
{ "type": "Feature", "properties": { "内容": "有料老人ホーム　光の家ゆりかご【特定施設入居者生活介護（有料老人ホーム）】田方郡函南町桑原1294-201", "url": "https://www.kaigokensaku.mhlw.go.jp/22/index.php?action_kouhyou_detail_004_kani=true&JigyosyoCd=2270300821-00&ServiceCd=331&Type=search", "url2": "http://.izu-yurikago.co.jp" }, "geometry": { "type": "Point", "coordinates": [ 138.983349500000031, 35.1123931 ] } },
{ "type": "Feature", "properties": { "内容": "介護付有料老人ホーム　ル・グランガーデン清水【特定施設入居者生活介護（有料老人ホーム）】静岡県駿東郡清水町徳倉１０４２－３", "url": "https://www.kaigokensaku.mhlw.go.jp/22/index.php?action_kouhyou_detail_004_kani=true&JigyosyoCd=2271300614-00&ServiceCd=331&Type=search", "url2": "https://www.le-grand-gp.jp" }, "geometry": { "type": "Point", "coordinates": [ 138.89561, 35.083803 ] } },
{ "type": "Feature", "properties": { "内容": "介護付有料老人ホーム　ル・グランガーデン長泉【特定施設入居者生活介護（有料老人ホーム）】静岡県駿東郡長泉町下長窪728-5", "url": "https://www.kaigokensaku.mhlw.go.jp/22/index.php?action_kouhyou_detail_004_kani=true&JigyosyoCd=2271301075-00&ServiceCd=331&Type=search", "url2": "https://www.le-grand-gp.jp" }, "geometry": { "type": "Point", "coordinates": [ 138.8891004, 35.1470096 ] } },
{ "type": "Feature", "properties": { "内容": "マ・メゾン花水木長泉【特定施設入居者生活介護（有料老人ホーム）】駿東郡長泉町納米里59番地1マ・メゾン花水木長泉", "url": "https://www.kaigokensaku.mhlw.go.jp/22/index.php?action_kouhyou_detail_004_kani=true&JigyosyoCd=2271300671-00&ServiceCd=331&Type=search", "url2": null }, "geometry": { "type": "Point", "coordinates": [ 138.899658, 35.1480828 ] } },
{ "type": "Feature", "properties": { "内容": "介護付き有料老人ホーム　菜の花の丘【特定施設入居者生活介護（有料老人ホーム）】竹之下321", "url": "https://www.kaigokensaku.mhlw.go.jp/22/index.php?action_kouhyou_detail_004_kani=true&JigyosyoCd=2271300804-00&ServiceCd=331&Type=search", "url2": "http://toranomon.or.jp/index/nanohana.html" }, "geometry": { "type": "Point", "coordinates": [ 138.974610753733486, 35.330874247540244 ] } }
]
}
