{
"type": "FeatureCollection",
"name": "geo_22_特定施設入居者生活介護（軽費老人ホーム）",
"crs": { "type": "name", "properties": { "name": "urn:ogc:def:crs:OGC:1.3:CRS84" } },
"features": [
{ "type": "Feature", "properties": { "内容": "ライフケア　カリタスみわ【特定施設入居者生活介護（軽費老人ホーム）】静岡市葵区内牧479-1", "url": "https://www.kaigokensaku.mhlw.go.jp/22/index.php?action_kouhyou_detail_004_kani=true&JigyosyoCd=2274200357-00&ServiceCd=332&Type=search", "url2": "https://caritas-miwa.com/" }, "geometry": { "type": "Point", "coordinates": [ 138.345992700000011, 35.0198564 ] } },
{ "type": "Feature", "properties": { "内容": "ケアハウス白寿荘【特定施設入居者生活介護（軽費老人ホーム）】静岡市駿河区小鹿二丁目25番8号ケアハウス白寿荘", "url": "https://www.kaigokensaku.mhlw.go.jp/22/index.php?action_kouhyou_detail_004_kani=true&JigyosyoCd=2274203187-00&ServiceCd=332&Type=search", "url2": "http://hakujyusou.skjk.jp" }, "geometry": { "type": "Point", "coordinates": [ 138.420581199999987, 34.9737715 ] } },
{ "type": "Feature", "properties": { "内容": "ケアハウスあんしんの里【特定施設入居者生活介護（軽費老人ホーム）】静岡県浜松市中央区安新町33番地の1", "url": "https://www.kaigokensaku.mhlw.go.jp/22/index.php?action_kouhyou_detail_004_kani=true&JigyosyoCd=2277102212-00&ServiceCd=332&Type=search", "url2": "http://www.hashoukai.jp/" }, "geometry": { "type": "Point", "coordinates": [ 137.790185244180293, 34.72544147043174 ] } },
{ "type": "Feature", "properties": { "内容": "ケアハウス花【特定施設入居者生活介護（軽費老人ホーム）】浜松市中央区大人見町３００７－１", "url": "https://www.kaigokensaku.mhlw.go.jp/22/index.php?action_kouhyou_detail_004_kani=true&JigyosyoCd=2277103806-00&ServiceCd=332&Type=search", "url2": "https://shiraume.or.jp/" }, "geometry": { "type": "Point", "coordinates": [ 137.658974799999982, 34.73970990000003 ] } },
{ "type": "Feature", "properties": { "内容": "ケアハウスやまぼうし【特定施設入居者生活介護（軽費老人ホーム）】静岡県沼津市足高251-7", "url": "https://www.kaigokensaku.mhlw.go.jp/22/index.php?action_kouhyou_detail_004_kani=true&JigyosyoCd=2271102804-00&ServiceCd=332&Type=search", "url2": "http://www.hakuyu-kai.or.jp/yamaboushi/" }, "geometry": { "type": "Point", "coordinates": [ 138.854980699999942, 35.153134500000014 ] } },
{ "type": "Feature", "properties": { "内容": "岡宮グリーンヒル【特定施設入居者生活介護（軽費老人ホーム）】沼津市岡宮1182番地の1", "url": "https://www.kaigokensaku.mhlw.go.jp/22/index.php?action_kouhyou_detail_004_kani=true&JigyosyoCd=2271101566-00&ServiceCd=332&Type=search", "url2": "http://care-net.biz/22/suruga" }, "geometry": { "type": "Point", "coordinates": [ 138.870163100000013, 35.1351593 ] } },
{ "type": "Feature", "properties": { "内容": "ケアハウス沼津南陽光園【特定施設入居者生活介護（軽費老人ホーム）】静岡県沼津市下香貫浜田2985-1沼津南陽光園", "url": "https://www.kaigokensaku.mhlw.go.jp/22/index.php?action_kouhyou_detail_004_kani=true&JigyosyoCd=2271103265-00&ServiceCd=332&Type=search", "url2": "https://hakuju-kai.com" }, "geometry": { "type": "Point", "coordinates": [ 138.870077600000059, 35.0770552 ] } },
{ "type": "Feature", "properties": { "内容": "ケアハウス　熱海伊豆海の郷【特定施設入居者生活介護（軽費老人ホーム）】熱海市伊豆山717－1", "url": "https://www.kaigokensaku.mhlw.go.jp/22/index.php?action_kouhyou_detail_004_kani=true&JigyosyoCd=2270500834-00&ServiceCd=332&Type=search", "url2": "www.s-koseikai.jp/" }, "geometry": { "type": "Point", "coordinates": [ 139.084736600000042, 35.1165021 ] } },
{ "type": "Feature", "properties": { "内容": "玉沢昭寿園【特定施設入居者生活介護（軽費老人ホーム）】玉沢９０番地", "url": "https://www.kaigokensaku.mhlw.go.jp/22/index.php?action_kouhyou_detail_004_kani=true&JigyosyoCd=2270600717-00&ServiceCd=332&Type=search", "url2": "http://www.syafuku-izu.jp/" }, "geometry": { "type": "Point", "coordinates": [ 138.9603505, 35.122636200000017 ] } },
{ "type": "Feature", "properties": { "内容": "ケアハウスかたくりの里【特定施設入居者生活介護（軽費老人ホーム）】静岡県富士宮市粟倉420番地1ケアハウスかたくりの里", "url": "https://www.kaigokensaku.mhlw.go.jp/22/index.php?action_kouhyou_detail_004_kani=true&JigyosyoCd=2272101557-00&ServiceCd=332&Type=search", "url2": "https://www.onshinkai.org/" }, "geometry": { "type": "Point", "coordinates": [ 138.649500799999942, 35.2548856 ] } },
{ "type": "Feature", "properties": { "内容": "ケアハウスにしき【特定施設入居者生活介護（軽費老人ホーム）】富士宮市錦町1番10号", "url": "https://www.kaigokensaku.mhlw.go.jp/22/index.php?action_kouhyou_detail_004_kani=true&JigyosyoCd=2272101086-00&ServiceCd=332&Type=search", "url2": "http://kinshinkai.jp/" }, "geometry": { "type": "Point", "coordinates": [ 138.613993599999958, 35.220904 ] } },
{ "type": "Feature", "properties": { "内容": "軽費老人ホームひぎり【特定施設入居者生活介護（軽費老人ホーム）】静岡県島田市島829-2", "url": "https://www.kaigokensaku.mhlw.go.jp/22/index.php?action_kouhyou_detail_004_kani=true&JigyosyoCd=2275400972-00&ServiceCd=332&Type=search", "url2": "http://www.youshoukai.or.jp" }, "geometry": { "type": "Point", "coordinates": [ 138.1226881, 34.8387179 ] } },
{ "type": "Feature", "properties": { "内容": "ケアハウス慈恩【特定施設入居者生活介護（軽費老人ホーム）】静岡県富士市五味島281", "url": "https://www.kaigokensaku.mhlw.go.jp/22/index.php?action_kouhyou_detail_004_kani=true&JigyosyoCd=2272301454-00&ServiceCd=332&Type=search", "url2": "https://gakuyoukai.or.jp" }, "geometry": { "type": "Point", "coordinates": [ 138.6551283, 35.1666551 ] } },
{ "type": "Feature", "properties": { "内容": "ケアハウスゆやの里【特定施設入居者生活介護（軽費老人ホーム）】磐田市加茂３９５番地", "url": "https://www.kaigokensaku.mhlw.go.jp/22/index.php?action_kouhyou_detail_004_kani=true&JigyosyoCd=2276900608-00&ServiceCd=332&Type=search", "url2": "http://hashoukai.or.jp" }, "geometry": { "type": "Point", "coordinates": [ 137.833239300000059, 34.7385444 ] } },
{ "type": "Feature", "properties": { "内容": "大井川睦園ケアハウス【特定施設入居者生活介護（軽費老人ホーム）】静岡県焼津市高新田2326番63", "url": "https://www.kaigokensaku.mhlw.go.jp/22/index.php?action_kouhyou_detail_004_kani=true&JigyosyoCd=2275200109-00&ServiceCd=332&Type=search", "url2": "http://www.mutumien.jp" }, "geometry": { "type": "Point", "coordinates": [ 138.312195400000064, 34.8016818 ] } },
{ "type": "Feature", "properties": { "内容": "ケアハウス　みどりの風・おかべ【特定施設入居者生活介護（軽費老人ホーム）】静岡県藤枝市岡部町内谷581-8", "url": "https://www.kaigokensaku.mhlw.go.jp/22/index.php?action_kouhyou_detail_004_kani=true&JigyosyoCd=2275301204-00&ServiceCd=332&Type=search", "url2": "http://www.e-miwasan.com" }, "geometry": { "type": "Point", "coordinates": [ 138.28212149629519, 34.912423705405303 ] } },
{ "type": "Feature", "properties": { "内容": "ケアハウス　すずらん【特定施設入居者生活介護（軽費老人ホーム）】上小林字西野原1527-19", "url": "https://www.kaigokensaku.mhlw.go.jp/22/index.php?action_kouhyou_detail_004_kani=true&JigyosyoCd=2271200541-00&ServiceCd=332&Type=search", "url2": "www.hakuyu-kai.or.jp/suzuran." }, "geometry": { "type": "Point", "coordinates": [ 138.902809700000034, 35.3435627 ] } },
{ "type": "Feature", "properties": { "内容": "富岳エメラルドパレス【特定施設入居者生活介護（軽費老人ホーム）】静岡県裾野市須山2949", "url": "https://www.kaigokensaku.mhlw.go.jp/22/index.php?action_kouhyou_detail_004_kani=true&JigyosyoCd=2271400455-00&ServiceCd=332&Type=search", "url2": "http://www.fugakukai.com" }, "geometry": { "type": "Point", "coordinates": [ 138.8608941, 35.2578856 ] } },
{ "type": "Feature", "properties": { "内容": "軽費老人ホーム　伊豆天城ハウス【特定施設入居者生活介護（軽費老人ホーム）】静岡県伊豆市湯ケ島937番地", "url": "https://www.kaigokensaku.mhlw.go.jp/22/index.php?action_kouhyou_detail_004_kani=true&JigyosyoCd=2270700285-00&ServiceCd=332&Type=search", "url2": "http://www.swc-aisei.or.jp/" }, "geometry": { "type": "Point", "coordinates": [ 138.920056929219982, 34.865173611798106 ] } },
{ "type": "Feature", "properties": { "内容": "軽費老人ホーム　富士見が丘いこいの園【特定施設入居者生活介護（軽費老人ホーム）】静岡県田方郡函南町大竹２０－１", "url": "https://www.kaigokensaku.mhlw.go.jp/22/index.php?action_kouhyou_detail_004_kani=true&JigyosyoCd=2270300995-00&ServiceCd=332&Type=search", "url2": "http://nihonminsei.jp/" }, "geometry": { "type": "Point", "coordinates": [ 138.962208868786661, 35.116424408956163 ] } }
]
}
