{
"type": "FeatureCollection",
"name": "geo_22_福祉用具貸与",
"crs": { "type": "name", "properties": { "name": "urn:ogc:def:crs:OGC:1.3:CRS84" } },
"features": [
{ "type": "Feature", "properties": { "内容": "ホームレントLLC.【福祉用具貸与】瀬名川一丁目4番20号", "url": "https://www.kaigokensaku.mhlw.go.jp/22/index.php?action_kouhyou_detail_004_kani=true&JigyosyoCd=2274209424-00&ServiceCd=170&Type=search", "url2": "https://homerentllc.wixsite.com/website1" }, "geometry": { "type": "Point", "coordinates": [ 138.424651901852457, 35.001873470869882 ] } },
{ "type": "Feature", "properties": { "内容": "株式会社りす医療器【福祉用具貸与】静岡市葵区瀬名1丁目18番23号", "url": "https://www.kaigokensaku.mhlw.go.jp/22/index.php?action_kouhyou_detail_004_kani=true&JigyosyoCd=2274205349-00&ServiceCd=170&Type=search", "url2": "http://www.risu-iryouki.com/" }, "geometry": { "type": "Point", "coordinates": [ 138.423244, 35.0143723 ] } },
{ "type": "Feature", "properties": { "内容": "株式会社たすくフィールド【福祉用具貸与】静岡市葵区一番町６７", "url": "https://www.kaigokensaku.mhlw.go.jp/22/index.php?action_kouhyou_detail_004_kani=true&JigyosyoCd=2274210299-00&ServiceCd=170&Type=search", "url2": "https://hp.kaipoke.biz/ddz/163152/index_0005.html" }, "geometry": { "type": "Point", "coordinates": [ 138.370945291401682, 34.976430484794818 ] } },
{ "type": "Feature", "properties": { "内容": "セントケアりまいん静岡【福祉用具貸与】静岡県静岡市葵区竜南1-1-36", "url": "https://www.kaigokensaku.mhlw.go.jp/22/index.php?action_kouhyou_detail_004_kani=true&JigyosyoCd=2274210638-00&ServiceCd=170&Type=search", "url2": null }, "geometry": { "type": "Point", "coordinates": [ 138.3989161, 34.9962538 ] } },
{ "type": "Feature", "properties": { "内容": "ダスキンヘルスレント静岡駿府ステーション【福祉用具貸与】千代田7丁目8-6", "url": "https://www.kaigokensaku.mhlw.go.jp/22/index.php?action_kouhyou_detail_004_kani=true&JigyosyoCd=2274208095-00&ServiceCd=170&Type=search", "url2": "http://healthrent.duskin.jp" }, "geometry": { "type": "Point", "coordinates": [ 139.3819197, 35.5613725 ] } },
{ "type": "Feature", "properties": { "内容": "アイカワ株式会社【福祉用具貸与】静岡市葵区南安倍1-3-12", "url": "https://www.kaigokensaku.mhlw.go.jp/22/index.php?action_kouhyou_detail_004_kani=true&JigyosyoCd=2274200324-00&ServiceCd=170&Type=search", "url2": "http://www.aikawakk.com/" }, "geometry": { "type": "Point", "coordinates": [ 138.376293900000064, 34.9630135 ] } },
{ "type": "Feature", "properties": { "内容": "合同会社介護ショップゆう【福祉用具貸与】静岡県静岡市葵区千代一丁目11-19", "url": "https://www.kaigokensaku.mhlw.go.jp/22/index.php?action_kouhyou_detail_004_kani=true&JigyosyoCd=2274209291-00&ServiceCd=170&Type=search", "url2": "http://hp.kaipoke.biz/62a/" }, "geometry": { "type": "Point", "coordinates": [ 138.350462500000049, 34.9798363 ] } },
{ "type": "Feature", "properties": { "内容": "有限会社　岩本薬局　福祉用具事業部【福祉用具貸与】静岡市葵区巴町６０", "url": "https://www.kaigokensaku.mhlw.go.jp/22/index.php?action_kouhyou_detail_004_kani=true&JigyosyoCd=2244110165-00&ServiceCd=170&Type=search", "url2": "http://iwamotoyakkyoku.jp/" }, "geometry": { "type": "Point", "coordinates": [ 138.394408200000044, 34.9851055 ] } },
{ "type": "Feature", "properties": { "内容": "フランスベッド株式会社　メディカル静岡営業所【福祉用具貸与】静岡県静岡市葵区流通センター10-4", "url": "https://www.kaigokensaku.mhlw.go.jp/22/index.php?action_kouhyou_detail_004_kani=true&JigyosyoCd=2274100250-00&ServiceCd=170&Type=search", "url2": "https://www.francebed.co.jp/" }, "geometry": { "type": "Point", "coordinates": [ 138.405316168106083, 35.016488709542273 ] } },
{ "type": "Feature", "properties": { "内容": "ケア・フリ－静岡【福祉用具貸与】静岡市葵区沓谷5-2-1", "url": "https://www.kaigokensaku.mhlw.go.jp/22/index.php?action_kouhyou_detail_004_kani=true&JigyosyoCd=2274100375-00&ServiceCd=170&Type=search", "url2": "https://www.care-free.co.jp/" }, "geometry": { "type": "Point", "coordinates": [ 138.407495599999947, 34.995388 ] } },
{ "type": "Feature", "properties": { "内容": "メディカルエンジニアリング有限会社【福祉用具貸与】北安東四丁目22番5号", "url": "https://www.kaigokensaku.mhlw.go.jp/22/index.php?action_kouhyou_detail_004_kani=true&JigyosyoCd=2274100573-00&ServiceCd=170&Type=search", "url2": "https://medical-eng.jp" }, "geometry": { "type": "Point", "coordinates": [ 138.387947199999985, 35.0041752 ] } },
{ "type": "Feature", "properties": { "内容": "有限会社エヌ・アール　介護ショップ猫の手【福祉用具貸与】静岡県静岡市葵区新伝馬1-1-17", "url": "https://www.kaigokensaku.mhlw.go.jp/22/index.php?action_kouhyou_detail_004_kani=true&JigyosyoCd=2274100995-00&ServiceCd=170&Type=search", "url2": "http://nttbj.itp.ne.jp/08002000121/index.html" }, "geometry": { "type": "Point", "coordinates": [ 138.36234989999997, 34.992631899999985 ] } },
{ "type": "Feature", "properties": { "内容": "介護ショップアルファケアプラン【福祉用具貸与】静岡市葵区緑町1番5号", "url": "https://www.kaigokensaku.mhlw.go.jp/22/index.php?action_kouhyou_detail_004_kani=true&JigyosyoCd=2274201041-00&ServiceCd=170&Type=search", "url2": null }, "geometry": { "type": "Point", "coordinates": [ 138.391883399999983, 34.9861719 ] } },
{ "type": "Feature", "properties": { "内容": "株式会社スズキ自販静岡【福祉用具貸与】静岡県静岡市葵区古庄2丁目20番35号", "url": "https://www.kaigokensaku.mhlw.go.jp/22/index.php?action_kouhyou_detail_004_kani=true&JigyosyoCd=2274201173-00&ServiceCd=170&Type=search", "url2": "https://www.suzuki.co.jp/dealer/sj-shizuoka/" }, "geometry": { "type": "Point", "coordinates": [ 138.423641500000031, 34.9946968 ] } },
{ "type": "Feature", "properties": { "内容": "ひかり介護サービス【福祉用具貸与】静岡市葵区城東町３５－１", "url": "https://www.kaigokensaku.mhlw.go.jp/22/index.php?action_kouhyou_detail_004_kani=true&JigyosyoCd=2274201851-00&ServiceCd=170&Type=search", "url2": null }, "geometry": { "type": "Point", "coordinates": [ 138.390494699999977, 34.9846054 ] } },
{ "type": "Feature", "properties": { "内容": "ベルメディカルケア株式会社　葵の森営業所【福祉用具貸与】柳町193-1", "url": "https://www.kaigokensaku.mhlw.go.jp/22/index.php?action_kouhyou_detail_004_kani=true&JigyosyoCd=2274206784-00&ServiceCd=170&Type=search", "url2": "http://www.bellmc.co.jp/" }, "geometry": { "type": "Point", "coordinates": [ 138.3633112, 34.979431 ] } },
{ "type": "Feature", "properties": { "内容": "サンケアこまがた【福祉用具貸与】静岡県静岡市葵区駒形通6丁目6番6号", "url": "https://www.kaigokensaku.mhlw.go.jp/22/index.php?action_kouhyou_detail_004_kani=true&JigyosyoCd=2274210646-00&ServiceCd=170&Type=search", "url2": "http://www.mediesta.co.jp" }, "geometry": { "type": "Point", "coordinates": [ 138.374596, 34.9628918 ] } },
{ "type": "Feature", "properties": { "内容": "株式会社スマイルリンク【福祉用具貸与】静岡県静岡市葵区上土２丁目１７番１６号", "url": "https://www.kaigokensaku.mhlw.go.jp/22/index.php?action_kouhyou_detail_004_kani=true&JigyosyoCd=2274205273-00&ServiceCd=170&Type=search", "url2": "http://smilelink.co.jp" }, "geometry": { "type": "Point", "coordinates": [ 138.409902975129739, 35.005435591166645 ] } },
{ "type": "Feature", "properties": { "内容": "ライフレビュー　たのみあん【福祉用具貸与】静岡県静岡市駿河区稲川2-3-132F", "url": "https://www.kaigokensaku.mhlw.go.jp/22/index.php?action_kouhyou_detail_004_kani=true&JigyosyoCd=2274209275-00&ServiceCd=170&Type=search", "url2": null }, "geometry": { "type": "Point", "coordinates": [ 138.393736600000011, 34.9686935 ] } },
{ "type": "Feature", "properties": { "内容": "株式会社ミカサ【福祉用具貸与】静岡市駿河区東新田94", "url": "https://www.kaigokensaku.mhlw.go.jp/22/index.php?action_kouhyou_detail_004_kani=true&JigyosyoCd=2274101472-00&ServiceCd=170&Type=search", "url2": "http://www.mikasa-kun.com/" }, "geometry": { "type": "Point", "coordinates": [ 138.369785017196619, 34.951996439391309 ] } },
{ "type": "Feature", "properties": { "内容": "介護デザイン　ライム【福祉用具貸与】静岡市駿河区登呂四丁目20-20105", "url": "https://www.kaigokensaku.mhlw.go.jp/22/index.php?action_kouhyou_detail_004_kani=true&JigyosyoCd=2274203922-00&ServiceCd=170&Type=search", "url2": "https://limeone.co.jp/" }, "geometry": { "type": "Point", "coordinates": [ 138.412020313552802, 34.956837593118408 ] } },
{ "type": "Feature", "properties": { "内容": "有限会社こころ【福祉用具貸与】西脇1225番地1", "url": "https://www.kaigokensaku.mhlw.go.jp/22/index.php?action_kouhyou_detail_004_kani=true&JigyosyoCd=2274200506-00&ServiceCd=170&Type=search", "url2": null }, "geometry": { "type": "Point", "coordinates": [ 138.39862549999998, 34.9520511 ] } },
{ "type": "Feature", "properties": { "内容": "JN福祉サービス【福祉用具貸与】静岡県静岡市駿河区みずほ3丁目10番地3", "url": "https://www.kaigokensaku.mhlw.go.jp/22/index.php?action_kouhyou_detail_004_kani=true&JigyosyoCd=2274211016-00&ServiceCd=170&Type=search", "url2": "https://www.jn-shizuoka.site/" }, "geometry": { "type": "Point", "coordinates": [ 138.368312300000014, 34.9363031 ] } },
{ "type": "Feature", "properties": { "内容": "株式会社セリオ　静岡営業所【福祉用具貸与】静岡市駿河区下島130-2", "url": "https://www.kaigokensaku.mhlw.go.jp/22/index.php?action_kouhyou_detail_004_kani=true&JigyosyoCd=2274200381-00&ServiceCd=170&Type=search", "url2": "https://serio888.net/" }, "geometry": { "type": "Point", "coordinates": [ 138.408512283539238, 34.950157465893327 ] } },
{ "type": "Feature", "properties": { "内容": "協和医科器械株式会社　静岡支店【福祉用具貸与】静岡県静岡市駿河区池田156-2", "url": "https://www.kaigokensaku.mhlw.go.jp/22/index.php?action_kouhyou_detail_004_kani=true&JigyosyoCd=2274100243-00&ServiceCd=170&Type=search", "url2": "https://www.kyowaika.co.jp" }, "geometry": { "type": "Point", "coordinates": [ 138.42186911954073, 34.986616894417487 ] } },
{ "type": "Feature", "properties": { "内容": "アクタガワ　ぺんぎんショップ【福祉用具貸与】静岡市駿河区馬渕1-8-1", "url": "https://www.kaigokensaku.mhlw.go.jp/22/index.php?action_kouhyou_detail_004_kani=true&JigyosyoCd=2274100276-00&ServiceCd=170&Type=search", "url2": "https://www.akutagawa-heartlife.jp" }, "geometry": { "type": "Point", "coordinates": [ 138.38422909999997, 34.9686406 ] } },
{ "type": "Feature", "properties": { "内容": "株式会社ヤマシタ静岡営業所【福祉用具貸与】静岡市駿河区登呂5-6-17", "url": "https://www.kaigokensaku.mhlw.go.jp/22/index.php?action_kouhyou_detail_004_kani=true&JigyosyoCd=2274100300-00&ServiceCd=170&Type=search", "url2": "https://www.yco.co.jp/" }, "geometry": { "type": "Point", "coordinates": [ 138.406023896278413, 34.956672993232203 ] } },
{ "type": "Feature", "properties": { "内容": "介護ショップ　ダイワ【福祉用具貸与】静岡市駿河区小鹿一丁目53番11号", "url": "https://www.kaigokensaku.mhlw.go.jp/22/index.php?action_kouhyou_detail_004_kani=true&JigyosyoCd=2274100623-00&ServiceCd=170&Type=search", "url2": null }, "geometry": { "type": "Point", "coordinates": [ 138.421195, 34.9758796 ] } },
{ "type": "Feature", "properties": { "内容": "（株）八神製作所　ヤガミホームヘルスセンター静岡【福祉用具貸与】静岡市駿河区国吉田1丁目10-20", "url": "https://www.kaigokensaku.mhlw.go.jp/22/index.php?action_kouhyou_detail_004_kani=true&JigyosyoCd=2274100979-00&ServiceCd=170&Type=search", "url2": "https://www.yagami.co.jp/yhhc/" }, "geometry": { "type": "Point", "coordinates": [ 138.427464929206991, 35.000648790430382 ] } },
{ "type": "Feature", "properties": { "内容": "株式会社トーカイ　静岡支店【福祉用具貸与】静岡市駿河区宮竹一丁目4番26号", "url": "https://www.kaigokensaku.mhlw.go.jp/22/index.php?action_kouhyou_detail_004_kani=true&JigyosyoCd=2274203161-00&ServiceCd=170&Type=search", "url2": "https://www.tokai-corp.com/" }, "geometry": { "type": "Point", "coordinates": [ 138.414501288592646, 34.953102257887124 ] } },
{ "type": "Feature", "properties": { "内容": "まごころ介護サービス　レンタル事業部【福祉用具貸与】静岡市駿河区弥生町4-26まごころタウン静岡1F", "url": "https://www.kaigokensaku.mhlw.go.jp/22/index.php?action_kouhyou_detail_004_kani=true&JigyosyoCd=2274203518-00&ServiceCd=170&Type=search", "url2": "http://magokorokaigo.com" }, "geometry": { "type": "Point", "coordinates": [ 138.43659, 35.004146 ] } },
{ "type": "Feature", "properties": { "内容": "曲金フィット【福祉用具貸与】静岡県静岡市駿河区曲金6丁目13-14", "url": "https://www.kaigokensaku.mhlw.go.jp/22/index.php?action_kouhyou_detail_004_kani=true&JigyosyoCd=2274204193-00&ServiceCd=170&Type=search", "url2": "http://magarikane.web.fc2.com/" }, "geometry": { "type": "Point", "coordinates": [ 138.411999016146893, 34.981839227806674 ] } },
{ "type": "Feature", "properties": { "内容": "株式会社イノベイションオブメディカルサービス　静岡営業所【福祉用具貸与】静岡市駿河区高松1-6-5", "url": "https://www.kaigokensaku.mhlw.go.jp/22/index.php?action_kouhyou_detail_004_kani=true&JigyosyoCd=2274204904-00&ServiceCd=170&Type=search", "url2": "http://www.ims-inc.co.jp/" }, "geometry": { "type": "Point", "coordinates": [ 138.41776518945926, 34.956138433159779 ] } },
{ "type": "Feature", "properties": { "内容": "あいトレ福祉用具サービス【福祉用具貸与】静岡県静岡市駿河区新川2-6-6-2あいネットビル2F", "url": "https://www.kaigokensaku.mhlw.go.jp/22/index.php?action_kouhyou_detail_004_kani=true&JigyosyoCd=2274210141-00&ServiceCd=170&Type=search", "url2": "http://aitore.life/" }, "geometry": { "type": "Point", "coordinates": [ 138.384365799999983, 34.9619292 ] } },
{ "type": "Feature", "properties": { "内容": "株式会社フロンティア静岡中央営業所【福祉用具貸与】静岡市駿河区八幡２丁目2-12八幡ビル", "url": "https://www.kaigokensaku.mhlw.go.jp/22/index.php?action_kouhyou_detail_004_kani=true&JigyosyoCd=2274210448-00&ServiceCd=170&Type=search", "url2": "https://www.frontier-ph.com/" }, "geometry": { "type": "Point", "coordinates": [ 138.3948614, 34.9695868 ] } },
{ "type": "Feature", "properties": { "内容": "あーす介護ショップ静岡【福祉用具貸与】静岡県静岡市駿河区登呂5丁目2-44", "url": "https://www.kaigokensaku.mhlw.go.jp/22/index.php?action_kouhyou_detail_004_kani=true&JigyosyoCd=2274210778-00&ServiceCd=170&Type=search", "url2": "https://earth-kaigoshop.com/" }, "geometry": { "type": "Point", "coordinates": [ 138.4071921, 34.9525735 ] } },
{ "type": "Feature", "properties": { "内容": "株式会社トマト　シルバーショップ雅【福祉用具貸与】静岡市清水区渋川1-6-20", "url": "https://www.kaigokensaku.mhlw.go.jp/22/index.php?action_kouhyou_detail_004_kani=true&JigyosyoCd=2273200127-00&ServiceCd=170&Type=search", "url2": "http://www.tomato-miyabi.co.jp" }, "geometry": { "type": "Point", "coordinates": [ 138.4699597, 35.0217256 ] } },
{ "type": "Feature", "properties": { "内容": "プラスワンケアサービス【福祉用具貸与】静岡県静岡市清水区楠５１０－１マノワールA102号", "url": "https://www.kaigokensaku.mhlw.go.jp/22/index.php?action_kouhyou_detail_004_kani=true&JigyosyoCd=2274207295-00&ServiceCd=170&Type=search", "url2": null }, "geometry": { "type": "Point", "coordinates": [ 138.440580047031062, 35.009455922104522 ] } },
{ "type": "Feature", "properties": { "内容": "バディ【福祉用具貸与】静岡県静岡市清水区駒越東町２番５５号", "url": "https://www.kaigokensaku.mhlw.go.jp/22/index.php?action_kouhyou_detail_004_kani=true&JigyosyoCd=2274211156-00&ServiceCd=170&Type=search", "url2": null }, "geometry": { "type": "Point", "coordinates": [ 138.5017932, 34.9824009 ] } },
{ "type": "Feature", "properties": { "内容": "株式会社日本ケアサービス【福祉用具貸与】静岡市清水区南矢部565番地の3", "url": "https://www.kaigokensaku.mhlw.go.jp/22/index.php?action_kouhyou_detail_004_kani=true&JigyosyoCd=2273200119-00&ServiceCd=170&Type=search", "url2": null }, "geometry": { "type": "Point", "coordinates": [ 138.475040400000012, 34.9985284 ] } },
{ "type": "Feature", "properties": { "内容": "ケアショップ　銀のすず【福祉用具貸与】静岡市清水区永楽町１４－３３", "url": "https://www.kaigokensaku.mhlw.go.jp/22/index.php?action_kouhyou_detail_004_kani=true&JigyosyoCd=2274201801-00&ServiceCd=170&Type=search", "url2": null }, "geometry": { "type": "Point", "coordinates": [ 138.473673100000042, 35.0244726 ] } },
{ "type": "Feature", "properties": { "内容": "ベルメディカルケア株式会社　静岡営業所【福祉用具貸与】静岡県静岡市清水区松原町5番22号", "url": "https://www.kaigokensaku.mhlw.go.jp/22/index.php?action_kouhyou_detail_004_kani=true&JigyosyoCd=2274205174-00&ServiceCd=170&Type=search", "url2": "http://www.bellmc.co.jp/" }, "geometry": { "type": "Point", "coordinates": [ 138.490466908378608, 35.011585999545254 ] } },
{ "type": "Feature", "properties": { "内容": "パナソニックシエイジフリーショップ静清【福祉用具貸与】静岡県静岡市清水区青葉町3-1", "url": "https://www.kaigokensaku.mhlw.go.jp/22/index.php?action_kouhyou_detail_004_kani=true&JigyosyoCd=2274211305-00&ServiceCd=170&Type=search", "url2": "https://sumai.panasonic.jp/agefree/shop/" }, "geometry": { "type": "Point", "coordinates": [ 138.4750166, 35.0099534 ] } },
{ "type": "Feature", "properties": { "内容": "有限会社山三商事【福祉用具貸与】浜松市中区高丘西三丁目４１－２９", "url": "https://www.kaigokensaku.mhlw.go.jp/22/index.php?action_kouhyou_detail_004_kani=true&JigyosyoCd=2277100703-00&ServiceCd=170&Type=search", "url2": null }, "geometry": { "type": "Point", "coordinates": [ 137.696498799999972, 34.7622165 ] } },
{ "type": "Feature", "properties": { "内容": "株式会社　メディカルジャパン【福祉用具貸与】神立町118-5", "url": "https://www.kaigokensaku.mhlw.go.jp/22/index.php?action_kouhyou_detail_004_kani=true&JigyosyoCd=2277201204-00&ServiceCd=170&Type=search", "url2": "http://www.medicaljapan.biz/" }, "geometry": { "type": "Point", "coordinates": [ 137.7548435, 34.7178204 ] } },
{ "type": "Feature", "properties": { "内容": "介護用具貸出サービスセンター【福祉用具貸与】静岡県浜松市中区葵西4丁目14-17コーポ葵10号", "url": "https://www.kaigokensaku.mhlw.go.jp/22/index.php?action_kouhyou_detail_004_kani=true&JigyosyoCd=2277206039-00&ServiceCd=170&Type=search", "url2": null }, "geometry": { "type": "Point", "coordinates": [ 137.7057711, 34.7720313 ] } },
{ "type": "Feature", "properties": { "内容": "カナン福祉用具【福祉用具貸与】静岡県浜松市中区曳馬3-39-22", "url": "https://www.kaigokensaku.mhlw.go.jp/22/index.php?action_kouhyou_detail_004_kani=true&JigyosyoCd=2277206047-00&ServiceCd=170&Type=search", "url2": null }, "geometry": { "type": "Point", "coordinates": [ 137.7457997, 34.7279953 ] } },
{ "type": "Feature", "properties": { "内容": "イトウレント【福祉用具貸与】静岡県浜松市南区中田島町1009-1", "url": "https://www.kaigokensaku.mhlw.go.jp/22/index.php?action_kouhyou_detail_004_kani=true&JigyosyoCd=2277206203-00&ServiceCd=170&Type=search", "url2": null }, "geometry": { "type": "Point", "coordinates": [ 137.7407705, 34.6689275 ] } },
{ "type": "Feature", "properties": { "内容": "株式会社スズキ自販浜松【福祉用具貸与】浜松市西区篠原町21339", "url": "https://www.kaigokensaku.mhlw.go.jp/22/index.php?action_kouhyou_detail_004_kani=true&JigyosyoCd=2277101024-00&ServiceCd=170&Type=search", "url2": "http:www.sj-hamamatsu.jp/" }, "geometry": { "type": "Point", "coordinates": [ 137.668312499999956, 34.6811509 ] } },
{ "type": "Feature", "properties": { "内容": "協和医科器械株式会社浜松支店【福祉用具貸与】浜松市中央区篠ヶ瀬町４００", "url": "https://www.kaigokensaku.mhlw.go.jp/22/index.php?action_kouhyou_detail_004_kani=true&JigyosyoCd=2277100471-00&ServiceCd=170&Type=search", "url2": "http://www.kyowaika.jp" }, "geometry": { "type": "Point", "coordinates": [ 137.774733, 34.7299506 ] } },
{ "type": "Feature", "properties": { "内容": "株式会社セリオ浜松営業所【福祉用具貸与】静岡県浜松市中央区東三方町258-1", "url": "https://www.kaigokensaku.mhlw.go.jp/22/index.php?action_kouhyou_detail_004_kani=true&JigyosyoCd=2277100695-00&ServiceCd=170&Type=search", "url2": "http://serio888.net/" }, "geometry": { "type": "Point", "coordinates": [ 137.726822225852942, 34.780695467264728 ] } },
{ "type": "Feature", "properties": { "内容": "株式会社　ファイン【福祉用具貸与】静岡県浜松市中央区葵西　5-22-5", "url": "https://www.kaigokensaku.mhlw.go.jp/22/index.php?action_kouhyou_detail_004_kani=true&JigyosyoCd=2277201253-00&ServiceCd=170&Type=search", "url2": null }, "geometry": { "type": "Point", "coordinates": [ 137.704469637114755, 34.777810445622393 ] } },
{ "type": "Feature", "properties": { "内容": "有限会社アシストシステム【福祉用具貸与】静岡県浜松市中央区高丘西3丁目56-6", "url": "https://www.kaigokensaku.mhlw.go.jp/22/index.php?action_kouhyou_detail_004_kani=true&JigyosyoCd=2277102493-00&ServiceCd=170&Type=search", "url2": "http://www.assist-system.jp/" }, "geometry": { "type": "Point", "coordinates": [ 137.696686064326542, 34.762532080415021 ] } },
{ "type": "Feature", "properties": { "内容": "すみれ福祉用具サービス【福祉用具貸与】篠原町3967-1", "url": "https://www.kaigokensaku.mhlw.go.jp/22/index.php?action_kouhyou_detail_004_kani=true&JigyosyoCd=2277100034-00&ServiceCd=170&Type=search", "url2": null }, "geometry": { "type": "Point", "coordinates": [ 137.6621573, 34.685753 ] } },
{ "type": "Feature", "properties": { "内容": "株式会社WELLACTIVE元気サポート浜松【福祉用具貸与】静岡県浜松市中区細島町5番地2ヒジネスパーク細島1号", "url": "https://www.kaigokensaku.mhlw.go.jp/22/index.php?action_kouhyou_detail_004_kani=true&JigyosyoCd=2277203440-00&ServiceCd=170&Type=search", "url2": "http://wellactive.noor.jp/" }, "geometry": { "type": "Point", "coordinates": [ 137.750610199999983, 34.7225586 ] } },
{ "type": "Feature", "properties": { "内容": "株式会社レンティック中部介護ショップちゅーぶ浜松西【福祉用具貸与】静岡県浜松市中央区高丘北2-14-5", "url": "https://www.kaigokensaku.mhlw.go.jp/22/index.php?action_kouhyou_detail_004_kani=true&JigyosyoCd=2277206732-00&ServiceCd=170&Type=search", "url2": "http://www.rentic-chubu.co.jp" }, "geometry": { "type": "Point", "coordinates": [ 137.7018306, 34.762849 ] } },
{ "type": "Feature", "properties": { "内容": "はまとく【福祉用具貸与】浜松市中区曳馬3丁目13-12", "url": "https://www.kaigokensaku.mhlw.go.jp/22/index.php?action_kouhyou_detail_004_kani=true&JigyosyoCd=2277100836-00&ServiceCd=170&Type=search", "url2": "http://www.hamatoku.net/" }, "geometry": { "type": "Point", "coordinates": [ 137.743212978668197, 34.727253264521856 ] } },
{ "type": "Feature", "properties": { "内容": "ベルメディカルケア株式会社　浜松営業所【福祉用具貸与】静岡県浜松市中央区将監町19-1", "url": "https://www.kaigokensaku.mhlw.go.jp/22/index.php?action_kouhyou_detail_004_kani=true&JigyosyoCd=2277202681-00&ServiceCd=170&Type=search", "url2": "http://www.bellmc.co.jp/" }, "geometry": { "type": "Point", "coordinates": [ 137.755413, 34.7138347 ] } },
{ "type": "Feature", "properties": { "内容": "浜松ケアステーション株式会社【福祉用具貸与】浜松市中央区佐鳴台四丁目37番35号", "url": "https://www.kaigokensaku.mhlw.go.jp/22/index.php?action_kouhyou_detail_004_kani=true&JigyosyoCd=2277100026-00&ServiceCd=170&Type=search", "url2": null }, "geometry": { "type": "Point", "coordinates": [ 137.700172299999963, 34.7116396 ] } },
{ "type": "Feature", "properties": { "内容": "介護ショップ　あいの手【福祉用具貸与】静岡県浜松市中央区葵西5-19-41", "url": "https://www.kaigokensaku.mhlw.go.jp/22/index.php?action_kouhyou_detail_004_kani=true&JigyosyoCd=2277103707-00&ServiceCd=170&Type=search", "url2": null }, "geometry": { "type": "Point", "coordinates": [ 137.70210178292848, 34.774711798889918 ] } },
{ "type": "Feature", "properties": { "内容": "やまとメディカル【福祉用具貸与】静岡県浜松市中区高丘西二丁目３２－３０シャトー高丘サービス付き高齢者向け住宅", "url": "https://www.kaigokensaku.mhlw.go.jp/22/index.php?action_kouhyou_detail_004_kani=true&JigyosyoCd=2277203861-00&ServiceCd=170&Type=search", "url2": "http://www.kotou-wakeikai.com" }, "geometry": { "type": "Point", "coordinates": [ 137.699892800000043, 34.7598864 ] } },
{ "type": "Feature", "properties": { "内容": "セントケアりまいん浜松【福祉用具貸与】鴨江3-73-23", "url": "https://www.kaigokensaku.mhlw.go.jp/22/index.php?action_kouhyou_detail_004_kani=true&JigyosyoCd=2277206427-00&ServiceCd=170&Type=search", "url2": "https://www.saint-care.com/center/4668/" }, "geometry": { "type": "Point", "coordinates": [ 137.7087414, 34.7075095 ] } },
{ "type": "Feature", "properties": { "内容": "歩メディケアセンター【福祉用具貸与】静岡県浜松市中央区中野町２４５４", "url": "https://www.kaigokensaku.mhlw.go.jp/22/index.php?action_kouhyou_detail_004_kani=true&JigyosyoCd=2277200545-00&ServiceCd=170&Type=search", "url2": null }, "geometry": { "type": "Point", "coordinates": [ 137.798419100000046, 34.732712800000023 ] } },
{ "type": "Feature", "properties": { "内容": "福祉用具みちしるべ【福祉用具貸与】静岡県浜松市中央区幸四丁目6番8号", "url": "https://www.kaigokensaku.mhlw.go.jp/22/index.php?action_kouhyou_detail_004_kani=true&JigyosyoCd=2277206880-00&ServiceCd=170&Type=search", "url2": null }, "geometry": { "type": "Point", "coordinates": [ 137.7270432, 34.7463702 ] } },
{ "type": "Feature", "properties": { "内容": "株式会社　ヤマシタ　浜松営業所【福祉用具貸与】静岡県浜松市中央区北島町520", "url": "https://www.kaigokensaku.mhlw.go.jp/22/index.php?action_kouhyou_detail_004_kani=true&JigyosyoCd=2277100380-00&ServiceCd=170&Type=search", "url2": "https://www.yco.co.jp/" }, "geometry": { "type": "Point", "coordinates": [ 137.78124349999996, 34.7310592 ] } },
{ "type": "Feature", "properties": { "内容": "パナソニックエイジフリーショップ浜松東【福祉用具貸与】三島町1529", "url": "https://www.kaigokensaku.mhlw.go.jp/22/index.php?action_kouhyou_detail_004_kani=true&JigyosyoCd=2277201428-00&ServiceCd=170&Type=search", "url2": "plaisir-japan.jp" }, "geometry": { "type": "Point", "coordinates": [ 137.752149700000018, 34.6906461 ] } },
{ "type": "Feature", "properties": { "内容": "すまいとかいご【福祉用具貸与】静岡県浜松市中央区中島1-3-12", "url": "https://www.kaigokensaku.mhlw.go.jp/22/index.php?action_kouhyou_detail_004_kani=true&JigyosyoCd=2277205833-00&ServiceCd=170&Type=search", "url2": null }, "geometry": { "type": "Point", "coordinates": [ 137.744984501113009, 34.705524636318472 ] } },
{ "type": "Feature", "properties": { "内容": "株式会社レンティック中部介護ショップちゅーぶ【福祉用具貸与】浜松市中区高林5丁目7-13", "url": "https://www.kaigokensaku.mhlw.go.jp/22/index.php?action_kouhyou_detail_004_kani=true&JigyosyoCd=2277100430-00&ServiceCd=170&Type=search", "url2": "http://www.rentic-chubu.co.jp" }, "geometry": { "type": "Point", "coordinates": [ 137.736151899999982, 34.7346766 ] } },
{ "type": "Feature", "properties": { "内容": "株式会社　マストレメディカル【福祉用具貸与】浜松市中央区有玉南町２３６５", "url": "https://www.kaigokensaku.mhlw.go.jp/22/index.php?action_kouhyou_detail_004_kani=true&JigyosyoCd=2277100547-00&ServiceCd=170&Type=search", "url2": "http://www.masutore.co.jp" }, "geometry": { "type": "Point", "coordinates": [ 137.746534, 34.747567 ] } },
{ "type": "Feature", "properties": { "内容": "聖隷コミュニティケアセンター【福祉用具貸与】浜松市中区高丘西1-17-23", "url": "https://www.kaigokensaku.mhlw.go.jp/22/index.php?action_kouhyou_detail_004_kani=true&JigyosyoCd=2277100679-00&ServiceCd=170&Type=search", "url2": "www.seirei.or.jp/hq/facility/home/tools/seirei/index.html" }, "geometry": { "type": "Point", "coordinates": [ 137.701631600000042, 34.7578229 ] } },
{ "type": "Feature", "properties": { "内容": "レンタルテラスAnge【福祉用具貸与】萩丘五丁目８番16号", "url": "https://www.kaigokensaku.mhlw.go.jp/22/index.php?action_kouhyou_detail_004_kani=true&JigyosyoCd=2277203283-00&ServiceCd=170&Type=search", "url2": "http://hp.kaipoke.biz/uxe/" }, "geometry": { "type": "Point", "coordinates": [ 137.734509068786565, 34.752634650284129 ] } },
{ "type": "Feature", "properties": { "内容": "株式会社イノベイションオブメディカルサービス　浜松営業所【福祉用具貸与】静岡県浜松市中央区飯田町742", "url": "https://www.kaigokensaku.mhlw.go.jp/22/index.php?action_kouhyou_detail_004_kani=true&JigyosyoCd=2277206062-00&ServiceCd=170&Type=search", "url2": "http://www.ims-inc.co.jp/" }, "geometry": { "type": "Point", "coordinates": [ 137.7708501, 34.7079515 ] } },
{ "type": "Feature", "properties": { "内容": "ヤガミホ－ムヘルスセンタ－浜松【福祉用具貸与】静岡県浜松市中央区高丘北2丁目15番6号", "url": "https://www.kaigokensaku.mhlw.go.jp/22/index.php?action_kouhyou_detail_004_kani=true&JigyosyoCd=2277100190-00&ServiceCd=170&Type=search", "url2": "http://www.yagami.co.jp/yhhc/" }, "geometry": { "type": "Point", "coordinates": [ 137.7019479, 34.7632565 ] } },
{ "type": "Feature", "properties": { "内容": "株式会社トーカイ　浜松支店【福祉用具貸与】浜松市中央区高丘西３丁目４５番２３号", "url": "https://www.kaigokensaku.mhlw.go.jp/22/index.php?action_kouhyou_detail_004_kani=true&JigyosyoCd=2277100448-00&ServiceCd=170&Type=search", "url2": "https://www.tokai-corp.com/" }, "geometry": { "type": "Point", "coordinates": [ 137.698762961762299, 34.761127918562288 ] } },
{ "type": "Feature", "properties": { "内容": "エコワークス　浜松営業所【福祉用具貸与】浜松市中央区大人見町3374-1", "url": "https://www.kaigokensaku.mhlw.go.jp/22/index.php?action_kouhyou_detail_004_kani=true&JigyosyoCd=2277100984-00&ServiceCd=170&Type=search", "url2": "eco-kaigo.com" }, "geometry": { "type": "Point", "coordinates": [ 137.658584130783083, 34.733747587898549 ] } },
{ "type": "Feature", "properties": { "内容": "介護ショップサカグチ【福祉用具貸与】静岡県浜松市中央区中山町4番地", "url": "https://www.kaigokensaku.mhlw.go.jp/22/index.php?action_kouhyou_detail_004_kani=true&JigyosyoCd=2277100562-00&ServiceCd=170&Type=search", "url2": null }, "geometry": { "type": "Point", "coordinates": [ 137.724387299999989, 34.7054904 ] } },
{ "type": "Feature", "properties": { "内容": "RH福祉用具センター【福祉用具貸与】静岡県浜松市中区文丘町29-40", "url": "https://www.kaigokensaku.mhlw.go.jp/22/index.php?action_kouhyou_detail_004_kani=true&JigyosyoCd=2277206187-00&ServiceCd=170&Type=search", "url2": null }, "geometry": { "type": "Point", "coordinates": [ 137.715026599999987, 34.7272799 ] } },
{ "type": "Feature", "properties": { "内容": "フランスベッド株式会社　メディカル浜松営業所【福祉用具貸与】浜松市中央区安新町286-4", "url": "https://www.kaigokensaku.mhlw.go.jp/22/index.php?action_kouhyou_detail_004_kani=true&JigyosyoCd=2277101503-00&ServiceCd=170&Type=search", "url2": "http://www.francebed.co.jp" }, "geometry": { "type": "Point", "coordinates": [ 137.788119923278828, 34.731495963026902 ] } },
{ "type": "Feature", "properties": { "内容": "ホームケアいおり【福祉用具貸与】都田町16-5", "url": "https://www.kaigokensaku.mhlw.go.jp/22/index.php?action_kouhyou_detail_004_kani=true&JigyosyoCd=2277100125-00&ServiceCd=170&Type=search", "url2": "http://www.jihian.or.jp" }, "geometry": { "type": "Point", "coordinates": [ 137.714495100000022, 34.8100386 ] } },
{ "type": "Feature", "properties": { "内容": "有限会社ケアテック浜松【福祉用具貸与】浜松市浜北区宮口3774-1-1", "url": "https://www.kaigokensaku.mhlw.go.jp/22/index.php?action_kouhyou_detail_004_kani=true&JigyosyoCd=2277100398-00&ServiceCd=170&Type=search", "url2": "caretechamamatsu.com/" }, "geometry": { "type": "Point", "coordinates": [ 137.769349660120241, 34.818833299553525 ] } },
{ "type": "Feature", "properties": { "内容": "株式会社　まんてん【福祉用具貸与】浜松市浜名区於呂3959-1", "url": "https://www.kaigokensaku.mhlw.go.jp/22/index.php?action_kouhyou_detail_004_kani=true&JigyosyoCd=2277103699-00&ServiceCd=170&Type=search", "url2": null }, "geometry": { "type": "Point", "coordinates": [ 137.805763599999977, 34.8475938 ] } },
{ "type": "Feature", "properties": { "内容": "天竜厚生会介護福祉機器センター【福祉用具貸与】浜松市浜名区於呂4201-9", "url": "https://www.kaigokensaku.mhlw.go.jp/22/index.php?action_kouhyou_detail_004_kani=true&JigyosyoCd=2278300096-00&ServiceCd=170&Type=search", "url2": "https://www.tenryu-kohseikai.or.jp" }, "geometry": { "type": "Point", "coordinates": [ 137.791834, 34.856105900000017 ] } },
{ "type": "Feature", "properties": { "内容": "ホームケアいおり【福祉用具貸与】静岡県浜松市浜名区都田町１６番５号", "url": "https://www.kaigokensaku.mhlw.go.jp/22/index.php?action_kouhyou_detail_004_kani=true&JigyosyoCd=2277205452-00&ServiceCd=170&Type=search", "url2": "http://www.jihian.or.jp/top/" }, "geometry": { "type": "Point", "coordinates": [ 137.7145, 34.8096871 ] } },
{ "type": "Feature", "properties": { "内容": "株式会社浜名家具センター【福祉用具貸与】静岡県浜松市浜名区三ヶ日町三ヶ日883-3", "url": "https://www.kaigokensaku.mhlw.go.jp/22/index.php?action_kouhyou_detail_004_kani=true&JigyosyoCd=2278100090-00&ServiceCd=170&Type=search", "url2": null }, "geometry": { "type": "Point", "coordinates": [ 137.548680699999977, 34.8041344 ] } },
{ "type": "Feature", "properties": { "内容": "エーデルワイス福祉用具センター【福祉用具貸与】浜松市浜名区平口2405", "url": "https://www.kaigokensaku.mhlw.go.jp/22/index.php?action_kouhyou_detail_004_kani=true&JigyosyoCd=2277207078-00&ServiceCd=170&Type=search", "url2": null }, "geometry": { "type": "Point", "coordinates": [ 137.767072484655785, 34.79658110697271 ] } },
{ "type": "Feature", "properties": { "内容": "有限会社　マルヤス【福祉用具貸与】浜松市天竜区水窪町奥領家3050-12", "url": "https://www.kaigokensaku.mhlw.go.jp/22/index.php?action_kouhyou_detail_004_kani=true&JigyosyoCd=2276600265-00&ServiceCd=170&Type=search", "url2": null }, "geometry": { "type": "Point", "coordinates": [ 137.867120600000021, 35.1648488 ] } },
{ "type": "Feature", "properties": { "内容": "介護ショップ　ワラビ【福祉用具貸与】沼津市原1721-12", "url": "https://www.kaigokensaku.mhlw.go.jp/22/index.php?action_kouhyou_detail_004_kani=true&JigyosyoCd=2271100717-00&ServiceCd=170&Type=search", "url2": "http://www17.plala.or.jp/warabii2/" }, "geometry": { "type": "Point", "coordinates": [ 138.8038163, 35.1300322 ] } },
{ "type": "Feature", "properties": { "内容": "協和医科器械株式会社沼津支店【福祉用具貸与】静岡県沼津市大岡3995-1", "url": "https://www.kaigokensaku.mhlw.go.jp/22/index.php?action_kouhyou_detail_004_kani=true&JigyosyoCd=2271100253-00&ServiceCd=170&Type=search", "url2": "https://www.kyowaika.co.jp" }, "geometry": { "type": "Point", "coordinates": [ 138.880259574642082, 35.134359664697755 ] } },
{ "type": "Feature", "properties": { "内容": "株式会社フロンティア静岡営業所【福祉用具貸与】上香貫槙島町1265", "url": "https://www.kaigokensaku.mhlw.go.jp/22/index.php?action_kouhyou_detail_004_kani=true&JigyosyoCd=2271102457-00&ServiceCd=170&Type=search", "url2": "http://www.frontier-ph.com/" }, "geometry": { "type": "Point", "coordinates": [ 138.866492599999987, 35.0851767 ] } },
{ "type": "Feature", "properties": { "内容": "ベルメディカルケア株式会社　沼津営業所【福祉用具貸与】静岡県沼津市大諏訪881-1", "url": "https://www.kaigokensaku.mhlw.go.jp/22/index.php?action_kouhyou_detail_004_kani=true&JigyosyoCd=2271102085-00&ServiceCd=170&Type=search", "url2": "http://www.bellmc.co.jp/" }, "geometry": { "type": "Point", "coordinates": [ 138.838013100000012, 35.1139293 ] } },
{ "type": "Feature", "properties": { "内容": "ユウゲンガイシャ　サンパックケアサービス【福祉用具貸与】静岡県沼津市志下１６８－２", "url": "https://www.kaigokensaku.mhlw.go.jp/22/index.php?action_kouhyou_detail_004_kani=true&JigyosyoCd=2271103117-00&ServiceCd=170&Type=search", "url2": "sanpack@agate.plala.or.jp" }, "geometry": { "type": "Point", "coordinates": [ 138.878620100000035, 35.0667512 ] } },
{ "type": "Feature", "properties": { "内容": "株式会社トーカイ　沼津営業所【福祉用具貸与】静岡県沼津市大諏訪490番地1", "url": "https://www.kaigokensaku.mhlw.go.jp/22/index.php?action_kouhyou_detail_004_kani=true&JigyosyoCd=2271102218-00&ServiceCd=170&Type=search", "url2": "https://www.tokai-corp.com/" }, "geometry": { "type": "Point", "coordinates": [ 138.828144874868713, 35.114899178604311 ] } },
{ "type": "Feature", "properties": { "内容": "株式会社ヤマシタ沼津営業所【福祉用具貸与】沼津市岡一色817-3", "url": "https://www.kaigokensaku.mhlw.go.jp/22/index.php?action_kouhyou_detail_004_kani=true&JigyosyoCd=2271100238-00&ServiceCd=170&Type=search", "url2": "https://www.ycota.jp/" }, "geometry": { "type": "Point", "coordinates": [ 138.876693700000033, 35.1201383 ] } },
{ "type": "Feature", "properties": { "内容": "アイズ介護用品【福祉用具貸与】静岡県沼津市高島本町3-18マルスン沼津ビル1階", "url": "https://www.kaigokensaku.mhlw.go.jp/22/index.php?action_kouhyou_detail_004_kani=true&JigyosyoCd=2271102267-00&ServiceCd=170&Type=search", "url2": "http://www.nodoca.or.jp/index.html" }, "geometry": { "type": "Point", "coordinates": [ 138.857098, 35.109322 ] } },
{ "type": "Feature", "properties": { "内容": "株式会社東海医療器械【福祉用具貸与】沼津市大岡901-3", "url": "https://www.kaigokensaku.mhlw.go.jp/22/index.php?action_kouhyou_detail_004_kani=true&JigyosyoCd=2271100261-00&ServiceCd=170&Type=search", "url2": "http://www.tokai-mi.co.jp" }, "geometry": { "type": "Point", "coordinates": [ 138.873585899999966, 35.1108556 ] } },
{ "type": "Feature", "properties": { "内容": "パートナー【福祉用具貸与】静岡県沼津市沼北町1-1-7", "url": "https://www.kaigokensaku.mhlw.go.jp/22/index.php?action_kouhyou_detail_004_kani=true&JigyosyoCd=2271101442-00&ServiceCd=170&Type=search", "url2": null }, "geometry": { "type": "Point", "coordinates": [ 138.854934899999989, 35.1118385 ] } },
{ "type": "Feature", "properties": { "内容": "ル・グランパートナー【福祉用具貸与】沼津市大岡1043-28", "url": "https://www.kaigokensaku.mhlw.go.jp/22/index.php?action_kouhyou_detail_004_kani=true&JigyosyoCd=2271102671-00&ServiceCd=170&Type=search", "url2": "https://www.le-grand-gp.jp" }, "geometry": { "type": "Point", "coordinates": [ 138.879346700000042, 35.1100336 ] } },
{ "type": "Feature", "properties": { "内容": "ホームケアサービスこころ【福祉用具貸与】静岡県沼津市大岡186-8", "url": "https://www.kaigokensaku.mhlw.go.jp/22/index.php?action_kouhyou_detail_004_kani=true&JigyosyoCd=2271102572-00&ServiceCd=170&Type=search", "url2": "http://www.ktskk.co.jp" }, "geometry": { "type": "Point", "coordinates": [ 138.887374293074402, 35.104697522194463 ] } },
{ "type": "Feature", "properties": { "内容": "介護ショップ　びしん【福祉用具貸与】沼津市　岡宮　1378-19", "url": "https://www.kaigokensaku.mhlw.go.jp/22/index.php?action_kouhyou_detail_004_kani=true&JigyosyoCd=2271101814-00&ServiceCd=170&Type=search", "url2": null }, "geometry": { "type": "Point", "coordinates": [ 138.865202299999964, 35.137623 ] } },
{ "type": "Feature", "properties": { "内容": "WeLS株式会社【福祉用具貸与】静岡県沼津市若葉町1-56", "url": "https://www.kaigokensaku.mhlw.go.jp/22/index.php?action_kouhyou_detail_004_kani=true&JigyosyoCd=2271103174-00&ServiceCd=170&Type=search", "url2": null }, "geometry": { "type": "Point", "coordinates": [ 138.856259, 35.1165104 ] } },
{ "type": "Feature", "properties": { "内容": "フランスベッド株式会社　メディカル沼津営業所【福祉用具貸与】沼津市寿町10-15", "url": "https://www.kaigokensaku.mhlw.go.jp/22/index.php?action_kouhyou_detail_004_kani=true&JigyosyoCd=2271101012-00&ServiceCd=170&Type=search", "url2": "http://www.francebed.co.jp/" }, "geometry": { "type": "Point", "coordinates": [ 138.843090399999937, 35.1171654 ] } },
{ "type": "Feature", "properties": { "内容": "介護支援ショップ　フィットサポート福祉用具貸与事業所【福祉用具貸与】沼津市西沢田1111番地の5", "url": "https://www.kaigokensaku.mhlw.go.jp/22/index.php?action_kouhyou_detail_004_kani=true&JigyosyoCd=2271102325-00&ServiceCd=170&Type=search", "url2": "fit-support@gol.com" }, "geometry": { "type": "Point", "coordinates": [ 138.844981700000062, 35.1286147 ] } },
{ "type": "Feature", "properties": { "内容": "福祉用具　あたみ１ばん【福祉用具貸与】静岡県熱海市紅葉ガ丘町１８番６１号２０２", "url": "https://www.kaigokensaku.mhlw.go.jp/22/index.php?action_kouhyou_detail_004_kani=true&JigyosyoCd=2270500503-00&ServiceCd=170&Type=search", "url2": null }, "geometry": { "type": "Point", "coordinates": [ 139.0562812, 35.087729900000014 ] } },
{ "type": "Feature", "properties": { "内容": "福祉用具センター　ナースの森　熱海【福祉用具貸与】静岡県熱海市下多賀1032-1", "url": "https://www.kaigokensaku.mhlw.go.jp/22/index.php?action_kouhyou_detail_004_kani=true&JigyosyoCd=2270501030-00&ServiceCd=170&Type=search", "url2": "https://na-sunomori.jp" }, "geometry": { "type": "Point", "coordinates": [ 139.066648500000014, 35.0498319 ] } },
{ "type": "Feature", "properties": { "内容": "ライブリーメイト中銀熱海【福祉用具貸与】静岡県熱海市田原本町9-1熱海駅前第一ビル５階", "url": "https://www.kaigokensaku.mhlw.go.jp/22/index.php?action_kouhyou_detail_004_kani=true&JigyosyoCd=2270500883-00&ServiceCd=170&Type=search", "url2": "http://www.lively-nakagin.com/" }, "geometry": { "type": "Point", "coordinates": [ 139.079107599999986, 35.1033727 ] } },
{ "type": "Feature", "properties": { "内容": "介護ショップミズタニ【福祉用具貸与】静岡県熱海市咲見町１２－１３", "url": "https://www.kaigokensaku.mhlw.go.jp/22/index.php?action_kouhyou_detail_004_kani=true&JigyosyoCd=2270500131-00&ServiceCd=170&Type=search", "url2": "https://www.kaigomizutani.com/" }, "geometry": { "type": "Point", "coordinates": [ 139.074843399999963, 35.100762 ] } },
{ "type": "Feature", "properties": { "内容": "福祉用具フタバ【福祉用具貸与】昭和町21-1", "url": "https://www.kaigokensaku.mhlw.go.jp/22/index.php?action_kouhyou_detail_004_kani=true&JigyosyoCd=2270500602-00&ServiceCd=170&Type=search", "url2": null }, "geometry": { "type": "Point", "coordinates": [ 135.518632, 34.6337336 ] } },
{ "type": "Feature", "properties": { "内容": "キングラン東海株式会社　静岡支社【福祉用具貸与】梅名283番地5", "url": "https://www.kaigokensaku.mhlw.go.jp/22/index.php?action_kouhyou_detail_004_kani=true&JigyosyoCd=2270601491-00&ServiceCd=170&Type=search", "url2": "http://www.kingrun-tokai.co.jp" }, "geometry": { "type": "Point", "coordinates": [ 138.9301372, 35.0904711 ] } },
{ "type": "Feature", "properties": { "内容": "エルイマイ株式会社　エライア三島富田町店【福祉用具貸与】三島市富田町３－６", "url": "https://www.kaigokensaku.mhlw.go.jp/22/index.php?action_kouhyou_detail_004_kani=true&JigyosyoCd=2270601509-00&ServiceCd=170&Type=search", "url2": "https://ellimai.co.jp/lifecare/" }, "geometry": { "type": "Point", "coordinates": [ 138.9158467, 35.1076777 ] } },
{ "type": "Feature", "properties": { "内容": "有限会社　ライフ・ケア・サービス【福祉用具貸与】三島市清住町13-14", "url": "https://www.kaigokensaku.mhlw.go.jp/22/index.php?action_kouhyou_detail_004_kani=true&JigyosyoCd=2270600188-00&ServiceCd=170&Type=search", "url2": null }, "geometry": { "type": "Point", "coordinates": [ 138.9079693, 35.1133752 ] } },
{ "type": "Feature", "properties": { "内容": "株式会社　かごや【福祉用具貸与】富士宮市淀平町７１４番地", "url": "https://www.kaigokensaku.mhlw.go.jp/22/index.php?action_kouhyou_detail_004_kani=true&JigyosyoCd=2272101268-00&ServiceCd=170&Type=search", "url2": "http://kagoya.biz" }, "geometry": { "type": "Point", "coordinates": [ 138.609385400000065, 35.2411874 ] } },
{ "type": "Feature", "properties": { "内容": "介護用品ショップげんき堂【福祉用具貸与】富士宮市小泉336-17", "url": "https://www.kaigokensaku.mhlw.go.jp/22/index.php?action_kouhyou_detail_004_kani=true&JigyosyoCd=2272100724-00&ServiceCd=170&Type=search", "url2": "http://lifewakeup.blog83.fc2.com/" }, "geometry": { "type": "Point", "coordinates": [ 138.632737, 35.2073589 ] } },
{ "type": "Feature", "properties": { "内容": "介護ショップ　オギ【福祉用具貸与】静岡県富士宮市淀師1730-12階事務所内", "url": "https://www.kaigokensaku.mhlw.go.jp/22/index.php?action_kouhyou_detail_004_kani=true&JigyosyoCd=2272100153-00&ServiceCd=170&Type=search", "url2": "http://www.ogi-tech.co.jp/care/index.html" }, "geometry": { "type": "Point", "coordinates": [ 138.599875391397205, 35.245856033629366 ] } },
{ "type": "Feature", "properties": { "内容": "株式会社花みずき【福祉用具貸与】静岡県伊東市八幡野1126番地の43　岩上事務所101", "url": "https://www.kaigokensaku.mhlw.go.jp/22/index.php?action_kouhyou_detail_004_kani=true&JigyosyoCd=2270400845-00&ServiceCd=170&Type=search", "url2": null }, "geometry": { "type": "Point", "coordinates": [ 139.113349048223881, 34.883852634380901 ] } },
{ "type": "Feature", "properties": { "内容": "有限会社　悠悠【福祉用具貸与】伊東市吉田633-1", "url": "https://www.kaigokensaku.mhlw.go.jp/22/index.php?action_kouhyou_detail_004_kani=true&JigyosyoCd=2270400084-00&ServiceCd=170&Type=search", "url2": "http://www.yuyu-ito.com" }, "geometry": { "type": "Point", "coordinates": [ 139.118520399999966, 34.9368574 ] } },
{ "type": "Feature", "properties": { "内容": "うさぎ薬局福祉用具センター【福祉用具貸与】静岡県伊東市岡216-24", "url": "https://www.kaigokensaku.mhlw.go.jp/22/index.php?action_kouhyou_detail_004_kani=true&JigyosyoCd=2270401363-00&ServiceCd=170&Type=search", "url2": "https://usagipharmacy.com/" }, "geometry": { "type": "Point", "coordinates": [ 139.088152299999962, 34.9622976 ] } },
{ "type": "Feature", "properties": { "内容": "ケアセンターうばめがし伊東【福祉用具貸与】静岡県伊東市八幡野１１０５番地3", "url": "https://www.kaigokensaku.mhlw.go.jp/22/index.php?action_kouhyou_detail_004_kani=true&JigyosyoCd=2270400803-00&ServiceCd=170&Type=search", "url2": "http://ubamegashi.biz/" }, "geometry": { "type": "Point", "coordinates": [ 139.11592409325408, 34.889682604630934 ] } },
{ "type": "Feature", "properties": { "内容": "伊豆介護センター【福祉用具貸与】伊東市音無町５－６", "url": "https://www.kaigokensaku.mhlw.go.jp/22/index.php?action_kouhyou_detail_004_kani=true&JigyosyoCd=2270400019-00&ServiceCd=170&Type=search", "url2": "http://www.izukaigo.com" }, "geometry": { "type": "Point", "coordinates": [ 139.095639500000061, 34.9654868 ] } },
{ "type": "Feature", "properties": { "内容": "ベルメディカルケア株式会社　伊東営業所【福祉用具貸与】静岡県伊東市荻78-1", "url": "https://www.kaigokensaku.mhlw.go.jp/22/index.php?action_kouhyou_detail_004_kani=true&JigyosyoCd=2270400795-00&ServiceCd=170&Type=search", "url2": "http://www.bellmc.co.jp" }, "geometry": { "type": "Point", "coordinates": [ 139.092660900000027, 34.9343587 ] } },
{ "type": "Feature", "properties": { "内容": "福祉用具センター　ナースの森【福祉用具貸与】静岡県伊東市宇佐美1936-2", "url": "https://www.kaigokensaku.mhlw.go.jp/22/index.php?action_kouhyou_detail_004_kani=true&JigyosyoCd=2270401249-00&ServiceCd=170&Type=search", "url2": "https://na-sunomori.jp" }, "geometry": { "type": "Point", "coordinates": [ 139.0810123, 35.0040109 ] } },
{ "type": "Feature", "properties": { "内容": "株式会社レンティック中部　介護ショップちゅーぶ島田【福祉用具貸与】静岡県島田市金谷代官町764-1", "url": "https://www.kaigokensaku.mhlw.go.jp/22/index.php?action_kouhyou_detail_004_kani=true&JigyosyoCd=2275700066-00&ServiceCd=170&Type=search", "url2": "https://www.rentic-chubu.co.jp/" }, "geometry": { "type": "Point", "coordinates": [ 138.127742005963256, 34.83669266147588 ] } },
{ "type": "Feature", "properties": { "内容": "株式会社オーバ【福祉用具貸与】静岡県島田市船木2667-5", "url": "https://www.kaigokensaku.mhlw.go.jp/22/index.php?action_kouhyou_detail_004_kani=true&JigyosyoCd=2275400105-00&ServiceCd=170&Type=search", "url2": "http://o-ba.co.jp" }, "geometry": { "type": "Point", "coordinates": [ 138.220522800000026, 34.7926494 ] } },
{ "type": "Feature", "properties": { "内容": "福祉用具A.E.R【福祉用具貸与】静岡県島田市横井四丁目7-3", "url": "https://www.kaigokensaku.mhlw.go.jp/22/index.php?action_kouhyou_detail_004_kani=true&JigyosyoCd=2275401103-00&ServiceCd=170&Type=search", "url2": "https://ichigoichie-care.com/" }, "geometry": { "type": "Point", "coordinates": [ 138.1765033, 34.8283264 ] } },
{ "type": "Feature", "properties": { "内容": "株式会社　リクサス静岡　ヘルスケア事業部【福祉用具貸与】静岡県島田市中央町14-18", "url": "https://www.kaigokensaku.mhlw.go.jp/22/index.php?action_kouhyou_detail_004_kani=true&JigyosyoCd=2275400501-00&ServiceCd=170&Type=search", "url2": null }, "geometry": { "type": "Point", "coordinates": [ 138.174291687247432, 34.837578229057989 ] } },
{ "type": "Feature", "properties": { "内容": "有限会社　掛川　インフォ・ブリッジ【福祉用具貸与】静岡県島田市竹下162-2", "url": "https://www.kaigokensaku.mhlw.go.jp/22/index.php?action_kouhyou_detail_004_kani=true&JigyosyoCd=2275401004-00&ServiceCd=170&Type=search", "url2": null }, "geometry": { "type": "Point", "coordinates": [ 138.118817900000067, 34.8459138 ] } },
{ "type": "Feature", "properties": { "内容": "有限会社島田福祉サービス【福祉用具貸与】静岡県島田市中河町280-1", "url": "https://www.kaigokensaku.mhlw.go.jp/22/index.php?action_kouhyou_detail_004_kani=true&JigyosyoCd=2275400139-00&ServiceCd=170&Type=search", "url2": null }, "geometry": { "type": "Point", "coordinates": [ 138.179931928836027, 34.840261059591619 ] } },
{ "type": "Feature", "properties": { "内容": "株式会社マルレーヴ【福祉用具貸与】富士市大渕2416番地の5", "url": "https://www.kaigokensaku.mhlw.go.jp/22/index.php?action_kouhyou_detail_004_kani=true&JigyosyoCd=2272303450-00&ServiceCd=170&Type=search", "url2": "https://www.marureve.co.jp_/" }, "geometry": { "type": "Point", "coordinates": [ 138.676787100000013, 35.1936798 ] } },
{ "type": "Feature", "properties": { "内容": "ゆい介護用品【福祉用具貸与】静岡県富士市中里172-7", "url": "https://www.kaigokensaku.mhlw.go.jp/22/index.php?action_kouhyou_detail_004_kani=true&JigyosyoCd=2272302668-00&ServiceCd=170&Type=search", "url2": "http://ecare001.blogspot.com/" }, "geometry": { "type": "Point", "coordinates": [ 138.73205855985384, 35.164422889889842 ] } },
{ "type": "Feature", "properties": { "内容": "かぶしきがいしゃやましたふじえいぎょうしょ【福祉用具貸与】静岡県富士市本市場町995", "url": "https://www.kaigokensaku.mhlw.go.jp/22/index.php?action_kouhyou_detail_004_kani=true&JigyosyoCd=2272303526-00&ServiceCd=170&Type=search", "url2": "http://www.yco.co.jp/" }, "geometry": { "type": "Point", "coordinates": [ 138.6579638, 35.1585699 ] } },
{ "type": "Feature", "properties": { "内容": "ベルメディカルケア株式会社　富士営業所【福祉用具貸与】静岡県富士市川成新町334", "url": "https://www.kaigokensaku.mhlw.go.jp/22/index.php?action_kouhyou_detail_004_kani=true&JigyosyoCd=2272301983-00&ServiceCd=170&Type=search", "url2": "http://www.bellmc.co.jp/" }, "geometry": { "type": "Point", "coordinates": [ 138.662990499999978, 35.1327073 ] } },
{ "type": "Feature", "properties": { "内容": "立石薬品株式会社　福祉用具貸与事業所【福祉用具貸与】富士市本市場町９３８番地", "url": "https://www.kaigokensaku.mhlw.go.jp/22/index.php?action_kouhyou_detail_004_kani=true&JigyosyoCd=2272300266-00&ServiceCd=170&Type=search", "url2": "http://www.manten-boshi.jp/" }, "geometry": { "type": "Point", "coordinates": [ 138.6585771, 35.1571434 ] } },
{ "type": "Feature", "properties": { "内容": "（株）コーチョーケアベースふじやま【福祉用具貸与】富士市瓜島町102-2", "url": "https://www.kaigokensaku.mhlw.go.jp/22/index.php?action_kouhyou_detail_004_kani=true&JigyosyoCd=2272300795-00&ServiceCd=170&Type=search", "url2": "http://www.kohcho.com/" }, "geometry": { "type": "Point", "coordinates": [ 138.67219810000006, 35.1654591 ] } },
{ "type": "Feature", "properties": { "内容": "介護ショップ　メイプル【福祉用具貸与】富士市伝法2525-1", "url": "https://www.kaigokensaku.mhlw.go.jp/22/index.php?action_kouhyou_detail_004_kani=true&JigyosyoCd=2272300721-00&ServiceCd=170&Type=search", "url2": "http://www.e-maple.com" }, "geometry": { "type": "Point", "coordinates": [ 138.671506499999964, 35.1739053 ] } },
{ "type": "Feature", "properties": { "内容": "(株）市川家具センター　ウェルランド市川【福祉用具貸与】富士市高島町21番地", "url": "https://www.kaigokensaku.mhlw.go.jp/22/index.php?action_kouhyou_detail_004_kani=true&JigyosyoCd=2272301181-00&ServiceCd=170&Type=search", "url2": "http://www.ichikawakagu-center.com" }, "geometry": { "type": "Point", "coordinates": [ 138.669593802238552, 35.159450318068075 ] } },
{ "type": "Feature", "properties": { "内容": "介護ショップしずき【福祉用具貸与】富士市中島480-1", "url": "https://www.kaigokensaku.mhlw.go.jp/22/index.php?action_kouhyou_detail_004_kani=true&JigyosyoCd=2272301041-00&ServiceCd=170&Type=search", "url2": "http://kaigo-shizuki.com/" }, "geometry": { "type": "Point", "coordinates": [ 138.65335529999993, 35.1636759 ] } },
{ "type": "Feature", "properties": { "内容": "株式会社　イノベイションオブメディカルサービス富士営業所【福祉用具貸与】富士市浅間上町20-33", "url": "https://www.kaigokensaku.mhlw.go.jp/22/index.php?action_kouhyou_detail_004_kani=true&JigyosyoCd=2272301363-00&ServiceCd=170&Type=search", "url2": "http://ims-inc.co.jp/" }, "geometry": { "type": "Point", "coordinates": [ 138.679379822090141, 35.169769361141761 ] } },
{ "type": "Feature", "properties": { "内容": "ふくしようぐ　まつもと【福祉用具貸与】富士市長通12-1", "url": "https://www.kaigokensaku.mhlw.go.jp/22/index.php?action_kouhyou_detail_004_kani=true&JigyosyoCd=2272301942-00&ServiceCd=170&Type=search", "url2": "http://www.altidea.com/" }, "geometry": { "type": "Point", "coordinates": [ 138.647855700000036, 35.1727774 ] } },
{ "type": "Feature", "properties": { "内容": "介護ショップ　太助【福祉用具貸与】静岡県富士市森島349-1", "url": "https://www.kaigokensaku.mhlw.go.jp/22/index.php?action_kouhyou_detail_004_kani=true&JigyosyoCd=2272302940-00&ServiceCd=170&Type=search", "url2": null }, "geometry": { "type": "Point", "coordinates": [ 138.643503099999975, 35.1421644 ] } },
{ "type": "Feature", "properties": { "内容": "まめお薬局【福祉用具貸与】静岡県磐田市南田74-4", "url": "https://www.kaigokensaku.mhlw.go.jp/22/index.php?action_kouhyou_detail_004_kani=true&JigyosyoCd=2246910091-00&ServiceCd=170&Type=search", "url2": "https://beanman.tkc.best-hp.jp" }, "geometry": { "type": "Point", "coordinates": [ 137.858361686508204, 34.678009837969675 ] } },
{ "type": "Feature", "properties": { "内容": "ｅ－ライフ【福祉用具貸与】見付508-34", "url": "https://www.kaigokensaku.mhlw.go.jp/22/index.php?action_kouhyou_detail_004_kani=true&JigyosyoCd=2276901200-00&ServiceCd=170&Type=search", "url2": "https://www.brocade-iwata.com/" }, "geometry": { "type": "Point", "coordinates": [ 137.868726400000014, 34.7259387 ] } },
{ "type": "Feature", "properties": { "内容": "株式会社レンティック中部　介護ショップちゅーぶ磐田【福祉用具貸与】静岡県磐田市天龍940", "url": "https://www.kaigokensaku.mhlw.go.jp/22/index.php?action_kouhyou_detail_004_kani=true&JigyosyoCd=2276901184-00&ServiceCd=170&Type=search", "url2": "http://www.rentic-chubu.co.jp/care/service.php" }, "geometry": { "type": "Point", "coordinates": [ 137.847804599999989, 34.7030889 ] } },
{ "type": "Feature", "properties": { "内容": "Mすまいる【福祉用具貸与】静岡県磐田市東原244-3", "url": "https://www.kaigokensaku.mhlw.go.jp/22/index.php?action_kouhyou_detail_004_kani=true&JigyosyoCd=2276900954-00&ServiceCd=170&Type=search", "url2": null }, "geometry": { "type": "Point", "coordinates": [ 137.848862899999972, 34.7398531 ] } },
{ "type": "Feature", "properties": { "内容": "ダスキンヘルスレント静岡焼津ステーション【福祉用具貸与】静岡県焼津市塩津２－２", "url": "https://www.kaigokensaku.mhlw.go.jp/22/index.php?action_kouhyou_detail_004_kani=true&JigyosyoCd=2275101174-00&ServiceCd=170&Type=search", "url2": "http://www.seio/co/jp" }, "geometry": { "type": "Point", "coordinates": [ 138.303667200000064, 34.8677841 ] } },
{ "type": "Feature", "properties": { "内容": "株式会社ヤマシタ　焼津営業所【福祉用具貸与】焼津市上小杉５１３", "url": "https://www.kaigokensaku.mhlw.go.jp/22/index.php?action_kouhyou_detail_004_kani=true&JigyosyoCd=2275200067-00&ServiceCd=170&Type=search", "url2": "https://www.yco.co.jp/" }, "geometry": { "type": "Point", "coordinates": [ 138.276893400000063, 34.8212621 ] } },
{ "type": "Feature", "properties": { "内容": "介護ショップ　ひまわり【福祉用具貸与】焼津市中根181", "url": "https://www.kaigokensaku.mhlw.go.jp/22/index.php?action_kouhyou_detail_004_kani=true&JigyosyoCd=2275100283-00&ServiceCd=170&Type=search", "url2": null }, "geometry": { "type": "Point", "coordinates": [ 138.2976625, 34.8450484 ] } },
{ "type": "Feature", "properties": { "内容": "アスケア福祉用具センター静岡【福祉用具貸与】静岡県焼津市小柳津186", "url": "https://www.kaigokensaku.mhlw.go.jp/22/index.php?action_kouhyou_detail_004_kani=true&JigyosyoCd=2275101208-00&ServiceCd=170&Type=search", "url2": "https://www.asahi-sun-clean.co.jp/" }, "geometry": { "type": "Point", "coordinates": [ 138.281484471163907, 34.854255494809635 ] } },
{ "type": "Feature", "properties": { "内容": "福祉用具総合サービスポップ株式会社【福祉用具貸与】静岡県焼津市下小田上町21-12", "url": "https://www.kaigokensaku.mhlw.go.jp/22/index.php?action_kouhyou_detail_004_kani=true&JigyosyoCd=2275100861-00&ServiceCd=170&Type=search", "url2": "https://pop2010.com/" }, "geometry": { "type": "Point", "coordinates": [ 138.314100329266381, 34.837288428096386 ] } },
{ "type": "Feature", "properties": { "内容": "天竜厚生会介護福祉機器センター掛川【福祉用具貸与】静岡県掛川市宮脇２丁目１６－３宮脇の家内", "url": "https://www.kaigokensaku.mhlw.go.jp/22/index.php?action_kouhyou_detail_004_kani=true&JigyosyoCd=2277400160-00&ServiceCd=170&Type=search", "url2": "https://www.tenryu-kohseikai.or.jp/" }, "geometry": { "type": "Point", "coordinates": [ 138.029195500000043, 34.7819518 ] } },
{ "type": "Feature", "properties": { "内容": "株式会社レンティック中部　介護ショップちゅーぶ掛川【福祉用具貸与】掛川市杉谷1-1-11", "url": "https://www.kaigokensaku.mhlw.go.jp/22/index.php?action_kouhyou_detail_004_kani=true&JigyosyoCd=2277400780-00&ServiceCd=170&Type=search", "url2": "http://www.rentic-chubu.co.jp/" }, "geometry": { "type": "Point", "coordinates": [ 138.031439, 34.7685679 ] } },
{ "type": "Feature", "properties": { "内容": "有限会社スズヤ【福祉用具貸与】静岡県掛川市横須賀1408-2", "url": "https://www.kaigokensaku.mhlw.go.jp/22/index.php?action_kouhyou_detail_004_kani=true&JigyosyoCd=2276100266-00&ServiceCd=170&Type=search", "url2": "https://www.suzuya-ofs.com/" }, "geometry": { "type": "Point", "coordinates": [ 137.981533765745553, 34.680799880305891 ] } },
{ "type": "Feature", "properties": { "内容": "ベルメディカルケア株式会社　掛川営業所【福祉用具貸与】静岡県掛川市矢崎町4-4", "url": "https://www.kaigokensaku.mhlw.go.jp/22/index.php?action_kouhyou_detail_004_kani=true&JigyosyoCd=2277400327-00&ServiceCd=170&Type=search", "url2": "http://www.bellmc.co.jp/" }, "geometry": { "type": "Point", "coordinates": [ 138.023863099999971, 34.7633815 ] } },
{ "type": "Feature", "properties": { "内容": "株式会社ケア・アシストはなぶさ【福祉用具貸与】静岡県藤枝市音羽町5丁目25-18", "url": "https://www.kaigokensaku.mhlw.go.jp/22/index.php?action_kouhyou_detail_004_kani=true&JigyosyoCd=2275301758-00&ServiceCd=170&Type=search", "url2": null }, "geometry": { "type": "Point", "coordinates": [ 138.233838451796629, 34.876791493656995 ] } },
{ "type": "Feature", "properties": { "内容": "One’sLifeレンタル【福祉用具貸与】静岡県藤枝市志太3-2-28", "url": "https://www.kaigokensaku.mhlw.go.jp/22/index.php?action_kouhyou_detail_004_kani=true&JigyosyoCd=2275301949-00&ServiceCd=170&Type=search", "url2": "https://www.ops2016.com/" }, "geometry": { "type": "Point", "coordinates": [ 138.249640147275642, 34.864055714817681 ] } },
{ "type": "Feature", "properties": { "内容": "福祉用具サービスフォレスタ藤枝【福祉用具貸与】藤枝高洲1-13-3", "url": "https://www.kaigokensaku.mhlw.go.jp/22/index.php?action_kouhyou_detail_004_kani=true&JigyosyoCd=2275301279-00&ServiceCd=170&Type=search", "url2": "http://www.forestafujieda.jp" }, "geometry": { "type": "Point", "coordinates": [ 138.266569200000049, 34.8413064 ] } },
{ "type": "Feature", "properties": { "内容": "東海ガス株式会社【福祉用具貸与】静岡県藤枝市青木２丁目２９番１号", "url": "https://www.kaigokensaku.mhlw.go.jp/22/index.php?action_kouhyou_detail_004_kani=true&JigyosyoCd=2275301444-00&ServiceCd=170&Type=search", "url2": "http://www.tokaigas.co.jp" }, "geometry": { "type": "Point", "coordinates": [ 138.251783227468422, 34.857936886556821 ] } },
{ "type": "Feature", "properties": { "内容": "ベルメディカルケア株式会社　藤枝営業所【福祉用具貸与】静岡県藤枝市青葉町4丁目2-12", "url": "https://www.kaigokensaku.mhlw.go.jp/22/index.php?action_kouhyou_detail_004_kani=true&JigyosyoCd=2275301147-00&ServiceCd=170&Type=search", "url2": "http://www.bellmc.co.jp/" }, "geometry": { "type": "Point", "coordinates": [ 138.246143299999972, 34.8413694 ] } },
{ "type": "Feature", "properties": { "内容": "株式会社アースライフクリエーション【福祉用具貸与】静岡県藤枝市岡出山1-9-5", "url": "https://www.kaigokensaku.mhlw.go.jp/22/index.php?action_kouhyou_detail_004_kani=true&JigyosyoCd=2275301972-00&ServiceCd=170&Type=search", "url2": "https://earth-group.co.jp/" }, "geometry": { "type": "Point", "coordinates": [ 138.2568412, 34.8687778 ] } },
{ "type": "Feature", "properties": { "内容": "株式会社静岡福祉サービス【福祉用具貸与】静岡県藤枝市水守２丁目１-１８", "url": "https://www.kaigokensaku.mhlw.go.jp/22/index.php?action_kouhyou_detail_004_kani=true&JigyosyoCd=2275300081-00&ServiceCd=170&Type=search", "url2": "http://shizuokafukushi.com" }, "geometry": { "type": "Point", "coordinates": [ 138.272823563149814, 34.877805476194546 ] } },
{ "type": "Feature", "properties": { "内容": "リフテック　御殿場【福祉用具貸与】静岡県御殿場市萩原1142-3", "url": "https://www.kaigokensaku.mhlw.go.jp/22/index.php?action_kouhyou_detail_004_kani=true&JigyosyoCd=2271200491-00&ServiceCd=170&Type=search", "url2": null }, "geometry": { "type": "Point", "coordinates": [ 138.933431528459948, 35.293562720566165 ] } },
{ "type": "Feature", "properties": { "内容": "T-STYLE福祉用具センター【福祉用具貸与】静岡県袋井市土橋154番地の8", "url": "https://www.kaigokensaku.mhlw.go.jp/22/index.php?action_kouhyou_detail_004_kani=true&JigyosyoCd=2277300477-00&ServiceCd=170&Type=search", "url2": null }, "geometry": { "type": "Point", "coordinates": [ 137.9019846, 34.7543446 ] } },
{ "type": "Feature", "properties": { "内容": "すまいるケアサービス【福祉用具貸与】浅岡255-1", "url": "https://www.kaigokensaku.mhlw.go.jp/22/index.php?action_kouhyou_detail_004_kani=true&JigyosyoCd=2277300774-00&ServiceCd=170&Type=search", "url2": "https://nextone0423.jp/" }, "geometry": { "type": "Point", "coordinates": [ 137.916458, 34.705994 ] } },
{ "type": "Feature", "properties": { "内容": "エコワークス　遠州営業所【福祉用具貸与】静岡県袋井市堀越2丁目18-16号室", "url": "https://www.kaigokensaku.mhlw.go.jp/22/index.php?action_kouhyou_detail_004_kani=true&JigyosyoCd=2277300659-00&ServiceCd=170&Type=search", "url2": "http://www.eco-kaigo.com/" }, "geometry": { "type": "Point", "coordinates": [ 137.909488499999952, 34.7523355 ] } },
{ "type": "Feature", "properties": { "内容": "株式会社レンティック中部　介護ショップちゅーぶ袋井【福祉用具貸与】高尾516-1", "url": "https://www.kaigokensaku.mhlw.go.jp/22/index.php?action_kouhyou_detail_004_kani=true&JigyosyoCd=2277300261-00&ServiceCd=170&Type=search", "url2": "http://www.rentic-chubu.co.jp" }, "geometry": { "type": "Point", "coordinates": [ 137.933614799999987, 34.7375944 ] } },
{ "type": "Feature", "properties": { "内容": "ダスキンヘルスレント静岡袋井ステーション【福祉用具貸与】静岡県袋井市久能1889-1", "url": "https://www.kaigokensaku.mhlw.go.jp/22/index.php?action_kouhyou_detail_004_kani=true&JigyosyoCd=2277300642-00&ServiceCd=170&Type=search", "url2": "HR-SHIZUOKAFUKUROI@fc.duskin.co.jp" }, "geometry": { "type": "Point", "coordinates": [ 137.917169973927344, 34.761947758755404 ] } },
{ "type": "Feature", "properties": { "内容": "ケアショップふじた【福祉用具貸与】下田市六丁目36-13", "url": "https://www.kaigokensaku.mhlw.go.jp/22/index.php?action_kouhyou_detail_004_kani=true&JigyosyoCd=2270200121-00&ServiceCd=170&Type=search", "url2": null }, "geometry": { "type": "Point", "coordinates": [ 138.933692651346064, 34.67088348060819 ] } },
{ "type": "Feature", "properties": { "内容": "介護ショップエテ【福祉用具貸与】下田市武が浜6-7", "url": "https://www.kaigokensaku.mhlw.go.jp/22/index.php?action_kouhyou_detail_004_kani=true&JigyosyoCd=2270200153-00&ServiceCd=170&Type=search", "url2": null }, "geometry": { "type": "Point", "coordinates": [ 138.949723899999981, 34.6750451 ] } },
{ "type": "Feature", "properties": { "内容": "介護サービス銀の鈴【福祉用具貸与】下田市西中2－4", "url": "https://www.kaigokensaku.mhlw.go.jp/22/index.php?action_kouhyou_detail_004_kani=true&JigyosyoCd=2270200054-00&ServiceCd=170&Type=search", "url2": "https://silverbel.jp" }, "geometry": { "type": "Point", "coordinates": [ 138.9409412, 34.690996 ] } },
{ "type": "Feature", "properties": { "内容": "ケアセンターうばめがし下田【福祉用具貸与】下田市東本郷二丁目6番2号", "url": "https://www.kaigokensaku.mhlw.go.jp/22/index.php?action_kouhyou_detail_004_kani=true&JigyosyoCd=2270200237-00&ServiceCd=170&Type=search", "url2": "http://ubamegashi.biz" }, "geometry": { "type": "Point", "coordinates": [ 138.945952, 34.6836496 ] } },
{ "type": "Feature", "properties": { "内容": "株式会社　松井住設【福祉用具貸与】湖西市神座411-2", "url": "https://www.kaigokensaku.mhlw.go.jp/22/index.php?action_kouhyou_detail_004_kani=true&JigyosyoCd=2278400243-00&ServiceCd=170&Type=search", "url2": null }, "geometry": { "type": "Point", "coordinates": [ 137.49948280000001, 34.7387453 ] } },
{ "type": "Feature", "properties": { "内容": "アポロメーカー株式会社【福祉用具貸与】静岡県伊豆市大平1196-2", "url": "https://www.kaigokensaku.mhlw.go.jp/22/index.php?action_kouhyou_detail_004_kani=true&JigyosyoCd=2270700293-00&ServiceCd=170&Type=search", "url2": null }, "geometry": { "type": "Point", "coordinates": [ 138.935618484061479, 34.949870033840909 ] } },
{ "type": "Feature", "properties": { "内容": "AYUMUtools【福祉用具貸与】門屋1712-3", "url": "https://www.kaigokensaku.mhlw.go.jp/22/index.php?action_kouhyou_detail_004_kani=true&JigyosyoCd=2275690218-00&ServiceCd=170&Type=search", "url2": "https://bambroot.co.jp/" }, "geometry": { "type": "Point", "coordinates": [ 138.1180809, 34.65452 ] } },
{ "type": "Feature", "properties": { "内容": "アイエル【福祉用具貸与】菊川市西方971", "url": "https://www.kaigokensaku.mhlw.go.jp/22/index.php?action_kouhyou_detail_004_kani=true&JigyosyoCd=2276800014-00&ServiceCd=170&Type=search", "url2": "https://aieru.co.jp/" }, "geometry": { "type": "Point", "coordinates": [ 138.080707743964552, 34.755155196487749 ] } },
{ "type": "Feature", "properties": { "内容": "ゆうプラン小笠店【福祉用具貸与】菊川市下平川6418", "url": "https://www.kaigokensaku.mhlw.go.jp/22/index.php?action_kouhyou_detail_004_kani=true&JigyosyoCd=2276100274-00&ServiceCd=170&Type=search", "url2": "http://www.you-plan.jp" }, "geometry": { "type": "Point", "coordinates": [ 138.091314300000022, 34.703396 ] } },
{ "type": "Feature", "properties": { "内容": "株式会社ケアリンク【福祉用具貸与】静岡県牧之原市静波1563", "url": "https://www.kaigokensaku.mhlw.go.jp/22/index.php?action_kouhyou_detail_004_kani=true&JigyosyoCd=2275800262-00&ServiceCd=170&Type=search", "url2": null }, "geometry": { "type": "Point", "coordinates": [ 138.230685200000039, 34.7415647 ] } },
{ "type": "Feature", "properties": { "内容": "まるに福祉サービス【福祉用具貸与】静岡県牧之原市勝俣1265-1", "url": "https://www.kaigokensaku.mhlw.go.jp/22/index.php?action_kouhyou_detail_004_kani=true&JigyosyoCd=2275500516-00&ServiceCd=170&Type=search", "url2": "http://circle-2.info" }, "geometry": { "type": "Point", "coordinates": [ 138.2310046, 34.7414703 ] } },
{ "type": "Feature", "properties": { "内容": "介護サポートさくら【福祉用具貸与】静岡県牧之原市波津３丁目１番地", "url": "https://www.kaigokensaku.mhlw.go.jp/22/index.php?action_kouhyou_detail_004_kani=true&JigyosyoCd=2275800189-00&ServiceCd=170&Type=search", "url2": "https://chutorashizuoka.com" }, "geometry": { "type": "Point", "coordinates": [ 138.192098100000067, 34.6864641 ] } },
{ "type": "Feature", "properties": { "内容": "シルバーショップ　えがお【福祉用具貸与】静岡県牧之原市地頭方1588-2", "url": "https://www.kaigokensaku.mhlw.go.jp/22/index.php?action_kouhyou_detail_004_kani=true&JigyosyoCd=2275800247-00&ServiceCd=170&Type=search", "url2": "http://www.uotomo.com" }, "geometry": { "type": "Point", "coordinates": [ 138.191539, 34.6480793 ] } },
{ "type": "Feature", "properties": { "内容": "とうぶ介護用品【福祉用具貸与】静岡県賀茂郡西伊豆町宇久須948", "url": "https://www.kaigokensaku.mhlw.go.jp/22/index.php?action_kouhyou_detail_004_kani=true&JigyosyoCd=2270100551-00&ServiceCd=170&Type=search", "url2": null }, "geometry": { "type": "Point", "coordinates": [ 138.787944599999946, 34.8469313 ] } },
{ "type": "Feature", "properties": { "内容": "ル・ソレイユ函南福祉用具事業所【福祉用具貸与】静岡県田方郡函南町間宮760-3", "url": "https://www.kaigokensaku.mhlw.go.jp/22/index.php?action_kouhyou_detail_004_kani=true&JigyosyoCd=2270300953-00&ServiceCd=170&Type=search", "url2": "http://care-soleil.com/" }, "geometry": { "type": "Point", "coordinates": [ 138.943145007409612, 35.084754768351658 ] } },
{ "type": "Feature", "properties": { "内容": "介護ショップやすらぎ【福祉用具貸与】静岡県田方郡函南町間宮617-4", "url": "https://www.kaigokensaku.mhlw.go.jp/22/index.php?action_kouhyou_detail_004_kani=true&JigyosyoCd=2270300706-00&ServiceCd=170&Type=search", "url2": "https://yasuragi-kaigo.jp/" }, "geometry": { "type": "Point", "coordinates": [ 138.940047600000071, 35.0789989 ] } },
{ "type": "Feature", "properties": { "内容": "ケアサポート優【福祉用具貸与】間宮617-4-201シティパレス柿島", "url": "https://www.kaigokensaku.mhlw.go.jp/22/index.php?action_kouhyou_detail_004_kani=true&JigyosyoCd=2270301043-00&ServiceCd=170&Type=search", "url2": "https://yasuragi-kaigo.jp/" }, "geometry": { "type": "Point", "coordinates": [ 138.9401222, 35.0788699 ] } },
{ "type": "Feature", "properties": { "内容": "生活デザインユーフォリア【福祉用具貸与】静岡県田方郡函南町上沢675番6住宅型有料老人ホームユーフォリア函南大場", "url": "https://www.kaigokensaku.mhlw.go.jp/22/index.php?action_kouhyou_detail_004_kani=true&JigyosyoCd=2270301050-00&ServiceCd=170&Type=search", "url2": "http://www.euphoria-wd.co.jp/" }, "geometry": { "type": "Point", "coordinates": [ 138.961683526458728, 35.102378540730321 ] } },
{ "type": "Feature", "properties": { "内容": "ダスキンヘルスレント三島ステーション【福祉用具貸与】静岡県駿東郡清水町卸団地348", "url": "https://www.kaigokensaku.mhlw.go.jp/22/index.php?action_kouhyou_detail_004_kani=true&JigyosyoCd=2271300689-00&ServiceCd=170&Type=search", "url2": "http://healthrent.duskin.jp" }, "geometry": { "type": "Point", "coordinates": [ 138.907307913877844, 35.093653014145957 ] } },
{ "type": "Feature", "properties": { "内容": "大鳥居福祉用具サービス【福祉用具貸与】駿東郡清水町徳倉１５６６－２", "url": "https://www.kaigokensaku.mhlw.go.jp/22/index.php?action_kouhyou_detail_004_kani=true&JigyosyoCd=2271300374-00&ServiceCd=170&Type=search", "url2": "http://www.ootorii.jp" }, "geometry": { "type": "Point", "coordinates": [ 138.898509600000011, 35.0893414 ] } },
{ "type": "Feature", "properties": { "内容": "ウェルケアアシスト【福祉用具貸与】静岡県駿東郡清水町徳倉1599-7", "url": "https://www.kaigokensaku.mhlw.go.jp/22/index.php?action_kouhyou_detail_004_kani=true&JigyosyoCd=2271300531-00&ServiceCd=170&Type=search", "url2": "http://www.w-being.jp/wellcare/" }, "geometry": { "type": "Point", "coordinates": [ 138.898667899999964, 35.088947 ] } },
{ "type": "Feature", "properties": { "内容": "マクロコム株式会社【福祉用具貸与】駿東郡長泉町上土狩452番地の7", "url": "https://www.kaigokensaku.mhlw.go.jp/22/index.php?action_kouhyou_detail_004_kani=true&JigyosyoCd=2271300549-00&ServiceCd=170&Type=search", "url2": "http://hp.kaipoke.biz/nrb/" }, "geometry": { "type": "Point", "coordinates": [ 138.900222, 35.1402449 ] } },
{ "type": "Feature", "properties": { "内容": "株式会社セリオ沼津営業所【福祉用具貸与】下長窪1003-1", "url": "https://www.kaigokensaku.mhlw.go.jp/22/index.php?action_kouhyou_detail_004_kani=true&JigyosyoCd=2271301125-00&ServiceCd=170&Type=search", "url2": "http://serio888.net" }, "geometry": { "type": "Point", "coordinates": [ 138.886526987119908, 35.153548490215499 ] } },
{ "type": "Feature", "properties": { "内容": "ケアベース長泉【福祉用具貸与】駿東郡長泉町下土狩1347　ルシールイワサキ１０１号", "url": "https://www.kaigokensaku.mhlw.go.jp/22/index.php?action_kouhyou_detail_004_kani=true&JigyosyoCd=2271300226-00&ServiceCd=170&Type=search", "url2": "http://www.kohcho.com/fukushi/age-free.html" }, "geometry": { "type": "Point", "coordinates": [ 138.897313700000041, 35.1285357 ] } },
{ "type": "Feature", "properties": { "内容": "介護ショップ結和【福祉用具貸与】静岡県駿東郡長泉町納米里405-8カームライフ納米里", "url": "https://www.kaigokensaku.mhlw.go.jp/22/index.php?action_kouhyou_detail_004_kani=true&JigyosyoCd=2271300929-00&ServiceCd=170&Type=search", "url2": "http://calmlife.jp/" }, "geometry": { "type": "Point", "coordinates": [ 138.894780699999956, 35.1431806 ] } },
{ "type": "Feature", "properties": { "内容": "駿河ワークス株式会社【福祉用具貸与】静岡県駿東具長泉町本宿372-1", "url": "https://www.kaigokensaku.mhlw.go.jp/22/index.php?action_kouhyou_detail_004_kani=true&JigyosyoCd=2271300978-00&ServiceCd=170&Type=search", "url2": "https://surugaworks.com" }, "geometry": { "type": "Point", "coordinates": [ 138.888126121306925, 35.120730351530995 ] } },
{ "type": "Feature", "properties": { "内容": "株式会社アイビー川根本町【福祉用具貸与】静岡県榛原郡川根本町上長尾　421-4", "url": "https://www.kaigokensaku.mhlw.go.jp/22/index.php?action_kouhyou_detail_004_kani=true&JigyosyoCd=2275500961-00&ServiceCd=170&Type=search", "url2": null }, "geometry": { "type": "Point", "coordinates": [ 138.0832576, 35.0455069 ] } }
]
}
