{
"type": "FeatureCollection",
"name": "geo_22_地域密着型特定施設入居者生活介護（軽費老人ホーム）",
"crs": { "type": "name", "properties": { "name": "urn:ogc:def:crs:OGC:1.3:CRS84" } },
"features": [
{ "type": "Feature", "properties": { "内容": "ケアレジデンス東山【地域密着型特定施設入居者生活介護（軽費老人ホーム）】浜松市西区大山町2957-1", "url": "https://www.kaigokensaku.mhlw.go.jp/22/index.php?action_kouhyou_detail_004_kani=true&JigyosyoCd=2297200426-00&ServiceCd=362&Type=search", "url2": "http://www.keiseikai6001.or.jp" }, "geometry": { "type": "Point", "coordinates": [ 137.681200100000069, 34.7732893 ] } },
{ "type": "Feature", "properties": { "内容": "ケアハウス　第２アドナイ館【地域密着型特定施設入居者生活介護（軽費老人ホーム）】静岡県浜松市中央区三方原町3014-1", "url": "https://www.kaigokensaku.mhlw.go.jp/22/index.php?action_kouhyou_detail_004_kani=true&JigyosyoCd=2297200442-00&ServiceCd=362&Type=search", "url2": "www.jyuji.or.jp/hamamatsu_city/adonai2/" }, "geometry": { "type": "Point", "coordinates": [ 137.695306, 34.791890299999984 ] } },
{ "type": "Feature", "properties": { "内容": "ケアハウスゆとりの郷【地域密着型特定施設入居者生活介護（軽費老人ホーム）】浜松市浜名区平口2435-1", "url": "https://www.kaigokensaku.mhlw.go.jp/22/index.php?action_kouhyou_detail_004_kani=true&JigyosyoCd=2297200251-00&ServiceCd=362&Type=search", "url2": "http://www.e-del.jp/yutori/index.html" }, "geometry": { "type": "Point", "coordinates": [ 137.767968600000017, 34.7951683 ] } },
{ "type": "Feature", "properties": { "内容": "みずほケアハウス【地域密着型特定施設入居者生活介護（軽費老人ホーム）】静岡県富士市瓜島町173-1", "url": "https://www.kaigokensaku.mhlw.go.jp/22/index.php?action_kouhyou_detail_004_kani=true&JigyosyoCd=2292300585-00&ServiceCd=362&Type=search", "url2": "htpp://mizuhocace.or.jp" }, "geometry": { "type": "Point", "coordinates": [ 138.675072900000032, 35.1640981 ] } },
{ "type": "Feature", "properties": { "内容": "ケアハウス　わだの里【地域密着型特定施設入居者生活介護（軽費老人ホーム）】富士市今泉１丁目１１番７号", "url": "https://www.kaigokensaku.mhlw.go.jp/22/index.php?action_kouhyou_detail_004_kani=true&JigyosyoCd=2292300155-00&ServiceCd=362&Type=search", "url2": "http://www.jishoukai.com/" }, "geometry": { "type": "Point", "coordinates": [ 138.69037979999996, 35.1638593 ] } }
]
}
