{
"type": "FeatureCollection",
"name": "geo_22_特定施設入居者生活介護（有料老人ホーム（サービス付き高齢者向け住宅））",
"crs": { "type": "name", "properties": { "name": "urn:ogc:def:crs:OGC:1.3:CRS84" } },
"features": [
{ "type": "Feature", "properties": { "内容": "介護付有料老人ホーム　リフレア上土【特定施設入居者生活介護（有料老人ホーム（サービス付き高齢者向け住宅））】静岡県静岡市葵区上土2丁目13-35", "url": "https://www.kaigokensaku.mhlw.go.jp/22/index.php?action_kouhyou_detail_004_kani=true&JigyosyoCd=2274207345-00&ServiceCd=&Type=search", "url2": "https://www.refrea.net/agetsuchi/" }, "geometry": { "type": "Point", "coordinates": [ 138.4110756, 35.0052841 ] } },
{ "type": "Feature", "properties": { "内容": "アクタガワ　ハートライフ大岩【特定施設入居者生活介護（有料老人ホーム（サービス付き高齢者向け住宅））】大岩１－８－１４", "url": "https://www.kaigokensaku.mhlw.go.jp/22/index.php?action_kouhyou_detail_004_kani=true&JigyosyoCd=2274207717-00&ServiceCd=&Type=search", "url2": "https://www.akutagawa-heartlife.jp/detail/premiumheartlifeooiwa/" }, "geometry": { "type": "Point", "coordinates": [ 138.380389967459109, 34.992247667330872 ] } },
{ "type": "Feature", "properties": { "内容": "介護付有料老人ホーム　きぼうのつばさ【特定施設入居者生活介護（有料老人ホーム（サービス付き高齢者向け住宅））】静岡県静岡市駿河区北丸子２丁目８－３生陽会おかげや", "url": "https://www.kaigokensaku.mhlw.go.jp/22/index.php?action_kouhyou_detail_004_kani=true&JigyosyoCd=2274207139-00&ServiceCd=&Type=search", "url2": "https://www.ikiyo.co.jp" }, "geometry": { "type": "Point", "coordinates": [ 138.347277500000018, 34.9505786 ] } },
{ "type": "Feature", "properties": { "内容": "アースの介護付有料老人ホーム　ふるーら静岡石田【特定施設入居者生活介護（有料老人ホーム（サービス付き高齢者向け住宅））】静岡県静岡市駿河区石田3丁目16-39", "url": "https://www.kaigokensaku.mhlw.go.jp/22/index.php?action_kouhyou_detail_004_kani=true&JigyosyoCd=2274208152-00&ServiceCd=&Type=search", "url2": "http://www.earth-group.co.jp" }, "geometry": { "type": "Point", "coordinates": [ 138.401559747221427, 34.955203066795264 ] } },
{ "type": "Feature", "properties": { "内容": "介護付有料老人ホーム　シニアコートあざれあ【特定施設入居者生活介護（有料老人ホーム（サービス付き高齢者向け住宅））】静岡市清水区庵原町143-25", "url": "https://www.kaigokensaku.mhlw.go.jp/22/index.php?action_kouhyou_detail_004_kani=true&JigyosyoCd=2274209028-00&ServiceCd=&Type=search", "url2": "http://www.yamanoue-hospital.jp/" }, "geometry": { "type": "Point", "coordinates": [ 138.480802700000027, 35.040693 ] } },
{ "type": "Feature", "properties": { "内容": "介護付有料老人ホーム　クオリティリビングシンフォニー【特定施設入居者生活介護（有料老人ホーム（サービス付き高齢者向け住宅））】静岡県浜松市中央区材木町1271-1", "url": "https://www.kaigokensaku.mhlw.go.jp/22/index.php?action_kouhyou_detail_004_kani=true&JigyosyoCd=2277205866-00&ServiceCd=&Type=search", "url2": "http://www.earth-group.co.jp" }, "geometry": { "type": "Point", "coordinates": [ 137.792925700000012, 34.7164267 ] } },
{ "type": "Feature", "properties": { "内容": "ラクラス上島レジデンス【特定施設入居者生活介護（有料老人ホーム（サービス付き高齢者向け住宅））】静岡県浜松市中央区上島3-37-19", "url": "https://www.kaigokensaku.mhlw.go.jp/22/index.php?action_kouhyou_detail_004_kani=true&JigyosyoCd=2277203663-00&ServiceCd=&Type=search", "url2": "http://www.entetsu.co.jp/la-class" }, "geometry": { "type": "Point", "coordinates": [ 137.74560120000001, 34.7405066 ] } },
{ "type": "Feature", "properties": { "内容": "サービス付き高齢者住宅　メディカル　テラス【特定施設入居者生活介護（有料老人ホーム（サービス付き高齢者向け住宅））】静岡県浜名市浜北区平口1975番地", "url": "https://www.kaigokensaku.mhlw.go.jp/22/index.php?action_kouhyou_detail_004_kani=true&JigyosyoCd=2277204307-00&ServiceCd=&Type=search", "url2": "info＠m-terrace.jp" }, "geometry": { "type": "Point", "coordinates": [ 137.76867538690567, 34.794818813526007 ] } },
{ "type": "Feature", "properties": { "内容": "介護付き有料老人ホーム　クオリティリビングおかりや【特定施設入居者生活介護（有料老人ホーム（サービス付き高齢者向け住宅））】静岡県島田市御仮屋町9530番地", "url": "https://www.kaigokensaku.mhlw.go.jp/22/index.php?action_kouhyou_detail_004_kani=true&JigyosyoCd=2275400816-00&ServiceCd=&Type=search", "url2": "http://www.cq-s.com" }, "geometry": { "type": "Point", "coordinates": [ 138.189287301713506, 34.837050660929755 ] } },
{ "type": "Feature", "properties": { "内容": "金谷ケアパークそよ風【特定施設入居者生活介護（有料老人ホーム（サービス付き高齢者向け住宅））】金谷栄町347-88", "url": "https://www.kaigokensaku.mhlw.go.jp/22/index.php?action_kouhyou_detail_004_kani=true&JigyosyoCd=2275400824-00&ServiceCd=&Type=search", "url2": "http://www.sykz.co.jp" }, "geometry": { "type": "Point", "coordinates": [ 138.128726699999987, 34.8287276 ] } },
{ "type": "Feature", "properties": { "内容": "ラクラス見付レジデンス【特定施設入居者生活介護（有料老人ホーム（サービス付き高齢者向け住宅））】静岡県磐田市見付235-10", "url": "https://www.kaigokensaku.mhlw.go.jp/22/index.php?action_kouhyou_detail_004_kani=true&JigyosyoCd=2276901028-00&ServiceCd=&Type=search", "url2": "http://www.entetsu.co.jp/la-class" }, "geometry": { "type": "Point", "coordinates": [ 137.863489699999946, 34.7246334 ] } }
]
}
