{
"type": "FeatureCollection",
"name": "geo_22_夜間対応型訪問介護",
"crs": { "type": "name", "properties": { "name": "urn:ogc:def:crs:OGC:1.3:CRS84" } },
"features": [
{ "type": "Feature", "properties": { "内容": "伊豆介護センター熱海【夜間対応型訪問介護】静岡県熱海市緑ガ丘町9-7", "url": "https://www.kaigokensaku.mhlw.go.jp/22/index.php?action_kouhyou_detail_004_kani=true&JigyosyoCd=2290500129-00&ServiceCd=710&Type=search", "url2": "http://www.izukaigo.com/" }, "geometry": { "type": "Point", "coordinates": [ 139.064530399999967, 35.1069335 ] } },
{ "type": "Feature", "properties": { "内容": "伊豆介護センター【夜間対応型訪問介護】音無町5-6伊豆介護センター", "url": "https://www.kaigokensaku.mhlw.go.jp/22/index.php?action_kouhyou_detail_004_kani=true&JigyosyoCd=2290400262-00&ServiceCd=710&Type=search", "url2": "http://www.izukaigo.com/" }, "geometry": { "type": "Point", "coordinates": [ 129.8594489, 32.7880252 ] } }
]
}
