{
"type": "FeatureCollection",
"name": "geo_22_看護小規模多機能型居宅介護（複合型サービス）",
"crs": { "type": "name", "properties": { "name": "urn:ogc:def:crs:OGC:1.3:CRS84" } },
"features": [
{ "type": "Feature", "properties": { "内容": "セントケア看護小規模竜南【看護小規模多機能型居宅介護（複合型サービス）】静岡県静岡市葵区竜南1丁目1番35号", "url": "https://www.kaigokensaku.mhlw.go.jp/22/index.php?action_kouhyou_detail_004_kani=true&JigyosyoCd=2294200882-00&ServiceCd=&Type=search", "url2": null }, "geometry": { "type": "Point", "coordinates": [ 138.3987131, 34.9962904 ] } },
{ "type": "Feature", "properties": { "内容": "看護小規模多機能居宅介護　ひなたぼっこ水道町【看護小規模多機能型居宅介護（複合型サービス）】静岡県静岡市葵区水道町159-2", "url": "https://www.kaigokensaku.mhlw.go.jp/22/index.php?action_kouhyou_detail_004_kani=true&JigyosyoCd=2294201492-00&ServiceCd=&Type=search", "url2": null }, "geometry": { "type": "Point", "coordinates": [ 138.367599599999949, 34.9838138 ] } },
{ "type": "Feature", "properties": { "内容": "りいふ看護小規模多機能型居宅介護【看護小規模多機能型居宅介護（複合型サービス）】静岡県静岡市葵区瀬名川2丁目1-8りいふ看護小規模多機能型居宅介護・住宅型有料老人ホーム", "url": "https://www.kaigokensaku.mhlw.go.jp/22/index.php?action_kouhyou_detail_004_kani=true&JigyosyoCd=2294202680-00&ServiceCd=&Type=search", "url2": "https://www.wille-mc.net" }, "geometry": { "type": "Point", "coordinates": [ 138.4282608, 35.0031423 ] } },
{ "type": "Feature", "properties": { "内容": "看護小規模多機能型居宅介護あみ【看護小規模多機能型居宅介護（複合型サービス）】静岡県静岡市葵区上伝馬23-6介護複合施設らぽーず", "url": "https://www.kaigokensaku.mhlw.go.jp/22/index.php?action_kouhyou_detail_004_kani=true&JigyosyoCd=2294202805-00&ServiceCd=&Type=search", "url2": "http://www.shouei-kai.com" }, "geometry": { "type": "Point", "coordinates": [ 138.372780299999988, 35.010937 ] } },
{ "type": "Feature", "properties": { "内容": "アゴーラしずはた【看護小規模多機能型居宅介護（複合型サービス）】静岡県静岡市葵区与一三丁目4-52", "url": "https://www.kaigokensaku.mhlw.go.jp/22/index.php?action_kouhyou_detail_004_kani=true&JigyosyoCd=2294203027-00&ServiceCd=&Type=search", "url2": "http://www.agora-shizuhata.com/" }, "geometry": { "type": "Point", "coordinates": [ 138.369333, 35.0104072 ] } },
{ "type": "Feature", "properties": { "内容": "看護小規模多機能イノチテラス【看護小規模多機能型居宅介護（複合型サービス）】静岡市駿河区南安倍3丁目12-1ガーデニアガーデン2F", "url": "https://www.kaigokensaku.mhlw.go.jp/22/index.php?action_kouhyou_detail_004_kani=true&JigyosyoCd=2294202706-00&ServiceCd=&Type=search", "url2": null }, "geometry": { "type": "Point", "coordinates": [ 138.3763004, 34.9605015 ] } },
{ "type": "Feature", "properties": { "内容": "秀慈会　看護小規模多機能型居宅介護　ふゆ【看護小規模多機能型居宅介護（複合型サービス）】静岡県静岡市駿河区国吉田６丁目６－６", "url": "https://www.kaigokensaku.mhlw.go.jp/22/index.php?action_kouhyou_detail_004_kani=true&JigyosyoCd=2294201765-00&ServiceCd=&Type=search", "url2": "http://www.shujikai.jp" }, "geometry": { "type": "Point", "coordinates": [ 138.4362324, 34.9885561 ] } },
{ "type": "Feature", "properties": { "内容": "ケアステーションふるさとの家サテライト【看護小規模多機能型居宅介護（複合型サービス）】みずほ1-32-1-2", "url": "https://www.kaigokensaku.mhlw.go.jp/22/index.php?action_kouhyou_detail_004_kani=true&JigyosyoCd=2294202433-00&ServiceCd=&Type=search", "url2": null }, "geometry": { "type": "Point", "coordinates": [ 138.427544, 34.949403 ] } },
{ "type": "Feature", "properties": { "内容": "複合型ナーシングケアもも静岡石田【看護小規模多機能型居宅介護（複合型サービス）】静岡県静岡市駿河区石田3丁目16-39", "url": "https://www.kaigokensaku.mhlw.go.jp/22/index.php?action_kouhyou_detail_004_kani=true&JigyosyoCd=2294202532-00&ServiceCd=&Type=search", "url2": null }, "geometry": { "type": "Point", "coordinates": [ 138.4017809, 34.9551861 ] } },
{ "type": "Feature", "properties": { "内容": "ＴＨＥ　ＭＡＲＩＮＡ【看護小規模多機能型居宅介護（複合型サービス）】中島2579-8", "url": "https://www.kaigokensaku.mhlw.go.jp/22/index.php?action_kouhyou_detail_004_kani=true&JigyosyoCd=2294203217-00&ServiceCd=&Type=search", "url2": null }, "geometry": { "type": "Point", "coordinates": [ 138.401169, 34.933381 ] } },
{ "type": "Feature", "properties": { "内容": "すぴか看護小規模多機能型居宅介護・住宅型有料老人ホーム【看護小規模多機能型居宅介護（複合型サービス）】静岡県静岡市東新田3丁目4-7", "url": "https://www.kaigokensaku.mhlw.go.jp/22/index.php?action_kouhyou_detail_004_kani=true&JigyosyoCd=2294202375-00&ServiceCd=&Type=search", "url2": "https://wille-mc.net/toyamakaigo/office/spica.html" }, "geometry": { "type": "Point", "coordinates": [ 138.370656344844093, 34.946963098045963 ] } },
{ "type": "Feature", "properties": { "内容": "ケアステーションふるさとの家みずほ【看護小規模多機能型居宅介護（複合型サービス）】静岡県静岡市駿河区みずほ5丁目３－１", "url": "https://www.kaigokensaku.mhlw.go.jp/22/index.php?action_kouhyou_detail_004_kani=true&JigyosyoCd=2294201609-00&ServiceCd=&Type=search", "url2": null }, "geometry": { "type": "Point", "coordinates": [ 138.366587100000061, 34.9383609 ] } },
{ "type": "Feature", "properties": { "内容": "看護小規模多機能リベル　県立美術館前【看護小規模多機能型居宅介護（複合型サービス）】静岡県静岡市駿河区谷田34番5号", "url": "https://www.kaigokensaku.mhlw.go.jp/22/index.php?action_kouhyou_detail_004_kani=true&JigyosyoCd=2294203233-00&ServiceCd=&Type=search", "url2": "https://www.libercare.jp/location/multifunctional/kenritsu-bijyutsukan-mae/" }, "geometry": { "type": "Point", "coordinates": [ 138.4409212, 34.995277 ] } },
{ "type": "Feature", "properties": { "内容": "複合型ナーシングケア　もも　清水銀座サテライト【看護小規模多機能型居宅介護（複合型サービス）】静岡県静岡市清水区銀座1-18", "url": "https://www.kaigokensaku.mhlw.go.jp/22/index.php?action_kouhyou_detail_004_kani=true&JigyosyoCd=2294202508-00&ServiceCd=&Type=search", "url2": null }, "geometry": { "type": "Point", "coordinates": [ 138.487181696291515, 35.018957935367403 ] } },
{ "type": "Feature", "properties": { "内容": "ぱるす看護小規模多機能型居宅介護【看護小規模多機能型居宅介護（複合型サービス）】谷田２１番２１号ぱるす看護小規模多機能型居宅介護", "url": "https://www.kaigokensaku.mhlw.go.jp/22/index.php?action_kouhyou_detail_004_kani=true&JigyosyoCd=2294202037-00&ServiceCd=&Type=search", "url2": "https：//www.wille-mc.net/" }, "geometry": { "type": "Point", "coordinates": [ 138.444862199999989, 34.9972387 ] } },
{ "type": "Feature", "properties": { "内容": "看護小規模多機能型居宅介護　ひまわりの家【看護小規模多機能型居宅介護（複合型サービス）】静岡県静岡市清水区村松原１丁目２－２８", "url": "https://www.kaigokensaku.mhlw.go.jp/22/index.php?action_kouhyou_detail_004_kani=true&JigyosyoCd=2294203001-00&ServiceCd=&Type=search", "url2": null }, "geometry": { "type": "Point", "coordinates": [ 138.4892496, 34.9994357 ] } },
{ "type": "Feature", "properties": { "内容": "えいむの丘【看護小規模多機能型居宅介護（複合型サービス）】静岡県静岡市清水区北矢部７８０－２えいむの丘　１階", "url": "https://www.kaigokensaku.mhlw.go.jp/22/index.php?action_kouhyou_detail_004_kani=true&JigyosyoCd=2294201583-00&ServiceCd=&Type=search", "url2": "http://aim-shimizu.com" }, "geometry": { "type": "Point", "coordinates": [ 138.473591242327871, 34.998650432174763 ] } },
{ "type": "Feature", "properties": { "内容": "在宅総合サポートセンター山原【看護小規模多機能型居宅介護（複合型サービス）】静岡県静岡市清水区山原19番地の1在宅総合サポートセンター山原", "url": "https://www.kaigokensaku.mhlw.go.jp/22/index.php?action_kouhyou_detail_004_kani=true&JigyosyoCd=2294201732-00&ServiceCd=&Type=search", "url2": "http://www.udonosato.com/" }, "geometry": { "type": "Point", "coordinates": [ 138.4665761, 35.0396316 ] } },
{ "type": "Feature", "properties": { "内容": "在宅総合メディカルサポートセンター追分【看護小規模多機能型居宅介護（複合型サービス）】静岡県静岡市清水区追分一丁目7-18", "url": "https://www.kaigokensaku.mhlw.go.jp/22/index.php?action_kouhyou_detail_004_kani=true&JigyosyoCd=2294202110-00&ServiceCd=&Type=search", "url2": "http://www.udonosato.com" }, "geometry": { "type": "Point", "coordinates": [ 138.472751300000027, 35.0152514 ] } },
{ "type": "Feature", "properties": { "内容": "えいむの杜【看護小規模多機能型居宅介護（複合型サービス）】静岡県静岡市清水区北矢部851-1えいむの杜", "url": "https://www.kaigokensaku.mhlw.go.jp/22/index.php?action_kouhyou_detail_004_kani=true&JigyosyoCd=2294202607-00&ServiceCd=&Type=search", "url2": "http://aim-shimizu.com" }, "geometry": { "type": "Point", "coordinates": [ 138.474598673016374, 34.998386298530043 ] } },
{ "type": "Feature", "properties": { "内容": "セントケア看護小規模八坂東【看護小規模多機能型居宅介護（複合型サービス）】静岡市清水区八坂東二丁目7-1", "url": "https://www.kaigokensaku.mhlw.go.jp/22/index.php?action_kouhyou_detail_004_kani=true&JigyosyoCd=2294203076-00&ServiceCd=&Type=search", "url2": "https://www.saint-care.com/" }, "geometry": { "type": "Point", "coordinates": [ 138.47901870000004, 35.0349816 ] } },
{ "type": "Feature", "properties": { "内容": "複合型ナーシングケアもも【看護小規模多機能型居宅介護（複合型サービス）】静岡県清水区有東坂3番5号", "url": "https://www.kaigokensaku.mhlw.go.jp/22/index.php?action_kouhyou_detail_004_kani=true&JigyosyoCd=2294201229-00&ServiceCd=&Type=search", "url2": "www.earth-group.co.jp" }, "geometry": { "type": "Point", "coordinates": [ 138.463616199999933, 35.008807500000017 ] } },
{ "type": "Feature", "properties": { "内容": "看護小規模曳馬【看護小規模多機能型居宅介護（複合型サービス）】静岡県浜松市中央区曳馬2-4-13", "url": "https://www.kaigokensaku.mhlw.go.jp/22/index.php?action_kouhyou_detail_004_kani=true&JigyosyoCd=2297200483-00&ServiceCd=&Type=search", "url2": null }, "geometry": { "type": "Point", "coordinates": [ 137.74219791904909, 34.725872817320891 ] } },
{ "type": "Feature", "properties": { "内容": "セントケア看護小規模南浅田【看護小規模多機能型居宅介護（複合型サービス）】南浅田1丁目10番10号", "url": "https://www.kaigokensaku.mhlw.go.jp/22/index.php?action_kouhyou_detail_004_kani=true&JigyosyoCd=2297201556-00&ServiceCd=&Type=search", "url2": "https://care-net.biz/22/saint.shizuoka/" }, "geometry": { "type": "Point", "coordinates": [ 137.730416100000014, 34.6915476 ] } },
{ "type": "Feature", "properties": { "内容": "看護小規模多機能ホームろくじゅ【看護小規模多機能型居宅介護（複合型サービス）】静岡県浜松市北区三ケ日町平山678-24", "url": "https://www.kaigokensaku.mhlw.go.jp/22/index.php?action_kouhyou_detail_004_kani=true&JigyosyoCd=2297200988-00&ServiceCd=&Type=search", "url2": "http://www.rokujyu.co.jp" }, "geometry": { "type": "Point", "coordinates": [ 137.530384441664211, 34.824987979230393 ] } },
{ "type": "Feature", "properties": { "内容": "看護小規模多機能型居宅介護事業所　汐かぜ【看護小規模多機能型居宅介護（複合型サービス）】静岡県沼津市志下451", "url": "https://www.kaigokensaku.mhlw.go.jp/22/index.php?action_kouhyou_detail_004_kani=true&JigyosyoCd=2291100556-00&ServiceCd=&Type=search", "url2": "https://www.fukkou-kai.jp/nrh/" }, "geometry": { "type": "Point", "coordinates": [ 138.8837727, 35.0653905 ] } },
{ "type": "Feature", "properties": { "内容": "看護小規模多機能型居宅介護ブルーム【看護小規模多機能型居宅介護（複合型サービス）】静岡県沼津市高砂町13－5", "url": "https://www.kaigokensaku.mhlw.go.jp/22/index.php?action_kouhyou_detail_004_kani=true&JigyosyoCd=2291100440-00&ServiceCd=&Type=search", "url2": "mountfield.jp" }, "geometry": { "type": "Point", "coordinates": [ 138.859252652735961, 35.131370078977241 ] } },
{ "type": "Feature", "properties": { "内容": "看護小規模多機能型居宅介護支援事業所　せいれい緑町【看護小規模多機能型居宅介護（複合型サービス）】静岡県沼津市本字下一丁田898-1", "url": "https://www.kaigokensaku.mhlw.go.jp/22/index.php?action_kouhyou_detail_004_kani=true&JigyosyoCd=2291100176-00&ServiceCd=&Type=search", "url2": "http://www.seirei.or.jp/numazu-hp/" }, "geometry": { "type": "Point", "coordinates": [ 138.851584300000013, 35.094709 ] } },
{ "type": "Feature", "properties": { "内容": "看護小規模多機能型居宅介護　ナースの森・熱海【看護小規模多機能型居宅介護（複合型サービス）】静岡県熱海市下多賀1032-1", "url": "https://www.kaigokensaku.mhlw.go.jp/22/index.php?action_kouhyou_detail_004_kani=true&JigyosyoCd=2290500228-00&ServiceCd=&Type=search", "url2": "https://na-sunomori.jp/" }, "geometry": { "type": "Point", "coordinates": [ 139.066568033729595, 35.0496342779294 ] } },
{ "type": "Feature", "properties": { "内容": "看護小規模多機能型居宅介護事業所ひより【看護小規模多機能型居宅介護（複合型サービス）】静岡県富士宮市山宮２０５１番地の１", "url": "https://www.kaigokensaku.mhlw.go.jp/22/index.php?action_kouhyou_detail_004_kani=true&JigyosyoCd=2292100381-00&ServiceCd=&Type=search", "url2": "https://furarahiyori.jimdo.com/" }, "geometry": { "type": "Point", "coordinates": [ 138.6539268, 35.2827175 ] } },
{ "type": "Feature", "properties": { "内容": "メディケアセンター心音【看護小規模多機能型居宅介護（複合型サービス）】静岡県富士宮市北町１５－７", "url": "https://www.kaigokensaku.mhlw.go.jp/22/index.php?action_kouhyou_detail_004_kani=true&JigyosyoCd=2292100365-00&ServiceCd=&Type=search", "url2": null }, "geometry": { "type": "Point", "coordinates": [ 138.612485, 35.234158 ] } },
{ "type": "Feature", "properties": { "内容": "看護小規模多機能型居宅介護　ナースの森【看護小規模多機能型居宅介護（複合型サービス）】静岡県伊東市渚町5-38", "url": "https://www.kaigokensaku.mhlw.go.jp/22/index.php?action_kouhyou_detail_004_kani=true&JigyosyoCd=2290400254-00&ServiceCd=&Type=search", "url2": "https://na-sunomori.jp" }, "geometry": { "type": "Point", "coordinates": [ 139.100098367320243, 34.971385882774882 ] } },
{ "type": "Feature", "properties": { "内容": "看護小規模多機能型居宅介護２人３脚【看護小規模多機能型居宅介護（複合型サービス）】静岡県富士市境４９９番地の１", "url": "https://www.kaigokensaku.mhlw.go.jp/22/index.php?action_kouhyou_detail_004_kani=true&JigyosyoCd=2292300056-00&ServiceCd=&Type=search", "url2": "https://care-net.biz/22/ni2n3kyaku/" }, "geometry": { "type": "Point", "coordinates": [ 138.764447799999971, 35.154506 ] } },
{ "type": "Feature", "properties": { "内容": "みぎわの里【看護小規模多機能型居宅介護（複合型サービス）】静岡県富士市今泉2196-1", "url": "https://www.kaigokensaku.mhlw.go.jp/22/index.php?action_kouhyou_detail_004_kani=true&JigyosyoCd=2292300460-00&ServiceCd=&Type=search", "url2": "http://www.fuyoukai.org" }, "geometry": { "type": "Point", "coordinates": [ 138.685776762040774, 35.172161642187291 ] } },
{ "type": "Feature", "properties": { "内容": "看護小規模多機能型居宅介護　喜あつはら【看護小規模多機能型居宅介護（複合型サービス）】静岡県富士市厚原370番地", "url": "https://www.kaigokensaku.mhlw.go.jp/22/index.php?action_kouhyou_detail_004_kani=true&JigyosyoCd=2292300601-00&ServiceCd=&Type=search", "url2": "https://www.shinfuji.or.jp/atuhara" }, "geometry": { "type": "Point", "coordinates": [ 138.656926689816373, 35.180809058940525 ] } },
{ "type": "Feature", "properties": { "内容": "よろこび宮島【看護小規模多機能型居宅介護（複合型サービス）】静岡県富士市宮島85番地10", "url": "https://www.kaigokensaku.mhlw.go.jp/22/index.php?action_kouhyou_detail_004_kani=true&JigyosyoCd=2292300528-00&ServiceCd=&Type=search", "url2": "http://fmc-hh.co.jp/" }, "geometry": { "type": "Point", "coordinates": [ 138.653677499999958, 35.1437144 ] } },
{ "type": "Feature", "properties": { "内容": "ふじみ看護小規模多機能型居宅介護・ふじみ住宅型有料老人ホーム【看護小規模多機能型居宅介護（複合型サービス）】静岡県富士市柚木398-5", "url": "https://www.kaigokensaku.mhlw.go.jp/22/index.php?action_kouhyou_detail_004_kani=true&JigyosyoCd=2292300783-00&ServiceCd=&Type=search", "url2": "www.wille-mc.net/fujimi" }, "geometry": { "type": "Point", "coordinates": [ 138.3743073, 34.9448255 ] } },
{ "type": "Feature", "properties": { "内容": "セントケア看護小規模三本松【看護小規模多機能型居宅介護（複合型サービス）】見付501番地1", "url": "https://www.kaigokensaku.mhlw.go.jp/22/index.php?action_kouhyou_detail_004_kani=true&JigyosyoCd=2296900141-00&ServiceCd=&Type=search", "url2": null }, "geometry": { "type": "Point", "coordinates": [ 137.867954200000014, 34.7278539 ] } },
{ "type": "Feature", "properties": { "内容": "ぺちか看護小規模多機能型居宅介護【看護小規模多機能型居宅介護（複合型サービス）】静岡県焼津市与惣次2-9-5", "url": "https://www.kaigokensaku.mhlw.go.jp/22/index.php?action_kouhyou_detail_004_kani=true&JigyosyoCd=2295100339-00&ServiceCd=&Type=search", "url2": "https://www.toyamakaigo.net/" }, "geometry": { "type": "Point", "coordinates": [ 138.312685261136153, 34.846210059514789 ] } },
{ "type": "Feature", "properties": { "内容": "西焼津看護多機能ホーム「池ちゃん家」【看護小規模多機能型居宅介護（複合型サービス）】静岡県焼津市五ケ堀之内530-3", "url": "https://www.kaigokensaku.mhlw.go.jp/22/index.php?action_kouhyou_detail_004_kani=true&JigyosyoCd=2295100370-00&ServiceCd=&Type=search", "url2": null }, "geometry": { "type": "Point", "coordinates": [ 138.298772150926169, 34.863825206299687 ] } },
{ "type": "Feature", "properties": { "内容": "複合型ナーシングケアもも藤枝【看護小規模多機能型居宅介護（複合型サービス）】静岡県藤枝市茶町4丁目18-5", "url": "https://www.kaigokensaku.mhlw.go.jp/22/index.php?action_kouhyou_detail_004_kani=true&JigyosyoCd=2295300293-00&ServiceCd=&Type=search", "url2": "www.earth-group.co.jp" }, "geometry": { "type": "Point", "coordinates": [ 138.242387, 34.873225 ] } },
{ "type": "Feature", "properties": { "内容": "びおら看護小規模多機能型居宅介護・住宅型有料老人ホーム【看護小規模多機能型居宅介護（複合型サービス）】高柳2丁目7-25", "url": "https://www.kaigokensaku.mhlw.go.jp/22/index.php?action_kouhyou_detail_004_kani=true&JigyosyoCd=2295300368-00&ServiceCd=&Type=search", "url2": "www.wille-mc.net/viola" }, "geometry": { "type": "Point", "coordinates": [ 138.268067754670142, 34.848319695476079 ] } },
{ "type": "Feature", "properties": { "内容": "看護小規模多機能型居宅介護とうか【看護小規模多機能型居宅介護（複合型サービス）】静岡県袋井市久能2516-2", "url": "https://www.kaigokensaku.mhlw.go.jp/22/index.php?action_kouhyou_detail_004_kani=true&JigyosyoCd=2297300085-00&ServiceCd=&Type=search", "url2": "http://eimeikai.upper.jp/" }, "geometry": { "type": "Point", "coordinates": [ 137.917585499999973, 34.7673046 ] } },
{ "type": "Feature", "properties": { "内容": "看護小規模多機能型共同生活介護滝頭【看護小規模多機能型居宅介護（複合型サービス）】静岡県裾野市茶畑字滝ヶ窪1072-3", "url": "https://www.kaigokensaku.mhlw.go.jp/22/index.php?action_kouhyou_detail_004_kani=true&JigyosyoCd=2291400089-00&ServiceCd=&Type=search", "url2": "http://kashokai.or.jp" }, "geometry": { "type": "Point", "coordinates": [ 138.9198471, 35.1728938 ] } },
{ "type": "Feature", "properties": { "内容": "看護小規模多機能型居宅介護事業所　レクロス小立野【看護小規模多機能型居宅介護（複合型サービス）】静岡県伊豆市小立野100-2", "url": "https://www.kaigokensaku.mhlw.go.jp/22/index.php?action_kouhyou_detail_004_kani=true&JigyosyoCd=2290700067-00&ServiceCd=&Type=search", "url2": "http://izurc.jp/" }, "geometry": { "type": "Point", "coordinates": [ 138.945357800000011, 34.9760307 ] } },
{ "type": "Feature", "properties": { "内容": "看護小規模多機能　ラポールあい【看護小規模多機能型居宅介護（複合型サービス）】静岡県伊豆の国市四日町378-2時くうかん", "url": "https://www.kaigokensaku.mhlw.go.jp/22/index.php?action_kouhyou_detail_004_kani=true&JigyosyoCd=2290800073-00&ServiceCd=&Type=search", "url2": "http://rapoai.co.jp" }, "geometry": { "type": "Point", "coordinates": [ 138.946787, 35.0554935 ] } },
{ "type": "Feature", "properties": { "内容": "看護小規模多機能型居宅介護事業所　希望のわだち長久保【看護小規模多機能型居宅介護（複合型サービス）】静岡県駿東郡長泉町下長窪789-1", "url": "https://www.kaigokensaku.mhlw.go.jp/22/index.php?action_kouhyou_detail_004_kani=true&JigyosyoCd=2291300248-00&ServiceCd=&Type=search", "url2": "https://www.kibou-nagakubo.com/" }, "geometry": { "type": "Point", "coordinates": [ 138.8860163, 35.1478356 ] } }
]
}
