{
"type": "FeatureCollection",
"name": "geo_22_通所リハビリテーション",
"crs": { "type": "name", "properties": { "name": "urn:ogc:def:crs:OGC:1.3:CRS84" } },
"features": [
{ "type": "Feature", "properties": { "内容": "大石内科循環器科通所リハビリテーション【通所リハビリテーション】静岡市葵区鷹匠２丁目６番１号", "url": "https://www.kaigokensaku.mhlw.go.jp/22/index.php?action_kouhyou_detail_004_kani=true&JigyosyoCd=2214111136-00&ServiceCd=160&Type=search", "url2": "http://oishi-shunkei.com/naika/" }, "geometry": { "type": "Point", "coordinates": [ 138.3874813, 34.9773479 ] } },
{ "type": "Feature", "properties": { "内容": "ケアセンター瀬名【通所リハビリテーション】静岡市葵区長尾３９番地の5", "url": "https://www.kaigokensaku.mhlw.go.jp/22/index.php?action_kouhyou_detail_004_kani=true&JigyosyoCd=2254180017-00&ServiceCd=160&Type=search", "url2": "http://kojinkai-iryou.com/caresena/" }, "geometry": { "type": "Point", "coordinates": [ 138.428126900000052, 35.0365392 ] } },
{ "type": "Feature", "properties": { "内容": "デイケアアプリ三宅整形外科医院【通所リハビリテーション】静岡県静岡市葵区唐瀬1-3-17", "url": "https://www.kaigokensaku.mhlw.go.jp/22/index.php?action_kouhyou_detail_004_kani=true&JigyosyoCd=2214111219-00&ServiceCd=160&Type=search", "url2": null }, "geometry": { "type": "Point", "coordinates": [ 138.385249288954952, 35.008441384021701 ] } },
{ "type": "Feature", "properties": { "内容": "浜本整形通所リハセンター【通所リハビリテーション】静岡県静岡市葵区城北40－5", "url": "https://www.kaigokensaku.mhlw.go.jp/22/index.php?action_kouhyou_detail_004_kani=true&JigyosyoCd=2214111581-00&ServiceCd=160&Type=search", "url2": "http://hamamotoseikei.com/" }, "geometry": { "type": "Point", "coordinates": [ 138.3952994, 35.0004314 ] } },
{ "type": "Feature", "properties": { "内容": "長谷通りクリニック　デイケアセンター【通所リハビリテーション】静岡県静岡市葵区安東１－２１－１７", "url": "https://www.kaigokensaku.mhlw.go.jp/22/index.php?action_kouhyou_detail_004_kani=true&JigyosyoCd=2214210367-00&ServiceCd=160&Type=search", "url2": null }, "geometry": { "type": "Point", "coordinates": [ 138.383417563754278, 34.984599889555064 ] } },
{ "type": "Feature", "properties": { "内容": "まきた整形外科クリニック【通所リハビリテーション】静岡市葵区西草深町１−１１", "url": "https://www.kaigokensaku.mhlw.go.jp/22/index.php?action_kouhyou_detail_004_kani=true&JigyosyoCd=2214210813-00&ServiceCd=160&Type=search", "url2": "http:www.makita-seikeigeka-clinic.com" }, "geometry": { "type": "Point", "coordinates": [ 138.3789184, 34.9789911 ] } },
{ "type": "Feature", "properties": { "内容": "駿府の杜クリニック【通所リハビリテーション】追手町10番新中町ビル301", "url": "https://www.kaigokensaku.mhlw.go.jp/22/index.php?action_kouhyou_detail_004_kani=true&JigyosyoCd=2214210896-00&ServiceCd=160&Type=search", "url2": "https://www.r-and-o.jp/sunpunomori/" }, "geometry": { "type": "Point", "coordinates": [ 138.379770254492172, 34.977477339408551 ] } },
{ "type": "Feature", "properties": { "内容": "つどいのおかクリニック【通所リハビリテーション】静岡市葵区本通西町39", "url": "https://www.kaigokensaku.mhlw.go.jp/22/index.php?action_kouhyou_detail_004_kani=true&JigyosyoCd=2214211209-00&ServiceCd=160&Type=search", "url2": "http://eishinkai.tsudoinooka.com" }, "geometry": { "type": "Point", "coordinates": [ 138.3716696, 34.9646563 ] } },
{ "type": "Feature", "properties": { "内容": "長谷通りクリニック大岩デイケアセンター【通所リハビリテーション】静岡県静岡市葵区大岩本町２２－１６", "url": "https://www.kaigokensaku.mhlw.go.jp/22/index.php?action_kouhyou_detail_004_kani=true&JigyosyoCd=2214211894-00&ServiceCd=160&Type=search", "url2": null }, "geometry": { "type": "Point", "coordinates": [ 138.378333800000036, 34.9870233 ] } },
{ "type": "Feature", "properties": { "内容": "介護老人保健施設　楽寿　通所リハビリテーション事業所【通所リハビリテーション】静岡市葵区与左衛門新田98-11", "url": "https://www.kaigokensaku.mhlw.go.jp/22/index.php?action_kouhyou_detail_004_kani=true&JigyosyoCd=2254180033-00&ServiceCd=160&Type=search", "url2": "http://www.rakuju.or.jp" }, "geometry": { "type": "Point", "coordinates": [ 138.358210900000017, 35.0144962 ] } },
{ "type": "Feature", "properties": { "内容": "介護老人保健施設こみに通所リハビリテーション【通所リハビリテーション】静岡市葵区赤松8-16", "url": "https://www.kaigokensaku.mhlw.go.jp/22/index.php?action_kouhyou_detail_004_kani=true&JigyosyoCd=2254180041-00&ServiceCd=160&Type=search", "url2": "http://www.communi.or.jp" }, "geometry": { "type": "Point", "coordinates": [ 138.3964019, 35.0248563 ] } },
{ "type": "Feature", "properties": { "内容": "介護老人保健施設あみ　通所リハビリテーション【通所リハビリテーション】静岡市葵区福田ケ谷７３－２", "url": "https://www.kaigokensaku.mhlw.go.jp/22/index.php?action_kouhyou_detail_004_kani=true&JigyosyoCd=2254180074-00&ServiceCd=160&Type=search", "url2": "http://www.shouei-kai.com" }, "geometry": { "type": "Point", "coordinates": [ 138.379736800000046, 35.0262198 ] } },
{ "type": "Feature", "properties": { "内容": "通所リハビリテーション事業所アース【通所リハビリテーション】静岡市葵区柚木９０番地の１エスコートタウン静清", "url": "https://www.kaigokensaku.mhlw.go.jp/22/index.php?action_kouhyou_detail_004_kani=true&JigyosyoCd=2254280114-00&ServiceCd=160&Type=search", "url2": "https://www.r-and-o.jp/shizuoka-hmcc/earth/" }, "geometry": { "type": "Point", "coordinates": [ 138.405662900000038, 34.9801314 ] } },
{ "type": "Feature", "properties": { "内容": "介護老人保健施設　星のしずく【通所リハビリテーション】静岡県静岡市葵区城北87番地", "url": "https://www.kaigokensaku.mhlw.go.jp/22/index.php?action_kouhyou_detail_004_kani=true&JigyosyoCd=2254280148-00&ServiceCd=160&Type=search", "url2": "http://www.hoshino-shizuku.jp" }, "geometry": { "type": "Point", "coordinates": [ 138.393985499999985, 35.0015868 ] } },
{ "type": "Feature", "properties": { "内容": "介護老人保健施設　リハビリパーク駿府【通所リハビリテーション】静岡県静岡市葵区籠上８番６号", "url": "https://www.kaigokensaku.mhlw.go.jp/22/index.php?action_kouhyou_detail_004_kani=true&JigyosyoCd=2254280163-00&ServiceCd=160&Type=search", "url2": null }, "geometry": { "type": "Point", "coordinates": [ 138.3683426, 34.9895299 ] } },
{ "type": "Feature", "properties": { "内容": "介護老人保健施設　静岡徳洲苑【通所リハビリテーション】牧ケ谷811－15", "url": "https://www.kaigokensaku.mhlw.go.jp/22/index.php?action_kouhyou_detail_004_kani=true&JigyosyoCd=2254280213-00&ServiceCd=160&Type=search", "url2": "http://tokushuen.com/" }, "geometry": { "type": "Point", "coordinates": [ 138.352996, 34.970716300000014 ] } },
{ "type": "Feature", "properties": { "内容": "サテライト介護老人保健施設かるむ【通所リハビリテーション】上伝馬23-6", "url": "https://www.kaigokensaku.mhlw.go.jp/22/index.php?action_kouhyou_detail_004_kani=true&JigyosyoCd=2254280221-00&ServiceCd=160&Type=search", "url2": "https://www.shouei-kai.com/care" }, "geometry": { "type": "Point", "coordinates": [ 138.37264443392948, 35.010119941635168 ] } },
{ "type": "Feature", "properties": { "内容": "山梨整形外科付属介護リハビリテーション【通所リハビリテーション】静岡市葵区駒形通２丁目７－２２", "url": "https://www.kaigokensaku.mhlw.go.jp/22/index.php?action_kouhyou_detail_004_kani=true&JigyosyoCd=2214111524-00&ServiceCd=160&Type=search", "url2": "http://yamanashi-seikei.jp/" }, "geometry": { "type": "Point", "coordinates": [ 138.378024099999948, 34.96871560000001 ] } },
{ "type": "Feature", "properties": { "内容": "介護老人保健施設萩の里【通所リハビリテーション】静岡市駿河区西大谷１２－５", "url": "https://www.kaigokensaku.mhlw.go.jp/22/index.php?action_kouhyou_detail_004_kani=true&JigyosyoCd=2254180058-00&ServiceCd=160&Type=search", "url2": "https://www.shujikai.jp/" }, "geometry": { "type": "Point", "coordinates": [ 138.42699790000006, 34.9523736 ] } },
{ "type": "Feature", "properties": { "内容": "介護老人保健施設かりん【通所リハビリテーション】静岡県静岡市駿河区宇津ノ谷1-1", "url": "https://www.kaigokensaku.mhlw.go.jp/22/index.php?action_kouhyou_detail_004_kani=true&JigyosyoCd=2254280108-00&ServiceCd=160&Type=search", "url2": "http://seiyukai6666.com/" }, "geometry": { "type": "Point", "coordinates": [ 138.313756099999978, 34.9391957 ] } },
{ "type": "Feature", "properties": { "内容": "医療法人　福恵会　東新田福地診療院【通所リハビリテーション】東新田５丁目１６番地１０号", "url": "https://www.kaigokensaku.mhlw.go.jp/22/index.php?action_kouhyou_detail_004_kani=true&JigyosyoCd=2214111771-00&ServiceCd=160&Type=search", "url2": null }, "geometry": { "type": "Point", "coordinates": [ 138.372769799999986, 34.9417716 ] } },
{ "type": "Feature", "properties": { "内容": "医療法人社団栄成会【通所リハビリテーション】片山８－１５", "url": "https://www.kaigokensaku.mhlw.go.jp/22/index.php?action_kouhyou_detail_004_kani=true&JigyosyoCd=2214112043-00&ServiceCd=160&Type=search", "url2": "http//oya-seikei.com/index.html" }, "geometry": { "type": "Point", "coordinates": [ 138.4231145, 34.9661473 ] } },
{ "type": "Feature", "properties": { "内容": "堀田内科医院【通所リハビリテーション】宮竹1-4-7", "url": "https://www.kaigokensaku.mhlw.go.jp/22/index.php?action_kouhyou_detail_004_kani=true&JigyosyoCd=2214210466-00&ServiceCd=160&Type=search", "url2": "https://hottanaika.jp/" }, "geometry": { "type": "Point", "coordinates": [ 138.414501800000039, 34.953595600000014 ] } },
{ "type": "Feature", "properties": { "内容": "青島整形外科　通所リハビリテーション　青山【通所リハビリテーション】静岡県静岡市駿河区池田401-2", "url": "https://www.kaigokensaku.mhlw.go.jp/22/index.php?action_kouhyou_detail_004_kani=true&JigyosyoCd=2214210540-00&ServiceCd=160&Type=search", "url2": "http://meigokai.or.jp/" }, "geometry": { "type": "Point", "coordinates": [ 138.423348118493664, 34.986317148998715 ] } },
{ "type": "Feature", "properties": { "内容": "介護老人保健施設サンライズ大浜【通所リハビリテーション】静岡県静岡市駿河区西島５２８番地", "url": "https://www.kaigokensaku.mhlw.go.jp/22/index.php?action_kouhyou_detail_004_kani=true&JigyosyoCd=2254180025-00&ServiceCd=160&Type=search", "url2": "http://care-net.biz/22/sunriseohhama/" }, "geometry": { "type": "Point", "coordinates": [ 138.4027893, 34.9434993 ] } },
{ "type": "Feature", "properties": { "内容": "介護老人保健施設　葵の里【通所リハビリテーション】静岡市駿河区小坂３７６－１", "url": "https://www.kaigokensaku.mhlw.go.jp/22/index.php?action_kouhyou_detail_004_kani=true&JigyosyoCd=2254180066-00&ServiceCd=160&Type=search", "url2": null }, "geometry": { "type": "Point", "coordinates": [ 138.352299600000038, 34.9289617 ] } },
{ "type": "Feature", "properties": { "内容": "ケアセンター池田の街通所リハビリテーション【通所リハビリテーション】静岡市駿河区池田185番地1", "url": "https://www.kaigokensaku.mhlw.go.jp/22/index.php?action_kouhyou_detail_004_kani=true&JigyosyoCd=2254280090-00&ServiceCd=160&Type=search", "url2": "http://www.houtoku-kai.or.jp/" }, "geometry": { "type": "Point", "coordinates": [ 138.4218919, 34.9852507 ] } },
{ "type": "Feature", "properties": { "内容": "通所リハビリテーションこよりは【通所リハビリテーション】静岡県静岡市駿河区曲金7丁目8番10号", "url": "https://www.kaigokensaku.mhlw.go.jp/22/index.php?action_kouhyou_detail_004_kani=true&JigyosyoCd=2214211191-00&ServiceCd=160&Type=search", "url2": "http://www.e-naika.jp/koyoriha.html" }, "geometry": { "type": "Point", "coordinates": [ 138.415141799999986, 34.9818835 ] } },
{ "type": "Feature", "properties": { "内容": "静岡徳洲会病院　通所リハビリテーション【通所リハビリテーション】静岡市駿河区下川原南11-1", "url": "https://www.kaigokensaku.mhlw.go.jp/22/index.php?action_kouhyou_detail_004_kani=true&JigyosyoCd=2274201553-00&ServiceCd=160&Type=search", "url2": "http://www.shizutoku.jp/" }, "geometry": { "type": "Point", "coordinates": [ 138.384263499999946, 34.9313255 ] } },
{ "type": "Feature", "properties": { "内容": "デイケアキャメル【通所リハビリテーション】静岡県静岡市清水区押切997-5", "url": "https://www.kaigokensaku.mhlw.go.jp/22/index.php?action_kouhyou_detail_004_kani=true&JigyosyoCd=2254280197-00&ServiceCd=160&Type=search", "url2": "http://seijukai-gp.jp/" }, "geometry": { "type": "Point", "coordinates": [ 138.4546914, 35.0279281 ] } },
{ "type": "Feature", "properties": { "内容": "デイ・ケアセンター　「ふる里」【通所リハビリテーション】静岡市清水区下野西7番２５号", "url": "https://www.kaigokensaku.mhlw.go.jp/22/index.php?action_kouhyou_detail_004_kani=true&JigyosyoCd=2213210368-00&ServiceCd=160&Type=search", "url2": null }, "geometry": { "type": "Point", "coordinates": [ 138.46642339999994, 35.0364848 ] } },
{ "type": "Feature", "properties": { "内容": "田村医院通所リハビリテーション【通所リハビリテーション】静岡県静岡市清水区船越東町180-9", "url": "https://www.kaigokensaku.mhlw.go.jp/22/index.php?action_kouhyou_detail_004_kani=true&JigyosyoCd=2213210848-00&ServiceCd=160&Type=search", "url2": null }, "geometry": { "type": "Point", "coordinates": [ 138.472287800000032, 35.0039389 ] } },
{ "type": "Feature", "properties": { "内容": "ＪＡ静岡厚生連　清水厚生病院【通所リハビリテーション】静岡市清水区庵原町578-1", "url": "https://www.kaigokensaku.mhlw.go.jp/22/index.php?action_kouhyou_detail_004_kani=true&JigyosyoCd=2213210137-00&ServiceCd=160&Type=search", "url2": "http://www.ja-shizuoka.or.jp/k-shimizu/top/index.htwl" }, "geometry": { "type": "Point", "coordinates": [ 138.474397599999946, 35.0455451 ] } },
{ "type": "Feature", "properties": { "内容": "伊藤医院通所リハビリテーション【通所リハビリテーション】静岡県静岡市清水区平川地17-38", "url": "https://www.kaigokensaku.mhlw.go.jp/22/index.php?action_kouhyou_detail_004_kani=true&JigyosyoCd=2213210657-00&ServiceCd=160&Type=search", "url2": null }, "geometry": { "type": "Point", "coordinates": [ 138.460663599999947, 35.0101128 ] } },
{ "type": "Feature", "properties": { "内容": "リハビリコート竜宮【通所リハビリテーション】静岡県静岡市清水区押切1620", "url": "https://www.kaigokensaku.mhlw.go.jp/22/index.php?action_kouhyou_detail_004_kani=true&JigyosyoCd=2214210730-00&ServiceCd=160&Type=search", "url2": "https://urashima-ryugu.com/rehabilicourt/" }, "geometry": { "type": "Point", "coordinates": [ 138.454980200000023, 35.0296825 ] } },
{ "type": "Feature", "properties": { "内容": "リハビリスクエア竜宮【通所リハビリテーション】静岡県静岡市清水区楠新田281-1", "url": "https://www.kaigokensaku.mhlw.go.jp/22/index.php?action_kouhyou_detail_004_kani=true&JigyosyoCd=2214211506-00&ServiceCd=160&Type=search", "url2": "https://urasima-ryugu.com" }, "geometry": { "type": "Point", "coordinates": [ 138.443740003041057, 35.008721343366666 ] } },
{ "type": "Feature", "properties": { "内容": "リハビリステーション竜宮【通所リハビリテーション】静岡県静岡市押切1456", "url": "https://www.kaigokensaku.mhlw.go.jp/22/index.php?action_kouhyou_detail_004_kani=true&JigyosyoCd=2214211746-00&ServiceCd=160&Type=search", "url2": "https://urashima-ryugu.com/" }, "geometry": { "type": "Point", "coordinates": [ 138.456114599999978, 35.0285192 ] } },
{ "type": "Feature", "properties": { "内容": "介護老人保健施設　あかつきの園【通所リハビリテーション】静岡市清水区駒越2883-1", "url": "https://www.kaigokensaku.mhlw.go.jp/22/index.php?action_kouhyou_detail_004_kani=true&JigyosyoCd=2253280016-00&ServiceCd=160&Type=search", "url2": "http://www.seijin-kai.or.jp/" }, "geometry": { "type": "Point", "coordinates": [ 138.4776157, 34.9746306 ] } },
{ "type": "Feature", "properties": { "内容": "介護老人保健施設　ケア・センター　ひまわり【通所リハビリテーション】静岡市清水区村松原1-2-34", "url": "https://www.kaigokensaku.mhlw.go.jp/22/index.php?action_kouhyou_detail_004_kani=true&JigyosyoCd=2253280024-00&ServiceCd=160&Type=search", "url2": "http://www.seishukai-h.com" }, "geometry": { "type": "Point", "coordinates": [ 138.489491899999962, 34.9997064 ] } },
{ "type": "Feature", "properties": { "内容": "介護老人保健施設　アリス草薙【通所リハビリテーション】静岡県静岡市清水区草薙424-7", "url": "https://www.kaigokensaku.mhlw.go.jp/22/index.php?action_kouhyou_detail_004_kani=true&JigyosyoCd=2253280032-00&ServiceCd=160&Type=search", "url2": "www.hakukeikai.jp/alice-kusanagi/" }, "geometry": { "type": "Point", "coordinates": [ 138.455276545368946, 34.98682606024083 ] } },
{ "type": "Feature", "properties": { "内容": "介護老人保健施設きよみの里【通所リハビリテーション】静岡市清水区興津東町1829", "url": "https://www.kaigokensaku.mhlw.go.jp/22/index.php?action_kouhyou_detail_004_kani=true&JigyosyoCd=2253280040-00&ServiceCd=160&Type=search", "url2": "http://www.ja-shizuoka.or.jp/k-kiyomi" }, "geometry": { "type": "Point", "coordinates": [ 138.5348606, 35.061791 ] } },
{ "type": "Feature", "properties": { "内容": "介護老人保健施設　鶴舞乃城【通所リハビリテーション】静岡市清水区庵原町3158番地", "url": "https://www.kaigokensaku.mhlw.go.jp/22/index.php?action_kouhyou_detail_004_kani=true&JigyosyoCd=2254280023-00&ServiceCd=160&Type=search", "url2": "http://tsurumainoshiro.jp/" }, "geometry": { "type": "Point", "coordinates": [ 138.468117300000017, 35.0577573 ] } },
{ "type": "Feature", "properties": { "内容": "デイケアセンター健寿会【通所リハビリテーション】静岡県静岡市清水区草ヶ谷字クツソウヶ谷624-22老人保健施設もくれん　１階", "url": "https://www.kaigokensaku.mhlw.go.jp/22/index.php?action_kouhyou_detail_004_kani=true&JigyosyoCd=2254280122-00&ServiceCd=160&Type=search", "url2": null }, "geometry": { "type": "Point", "coordinates": [ 138.490983799999981, 35.0512814 ] } },
{ "type": "Feature", "properties": { "内容": "サルーテ・アリス　リハビリセンター【通所リハビリテーション】静岡市清水区草薙２－２４－１５", "url": "https://www.kaigokensaku.mhlw.go.jp/22/index.php?action_kouhyou_detail_004_kani=true&JigyosyoCd=2274203302-00&ServiceCd=160&Type=search", "url2": null }, "geometry": { "type": "Point", "coordinates": [ 138.445226, 35.0033826 ] } },
{ "type": "Feature", "properties": { "内容": "桂の森リハビリテーションセンター【通所リハビリテーション】静岡県浜松市北区豊岡町398", "url": "https://www.kaigokensaku.mhlw.go.jp/22/index.php?action_kouhyou_detail_004_kani=true&JigyosyoCd=2217211107-00&ServiceCd=160&Type=search", "url2": "http://tanaka-seikeigeka.com/" }, "geometry": { "type": "Point", "coordinates": [ 137.7307525, 34.7916141 ] } },
{ "type": "Feature", "properties": { "内容": "リハタイム【通所リハビリテーション】静岡県浜松市北区初生町381-7", "url": "https://www.kaigokensaku.mhlw.go.jp/22/index.php?action_kouhyou_detail_004_kani=true&JigyosyoCd=2217211297-00&ServiceCd=160&Type=search", "url2": "www.kamiya-seikei.com/" }, "geometry": { "type": "Point", "coordinates": [ 137.727926207934587, 34.76398526544709 ] } },
{ "type": "Feature", "properties": { "内容": "高橋整形リハビリクリニック　通所リハビリテーション　健寿【通所リハビリテーション】静岡県浜松市中区尾張町125-19", "url": "https://www.kaigokensaku.mhlw.go.jp/22/index.php?action_kouhyou_detail_004_kani=true&JigyosyoCd=2217111539-00&ServiceCd=160&Type=search", "url2": "https://www.sugawa-seikeigeka.jp/" }, "geometry": { "type": "Point", "coordinates": [ 137.729745504893458, 34.710420448847366 ] } },
{ "type": "Feature", "properties": { "内容": "桂の森リハビリテーションセンター【通所リハビリテーション】静岡県浜松市北区豊岡町398", "url": "https://www.kaigokensaku.mhlw.go.jp/22/index.php?action_kouhyou_detail_004_kani=true&JigyosyoCd=2217211818-00&ServiceCd=160&Type=search", "url2": "https://www.tanaka-seikeigeka.com/" }, "geometry": { "type": "Point", "coordinates": [ 137.7308214, 34.7915413 ] } },
{ "type": "Feature", "properties": { "内容": "藤野整形外科　デイケアゆとり【通所リハビリテーション】浜松市中区城北二丁目15-12藤野整形外科医院", "url": "https://www.kaigokensaku.mhlw.go.jp/22/index.php?action_kouhyou_detail_004_kani=true&JigyosyoCd=2217105622-00&ServiceCd=160&Type=search", "url2": "http://www.fujino-seikeigeka.jp/" }, "geometry": { "type": "Point", "coordinates": [ 137.719417099999987, 34.7229665 ] } },
{ "type": "Feature", "properties": { "内容": "ハイマート有玉　通所リハビリテーション【通所リハビリテーション】静岡県浜松市中央区有玉南町1436番地", "url": "https://www.kaigokensaku.mhlw.go.jp/22/index.php?action_kouhyou_detail_004_kani=true&JigyosyoCd=2257280129-00&ServiceCd=160&Type=search", "url2": "http://www.okazakikai.or.jp/" }, "geometry": { "type": "Point", "coordinates": [ 137.7535626, 34.7524622 ] } },
{ "type": "Feature", "properties": { "内容": "医療法人社団友成医院通所リハビリテーション【通所リハビリテーション】浜松市東区豊町2756-3", "url": "https://www.kaigokensaku.mhlw.go.jp/22/index.php?action_kouhyou_detail_004_kani=true&JigyosyoCd=2217111778-00&ServiceCd=160&Type=search", "url2": null }, "geometry": { "type": "Point", "coordinates": [ 137.803280099999938, 34.7700892 ] } },
{ "type": "Feature", "properties": { "内容": "松並木クリニック通所リハビリ【通所リハビリテーション】浜松市中央区馬郡町３１１１", "url": "https://www.kaigokensaku.mhlw.go.jp/22/index.php?action_kouhyou_detail_004_kani=true&JigyosyoCd=2217106984-00&ServiceCd=160&Type=search", "url2": "http://nttbj.itp.ne.jp/0535961390/index.html" }, "geometry": { "type": "Point", "coordinates": [ 137.636293300000034, 34.6829883 ] } },
{ "type": "Feature", "properties": { "内容": "医療法人社団　綾和会　浜松南病院【通所リハビリテーション】浜松市南区白羽町26番地", "url": "https://www.kaigokensaku.mhlw.go.jp/22/index.php?action_kouhyou_detail_004_kani=true&JigyosyoCd=2217210117-00&ServiceCd=160&Type=search", "url2": "http://www.hamamatsu-minami.com/" }, "geometry": { "type": "Point", "coordinates": [ 137.739222899999959, 34.6844411 ] } },
{ "type": "Feature", "properties": { "内容": "なぐら医院デイケアセンター【通所リハビリテーション】浜松市中央区三方原町57番地5", "url": "https://www.kaigokensaku.mhlw.go.jp/22/index.php?action_kouhyou_detail_004_kani=true&JigyosyoCd=2277101586-00&ServiceCd=160&Type=search", "url2": null }, "geometry": { "type": "Point", "coordinates": [ 137.717848799999928, 34.7736467 ] } },
{ "type": "Feature", "properties": { "内容": "介護老人保健施設　西山ウエルケア【通所リハビリテーション】浜松市中央区西山町411-2", "url": "https://www.kaigokensaku.mhlw.go.jp/22/index.php?action_kouhyou_detail_004_kani=true&JigyosyoCd=2257180014-00&ServiceCd=160&Type=search", "url2": "http://www.nishiyama.or.jp/" }, "geometry": { "type": "Point", "coordinates": [ 137.6903106, 34.7360756 ] } },
{ "type": "Feature", "properties": { "内容": "西山病院　未来型デイケアHarnes【通所リハビリテーション】浜松市西区西山町５００番地", "url": "https://www.kaigokensaku.mhlw.go.jp/22/index.php?action_kouhyou_detail_004_kani=true&JigyosyoCd=2217110549-00&ServiceCd=160&Type=search", "url2": "http://www.nishiyama.or.jp/" }, "geometry": { "type": "Point", "coordinates": [ 137.688063599999964, 34.7370781 ] } },
{ "type": "Feature", "properties": { "内容": "みかたはら介護老人保健施設【通所リハビリテーション】浜松市中央区三方原町675-6", "url": "https://www.kaigokensaku.mhlw.go.jp/22/index.php?action_kouhyou_detail_004_kani=true&JigyosyoCd=2257180121-00&ServiceCd=160&Type=search", "url2": "www.touikai.or.jp" }, "geometry": { "type": "Point", "coordinates": [ 137.711841, 34.7789372 ] } },
{ "type": "Feature", "properties": { "内容": "介護老人保健施設平安の森　通所リハビリテーション【通所リハビリテーション】八幡町181介護老人保健施設平安の森", "url": "https://www.kaigokensaku.mhlw.go.jp/22/index.php?action_kouhyou_detail_004_kani=true&JigyosyoCd=2257280053-00&ServiceCd=160&Type=search", "url2": "http://www.azumakai.or.jp/" }, "geometry": { "type": "Point", "coordinates": [ 137.73458340000002, 34.7151536 ] } },
{ "type": "Feature", "properties": { "内容": "内田記念医院【通所リハビリテーション】浜松市中央区大人見町３０１１－１", "url": "https://www.kaigokensaku.mhlw.go.jp/22/index.php?action_kouhyou_detail_004_kani=true&JigyosyoCd=2217111232-00&ServiceCd=160&Type=search", "url2": "www.shiraume.or.jp" }, "geometry": { "type": "Point", "coordinates": [ 137.658486499999981, 34.7403351 ] } },
{ "type": "Feature", "properties": { "内容": "介護老人保健施設ケアセンター芳川【通所リハビリテーション】浜松市中央区鼡野町24番地", "url": "https://www.kaigokensaku.mhlw.go.jp/22/index.php?action_kouhyou_detail_004_kani=true&JigyosyoCd=2257180105-00&ServiceCd=160&Type=search", "url2": "http://www.yamakawakai.net" }, "geometry": { "type": "Point", "coordinates": [ 137.763443, 34.6786013 ] } },
{ "type": "Feature", "properties": { "内容": "白梅県居ケアホーム【通所リハビリテーション】静岡県浜松市中央区東伊場二丁目14番35号", "url": "https://www.kaigokensaku.mhlw.go.jp/22/index.php?action_kouhyou_detail_004_kani=true&JigyosyoCd=2257280038-00&ServiceCd=160&Type=search", "url2": "https://www.shiraume.or.jp" }, "geometry": { "type": "Point", "coordinates": [ 137.717688100000032, 34.6975108 ] } },
{ "type": "Feature", "properties": { "内容": "常葉大学リハビリテーション病院【通所リハビリテーション】静岡県浜松市西区大山町3805", "url": "https://www.kaigokensaku.mhlw.go.jp/22/index.php?action_kouhyou_detail_004_kani=true&JigyosyoCd=2217112016-00&ServiceCd=160&Type=search", "url2": "http://www.tokoha-reha.jp/" }, "geometry": { "type": "Point", "coordinates": [ 137.6929649, 34.7863659 ] } },
{ "type": "Feature", "properties": { "内容": "西山ナーシング通所リハビリテーション【通所リハビリテーション】静岡県浜松市西区西山町411-1", "url": "https://www.kaigokensaku.mhlw.go.jp/22/index.php?action_kouhyou_detail_004_kani=true&JigyosyoCd=22B7200025-00&ServiceCd=160&Type=search", "url2": "https://www.nishiyama.or.jp" }, "geometry": { "type": "Point", "coordinates": [ 137.689640599999962, 34.7364567 ] } },
{ "type": "Feature", "properties": { "内容": "まつもと整形外科　通所・訪問リハビリテーション　松の実【通所リハビリテーション】静岡県浜松市中央区天王町1671", "url": "https://www.kaigokensaku.mhlw.go.jp/22/index.php?action_kouhyou_detail_004_kani=true&JigyosyoCd=2217112099-00&ServiceCd=160&Type=search", "url2": "https://matumotoseikei.com/strength04/" }, "geometry": { "type": "Point", "coordinates": [ 137.766592135581959, 34.733894257418022 ] } },
{ "type": "Feature", "properties": { "内容": "坂の上在宅リハビリセンター【通所リハビリテーション】浜松市中央区幸４丁目３６－３", "url": "https://www.kaigokensaku.mhlw.go.jp/22/index.php?action_kouhyou_detail_004_kani=true&JigyosyoCd=2257280095-00&ServiceCd=160&Type=search", "url2": null }, "geometry": { "type": "Point", "coordinates": [ 137.733085286508157, 34.746093746336207 ] } },
{ "type": "Feature", "properties": { "内容": "藤島クリニック【通所リハビリテーション】静岡県浜松市中央区有玉北町１９９５", "url": "https://www.kaigokensaku.mhlw.go.jp/22/index.php?action_kouhyou_detail_004_kani=true&JigyosyoCd=2217111869-00&ServiceCd=160&Type=search", "url2": null }, "geometry": { "type": "Point", "coordinates": [ 137.7502965, 34.7628017 ] } },
{ "type": "Feature", "properties": { "内容": "白脇ケアセンター【通所リハビリテーション】浜松市中央区白羽町1424", "url": "https://www.kaigokensaku.mhlw.go.jp/22/index.php?action_kouhyou_detail_004_kani=true&JigyosyoCd=2257180071-00&ServiceCd=160&Type=search", "url2": "http://www.kotou-wakeikai.com/" }, "geometry": { "type": "Point", "coordinates": [ 137.727901699999961, 34.6785944 ] } },
{ "type": "Feature", "properties": { "内容": "デイケア秋桜【通所リハビリテーション】浜松市中央区佐藤１－２２－２２", "url": "https://www.kaigokensaku.mhlw.go.jp/22/index.php?action_kouhyou_detail_004_kani=true&JigyosyoCd=2217110804-00&ServiceCd=160&Type=search", "url2": "http://shizumin.com/index.html" }, "geometry": { "type": "Point", "coordinates": [ 137.744596900000062, 34.7121264 ] } },
{ "type": "Feature", "properties": { "内容": "舞阪クリニック　デイケア浜の風【通所リハビリテーション】浜松市西区舞阪町長十新田98-1", "url": "https://www.kaigokensaku.mhlw.go.jp/22/index.php?action_kouhyou_detail_004_kani=true&JigyosyoCd=2278200081-00&ServiceCd=160&Type=search", "url2": "https://Medicalsanjinkai.jp/" }, "geometry": { "type": "Point", "coordinates": [ 137.613176399999929, 34.6822483 ] } },
{ "type": "Feature", "properties": { "内容": "介護老人保健施設　長鶴の郷【通所リハビリテーション】浜松市中央区長鶴町290", "url": "https://www.kaigokensaku.mhlw.go.jp/22/index.php?action_kouhyou_detail_004_kani=true&JigyosyoCd=2257180139-00&ServiceCd=160&Type=search", "url2": "http://www.nagatsuru.com" }, "geometry": { "type": "Point", "coordinates": [ 137.782813300000072, 34.714666799999989 ] } },
{ "type": "Feature", "properties": { "内容": "介護医療院　湖東病院【通所リハビリテーション】浜松市中央区伊左地町8151", "url": "https://www.kaigokensaku.mhlw.go.jp/22/index.php?action_kouhyou_detail_004_kani=true&JigyosyoCd=22B7200074-00&ServiceCd=160&Type=search", "url2": "http://www.kotou-wakeikai.com" }, "geometry": { "type": "Point", "coordinates": [ 137.654796, 34.7464783 ] } },
{ "type": "Feature", "properties": { "内容": "田中整形リハビリテーションセンター【通所リハビリテーション】浜松市中央区板屋町１１０番地５第一生命日通ビル", "url": "https://www.kaigokensaku.mhlw.go.jp/22/index.php?action_kouhyou_detail_004_kani=true&JigyosyoCd=2217112313-00&ServiceCd=160&Type=search", "url2": "http://www.tanaka-seikeigeka.jp" }, "geometry": { "type": "Point", "coordinates": [ 137.735275499999943, 34.7061684 ] } },
{ "type": "Feature", "properties": { "内容": "医療法人豊岡会　浜松とよおか病院【通所リハビリテーション】豊岡町110", "url": "https://www.kaigokensaku.mhlw.go.jp/22/index.php?action_kouhyou_detail_004_kani=true&JigyosyoCd=2217210646-00&ServiceCd=160&Type=search", "url2": "http//www.toyookakai.or.jp/" }, "geometry": { "type": "Point", "coordinates": [ 137.736160499999983, 34.7886981 ] } },
{ "type": "Feature", "properties": { "内容": "みずほケアセンター【通所リハビリテーション】静岡県浜松市中央区高丘西2-32-36", "url": "https://www.kaigokensaku.mhlw.go.jp/22/index.php?action_kouhyou_detail_004_kani=true&JigyosyoCd=2257280061-00&ServiceCd=160&Type=search", "url2": "http://www.kotou-wakeikai.com/" }, "geometry": { "type": "Point", "coordinates": [ 139.8997812, 35.6608911 ] } },
{ "type": "Feature", "properties": { "内容": "石垣内科医院【通所リハビリテーション】浜松市中央区中野町1217番地", "url": "https://www.kaigokensaku.mhlw.go.jp/22/index.php?action_kouhyou_detail_004_kani=true&JigyosyoCd=2217111695-00&ServiceCd=160&Type=search", "url2": "https://www.ishigakinaika.jp/" }, "geometry": { "type": "Point", "coordinates": [ 137.796186199999966, 34.7285299 ] } },
{ "type": "Feature", "properties": { "内容": "浜松市リハビリテーション病院【通所リハビリテーション】静岡県浜松市中央区和合北1-6-1", "url": "https://www.kaigokensaku.mhlw.go.jp/22/index.php?action_kouhyou_detail_004_kani=true&JigyosyoCd=2217111802-00&ServiceCd=160&Type=search", "url2": "https://www.hriha.jp/" }, "geometry": { "type": "Point", "coordinates": [ 137.719514899999979, 34.73776070000001 ] } },
{ "type": "Feature", "properties": { "内容": "白梅ケアホーム【通所リハビリテーション】浜松市中央区大人見町３０１１－１", "url": "https://www.kaigokensaku.mhlw.go.jp/22/index.php?action_kouhyou_detail_004_kani=true&JigyosyoCd=2257180030-00&ServiceCd=160&Type=search", "url2": "www.shiraume.or.jp" }, "geometry": { "type": "Point", "coordinates": [ 137.658486499999981, 34.7403351 ] } },
{ "type": "Feature", "properties": { "内容": "医療法人みやもと医院　介護予防通所リハビリテーション【通所リハビリテーション】静岡県浜松市中央区茄子町354-7", "url": "https://www.kaigokensaku.mhlw.go.jp/22/index.php?action_kouhyou_detail_004_kani=true&JigyosyoCd=2217210042-00&ServiceCd=160&Type=search", "url2": null }, "geometry": { "type": "Point", "coordinates": [ 137.751325887073762, 34.720192020909856 ] } },
{ "type": "Feature", "properties": { "内容": "入野ケアセンター【通所リハビリテーション】浜松市西区入野町6417番地", "url": "https://www.kaigokensaku.mhlw.go.jp/22/index.php?action_kouhyou_detail_004_kani=true&JigyosyoCd=2257180055-00&ServiceCd=160&Type=search", "url2": "http://www.kotou-wakeikai.com" }, "geometry": { "type": "Point", "coordinates": [ 137.686754800000017, 34.6975384 ] } },
{ "type": "Feature", "properties": { "内容": "みうら整形外科（介護予防）通所リハビリテーション【通所リハビリテーション】静岡県浜松市東区和田町200番地の1", "url": "https://www.kaigokensaku.mhlw.go.jp/22/index.php?action_kouhyou_detail_004_kani=true&JigyosyoCd=2217211073-00&ServiceCd=160&Type=search", "url2": "http://www.miura-seikei.com/" }, "geometry": { "type": "Point", "coordinates": [ 137.777310899999947, 34.7172829 ] } },
{ "type": "Feature", "properties": { "内容": "なかむらクリニック　デイ・なかむら【通所リハビリテーション】浜松市中央区入野町19954-555", "url": "https://www.kaigokensaku.mhlw.go.jp/22/index.php?action_kouhyou_detail_004_kani=true&JigyosyoCd=2217111737-00&ServiceCd=160&Type=search", "url2": "http://なかむらクリニック.jp" }, "geometry": { "type": "Point", "coordinates": [ 137.681621800000016, 34.7022571 ] } },
{ "type": "Feature", "properties": { "内容": "おかやま内科デイケア【通所リハビリテーション】西伊場町57番6号おかやま内科医院・３階", "url": "https://www.kaigokensaku.mhlw.go.jp/22/index.php?action_kouhyou_detail_004_kani=true&JigyosyoCd=2217210265-00&ServiceCd=160&Type=search", "url2": null }, "geometry": { "type": "Point", "coordinates": [ 137.7011506, 34.6995521 ] } },
{ "type": "Feature", "properties": { "内容": "佐鳴湖デイケアセンター【通所リハビリテーション】浜松市中央区入野町16101-16", "url": "https://www.kaigokensaku.mhlw.go.jp/22/index.php?action_kouhyou_detail_004_kani=true&JigyosyoCd=2217210125-00&ServiceCd=160&Type=search", "url2": null }, "geometry": { "type": "Point", "coordinates": [ 137.672296499999987, 34.7012102 ] } },
{ "type": "Feature", "properties": { "内容": "種部整形外科医院　通所リハビリテーション【通所リハビリテーション】静岡県浜松市北区細江町中川7172-2254種部整形外科医院", "url": "https://www.kaigokensaku.mhlw.go.jp/22/index.php?action_kouhyou_detail_004_kani=true&JigyosyoCd=2217211263-00&ServiceCd=160&Type=search", "url2": "http://www.tanebe.jp/" }, "geometry": { "type": "Point", "coordinates": [ 137.694991800000025, 34.7985533 ] } },
{ "type": "Feature", "properties": { "内容": "みっかび東介護老人保健施設【通所リハビリテーション】浜松市北区三ヶ日町宇志３４－１", "url": "https://www.kaigokensaku.mhlw.go.jp/22/index.php?action_kouhyou_detail_004_kani=true&JigyosyoCd=2258180039-00&ServiceCd=160&Type=search", "url2": null }, "geometry": { "type": "Point", "coordinates": [ 137.561218899999972, 34.800368400000018 ] } },
{ "type": "Feature", "properties": { "内容": "介護老人保健施設　エーデルワイス【通所リハビリテーション】浜松市浜北区平口２４０５", "url": "https://www.kaigokensaku.mhlw.go.jp/22/index.php?action_kouhyou_detail_004_kani=true&JigyosyoCd=2258380019-00&ServiceCd=160&Type=search", "url2": "http://www.e-del.jp" }, "geometry": { "type": "Point", "coordinates": [ 137.7675769, 34.7967403 ] } },
{ "type": "Feature", "properties": { "内容": "十全オアシスクリニック【通所リハビリテーション】静岡県浜松市浜名区小松1680", "url": "https://www.kaigokensaku.mhlw.go.jp/22/index.php?action_kouhyou_detail_004_kani=true&JigyosyoCd=2217211552-00&ServiceCd=160&Type=search", "url2": "http://j-oasisclinic.com/j-oasisclinic.com/" }, "geometry": { "type": "Point", "coordinates": [ 137.76499433439335, 34.793314410690137 ] } },
{ "type": "Feature", "properties": { "内容": "はまなこ介護老人保健施設【通所リハビリテーション】静岡県浜松市浜名区三ヶ日町都筑３６６４－１０", "url": "https://www.kaigokensaku.mhlw.go.jp/22/index.php?action_kouhyou_detail_004_kani=true&JigyosyoCd=2258180013-00&ServiceCd=160&Type=search", "url2": "http://www.toyookakai.or.jp/" }, "geometry": { "type": "Point", "coordinates": [ 137.585763483467076, 34.794549145772926 ] } },
{ "type": "Feature", "properties": { "内容": "介護老人保健施設花平ケアセンター【通所リハビリテーション】静岡県浜松市浜名区引佐町花平708", "url": "https://www.kaigokensaku.mhlw.go.jp/22/index.php?action_kouhyou_detail_004_kani=true&JigyosyoCd=2258180047-00&ServiceCd=160&Type=search", "url2": "http://www.hanadaira.com" }, "geometry": { "type": "Point", "coordinates": [ 137.672039499999983, 34.8461386 ] } },
{ "type": "Feature", "properties": { "内容": "十全記念病院【通所リハビリテーション】浜松市浜名区小松1700医療法人社団明徳会十全記念病院", "url": "https://www.kaigokensaku.mhlw.go.jp/22/index.php?action_kouhyou_detail_004_kani=true&JigyosyoCd=2217210471-00&ServiceCd=160&Type=search", "url2": "http://www.jyuzen-byouin.com/" }, "geometry": { "type": "Point", "coordinates": [ 137.764096800000061, 34.792399 ] } },
{ "type": "Feature", "properties": { "内容": "クロヤナギ介護老人保健施設【通所リハビリテーション】浜松市浜名区三ヶ日町宇志３４－１", "url": "https://www.kaigokensaku.mhlw.go.jp/22/index.php?action_kouhyou_detail_004_kani=true&JigyosyoCd=2257280012-00&ServiceCd=160&Type=search", "url2": null }, "geometry": { "type": "Point", "coordinates": [ 137.561218899999972, 34.8003684 ] } },
{ "type": "Feature", "properties": { "内容": "介護老人保健施設あらたま・通所リハビリテーション【通所リハビリテーション】静岡県浜松市浜名区宮口3152番地", "url": "https://www.kaigokensaku.mhlw.go.jp/22/index.php?action_kouhyou_detail_004_kani=true&JigyosyoCd=2257280103-00&ServiceCd=160&Type=search", "url2": "http://www.daizen-f.com/index.html" }, "geometry": { "type": "Point", "coordinates": [ 137.772524400000094, 34.8230199 ] } },
{ "type": "Feature", "properties": { "内容": "北斗わかば通所リハビリテーション事業所【通所リハビリテーション】浜松市浜名区於呂3181-1", "url": "https://www.kaigokensaku.mhlw.go.jp/22/index.php?action_kouhyou_detail_004_kani=true&JigyosyoCd=2217210059-00&ServiceCd=160&Type=search", "url2": "http://kaigo.hokuto-wakaba.jp" }, "geometry": { "type": "Point", "coordinates": [ 137.802258928697256, 34.829205844008946 ] } },
{ "type": "Feature", "properties": { "内容": "医療法人社団　西坂整形外科【通所リハビリテーション】内野1220", "url": "https://www.kaigokensaku.mhlw.go.jp/22/index.php?action_kouhyou_detail_004_kani=true&JigyosyoCd=2218310247-00&ServiceCd=160&Type=search", "url2": "http://nishizakaseikei.com" }, "geometry": { "type": "Point", "coordinates": [ 137.752467700000011, 34.7781635 ] } },
{ "type": "Feature", "properties": { "内容": "介護老人保健施設　三方原ベテルホーム　通所リハビリテーション【通所リハビリテーション】浜松市浜名区細江町中川7421-1", "url": "https://www.kaigokensaku.mhlw.go.jp/22/index.php?action_kouhyou_detail_004_kani=true&JigyosyoCd=2258180021-00&ServiceCd=160&Type=search", "url2": "https://www.seirei.or.jp/elderlyhome/beteru/" }, "geometry": { "type": "Point", "coordinates": [ 137.692259199999967, 34.7905209 ] } },
{ "type": "Feature", "properties": { "内容": "都ケアセンター【通所リハビリテーション】浜松市浜名区都田町7555-47都ケアセンター", "url": "https://www.kaigokensaku.mhlw.go.jp/22/index.php?action_kouhyou_detail_004_kani=true&JigyosyoCd=2257180022-00&ServiceCd=160&Type=search", "url2": "http://www.kaigo.or.jp" }, "geometry": { "type": "Point", "coordinates": [ 137.70858069262502, 34.803461615331294 ] } },
{ "type": "Feature", "properties": { "内容": "介護医療院　浜北さくら台　通所リハビリテーション【通所リハビリテーション】静岡県浜松市浜名区四大地9-68", "url": "https://www.kaigokensaku.mhlw.go.jp/22/index.php?action_kouhyou_detail_004_kani=true&JigyosyoCd=22B7200058-00&ServiceCd=160&Type=search", "url2": "https://sakuradai.or.jp" }, "geometry": { "type": "Point", "coordinates": [ 137.759317399999986, 34.8379995 ] } },
{ "type": "Feature", "properties": { "内容": "さいわいデイ・ケアセンター【通所リハビリテーション】浜松市天竜区渡ヶ島221", "url": "https://www.kaigokensaku.mhlw.go.jp/22/index.php?action_kouhyou_detail_004_kani=true&JigyosyoCd=2256580016-00&ServiceCd=160&Type=search", "url2": "http://www.tenryu-kohseikai.or.jp/senior/saiwai/" }, "geometry": { "type": "Point", "coordinates": [ 137.79333714058987, 34.857316161709086 ] } },
{ "type": "Feature", "properties": { "内容": "鹿島の郷　通所リハビリテーション【通所リハビリテーション】浜松市天竜区二俣町南鹿島36-1-2", "url": "https://www.kaigokensaku.mhlw.go.jp/22/index.php?action_kouhyou_detail_004_kani=true&JigyosyoCd=2257280020-00&ServiceCd=160&Type=search", "url2": "http://seijukai-gp.jp/" }, "geometry": { "type": "Point", "coordinates": [ 137.808360599999986, 34.8442082 ] } },
{ "type": "Feature", "properties": { "内容": "医療法人弘遠会　天竜すずかけ病院　すずかけの樹【通所リハビリテーション】浜松市天竜区二俣町二俣２３９６－５６", "url": "https://www.kaigokensaku.mhlw.go.jp/22/index.php?action_kouhyou_detail_004_kani=true&JigyosyoCd=2216510061-00&ServiceCd=160&Type=search", "url2": "http://www.suzukake.or.jp" }, "geometry": { "type": "Point", "coordinates": [ 137.813837499999977, 34.857015 ] } },
{ "type": "Feature", "properties": { "内容": "介護老人保健施設　はるのケアセンター【通所リハビリテーション】静岡県浜松市天竜区春野町気田776-5", "url": "https://www.kaigokensaku.mhlw.go.jp/22/index.php?action_kouhyou_detail_004_kani=true&JigyosyoCd=2257280046-00&ServiceCd=160&Type=search", "url2": "http://www.koukyukai.jp/" }, "geometry": { "type": "Point", "coordinates": [ 137.907225700000026, 35.0064218 ] } },
{ "type": "Feature", "properties": { "内容": "介護老人保健施設　椎路の里　通所リハビリテーション【通所リハビリテーション】静岡県沼津市東椎路32-1", "url": "https://www.kaigokensaku.mhlw.go.jp/22/index.php?action_kouhyou_detail_004_kani=true&JigyosyoCd=2251180044-00&ServiceCd=160&Type=search", "url2": null }, "geometry": { "type": "Point", "coordinates": [ 138.841748664417992, 35.118645394216408 ] } },
{ "type": "Feature", "properties": { "内容": "通所リハビリテーション　ヒルズかどいけ【通所リハビリテーション】沼津市岡一色672番地の2", "url": "https://www.kaigokensaku.mhlw.go.jp/22/index.php?action_kouhyou_detail_004_kani=true&JigyosyoCd=2251180051-00&ServiceCd=160&Type=search", "url2": "http://seijukai-gp.jp/" }, "geometry": { "type": "Point", "coordinates": [ 138.87747939999997, 35.1345399 ] } },
{ "type": "Feature", "properties": { "内容": "介護老人保健施設サン静浦　通所リハビリテーション【通所リハビリテーション】沼津市志下３４４－１", "url": "https://www.kaigokensaku.mhlw.go.jp/22/index.php?action_kouhyou_detail_004_kani=true&JigyosyoCd=2251180036-00&ServiceCd=160&Type=search", "url2": "http://care-net.biz/22/sun-shizuua/" }, "geometry": { "type": "Point", "coordinates": [ 138.879444899999953, 35.0617602 ] } },
{ "type": "Feature", "properties": { "内容": "介護老人保健施設タカネ園【通所リハビリテーション】沼津市鳥谷字土橋611-1", "url": "https://www.kaigokensaku.mhlw.go.jp/22/index.php?action_kouhyou_detail_004_kani=true&JigyosyoCd=2251180010-00&ServiceCd=160&Type=search", "url2": null }, "geometry": { "type": "Point", "coordinates": [ 138.816187099999979, 35.1344961 ] } },
{ "type": "Feature", "properties": { "内容": "えがわ医院通所リハビリセンター【通所リハビリテーション】沼津市高島本町12-20えがわ医院", "url": "https://www.kaigokensaku.mhlw.go.jp/22/index.php?action_kouhyou_detail_004_kani=true&JigyosyoCd=2211103433-00&ServiceCd=160&Type=search", "url2": "http:/egawaiin.com/" }, "geometry": { "type": "Point", "coordinates": [ 138.861225500000046, 35.1099387 ] } },
{ "type": "Feature", "properties": { "内容": "さわだ・メディカル・クリニック　通所リハビリテーション　「べっく」【通所リハビリテーション】沼津市西沢田325－1さわだ・メディカル・クリニック内2階", "url": "https://www.kaigokensaku.mhlw.go.jp/22/index.php?action_kouhyou_detail_004_kani=true&JigyosyoCd=2211103623-00&ServiceCd=160&Type=search", "url2": "http://www.sawada-mc.jp/riha.html" }, "geometry": { "type": "Point", "coordinates": [ 138.84403321534424, 35.120210958506256 ] } },
{ "type": "Feature", "properties": { "内容": "きせがわ病院【通所リハビリテーション】沼津市大岡１１５５", "url": "https://www.kaigokensaku.mhlw.go.jp/22/index.php?action_kouhyou_detail_004_kani=true&JigyosyoCd=2211110198-00&ServiceCd=160&Type=search", "url2": "http://www.kisegawa.net/" }, "geometry": { "type": "Point", "coordinates": [ 138.881201896958942, 35.104015962333079 ] } },
{ "type": "Feature", "properties": { "内容": "デイケア　さとやま【通所リハビリテーション】東原560番地の1", "url": "https://www.kaigokensaku.mhlw.go.jp/22/index.php?action_kouhyou_detail_004_kani=true&JigyosyoCd=2211110958-00&ServiceCd=160&Type=search", "url2": "https://www.satoyama2.jp" }, "geometry": { "type": "Point", "coordinates": [ 138.820634, 35.128927 ] } },
{ "type": "Feature", "properties": { "内容": "介護老人保健施設　おおひら【通所リハビリテーション】沼津市大平1117-1", "url": "https://www.kaigokensaku.mhlw.go.jp/22/index.php?action_kouhyou_detail_004_kani=true&JigyosyoCd=2251180028-00&ServiceCd=160&Type=search", "url2": "http://shinyoukai.or.jp/rokenoh/" }, "geometry": { "type": "Point", "coordinates": [ 138.90361489999998, 35.0734736 ] } },
{ "type": "Feature", "properties": { "内容": "医療法人社団　愛康会　あしたかケアセンター　通所リハビリテーション【通所リハビリテーション】静岡県沼津市今沢字西畑372-5", "url": "https://www.kaigokensaku.mhlw.go.jp/22/index.php?action_kouhyou_detail_004_kani=true&JigyosyoCd=2211110297-00&ServiceCd=160&Type=search", "url2": "http://www.geocities.jp/asitakaclnc/index.html" }, "geometry": { "type": "Point", "coordinates": [ 138.813715354878241, 35.120065371291318 ] } },
{ "type": "Feature", "properties": { "内容": "いりょうほうじんけいめいかい　せおきねんけいゆうびょういん【通所リハビリテーション】静岡県沼津市下香貫島郷2773⁻1", "url": "https://www.kaigokensaku.mhlw.go.jp/22/index.php?action_kouhyou_detail_004_kani=true&JigyosyoCd=2211110966-00&ServiceCd=160&Type=search", "url2": "https://www.seomh.net/" }, "geometry": { "type": "Point", "coordinates": [ 138.8721008, 35.0749727 ] } },
{ "type": "Feature", "properties": { "内容": "服部医院【通所リハビリテーション】網代462-8", "url": "https://www.kaigokensaku.mhlw.go.jp/22/index.php?action_kouhyou_detail_004_kani=true&JigyosyoCd=2210510158-00&ServiceCd=160&Type=search", "url2": "http://httr.jp" }, "geometry": { "type": "Point", "coordinates": [ 139.0929025, 35.0493772 ] } },
{ "type": "Feature", "properties": { "内容": "介護老人保健施設　菜の花【通所リハビリテーション】静岡県熱海市伊豆山字七尾原1173-172", "url": "https://www.kaigokensaku.mhlw.go.jp/22/index.php?action_kouhyou_detail_004_kani=true&JigyosyoCd=2250580038-00&ServiceCd=160&Type=search", "url2": "http://seijukai-gp.jp/?page_id=282" }, "geometry": { "type": "Point", "coordinates": [ 139.079583899999989, 35.1222499 ] } },
{ "type": "Feature", "properties": { "内容": "医療法人社団桜会　介護老人保健施設　葵の園・熱海【通所リハビリテーション】静岡県熱海市泉61-1", "url": "https://www.kaigokensaku.mhlw.go.jp/22/index.php?action_kouhyou_detail_004_kani=true&JigyosyoCd=2250580061-00&ServiceCd=160&Type=search", "url2": "https://www.aoikai.jp/atami/" }, "geometry": { "type": "Point", "coordinates": [ 139.0773922, 35.1435733 ] } },
{ "type": "Feature", "properties": { "内容": "通所リハビリセンターらくじゅ【通所リハビリテーション】静岡県三島市一番町13番11号3階", "url": "https://www.kaigokensaku.mhlw.go.jp/22/index.php?action_kouhyou_detail_004_kani=true&JigyosyoCd=2210610644-00&ServiceCd=160&Type=search", "url2": "http://wellness-brain.or.jp/" }, "geometry": { "type": "Point", "coordinates": [ 138.912971199999987, 35.1248575 ] } },
{ "type": "Feature", "properties": { "内容": "通所リハビリテーション事業所　ラ・サンテふよう【通所リハビリテーション】三島市佐野1205-3", "url": "https://www.kaigokensaku.mhlw.go.jp/22/index.php?action_kouhyou_detail_004_kani=true&JigyosyoCd=2250680028-00&ServiceCd=160&Type=search", "url2": "http://mchp.or.jp/lasante" }, "geometry": { "type": "Point", "coordinates": [ 138.916337200000072, 35.15779 ] } },
{ "type": "Feature", "properties": { "内容": "芹沢病院通所リハビリテーション【通所リハビリテーション】三島市幸原町２丁目３番１号", "url": "https://www.kaigokensaku.mhlw.go.jp/22/index.php?action_kouhyou_detail_004_kani=true&JigyosyoCd=2210610198-00&ServiceCd=160&Type=search", "url2": "serizawa-hp.com/wp/" }, "geometry": { "type": "Point", "coordinates": [ 138.912254299999972, 35.138009 ] } },
{ "type": "Feature", "properties": { "内容": "介護老人保健施設梅名の里【通所リハビリテーション】三島市梅名578番地", "url": "https://www.kaigokensaku.mhlw.go.jp/22/index.php?action_kouhyou_detail_004_kani=true&JigyosyoCd=2250680010-00&ServiceCd=160&Type=search", "url2": "http://www.umenanosato.com" }, "geometry": { "type": "Point", "coordinates": [ 138.923246, 35.0977851 ] } },
{ "type": "Feature", "properties": { "内容": "渡辺整形外科【通所リハビリテーション】静岡県三島市萩188番地", "url": "https://www.kaigokensaku.mhlw.go.jp/22/index.php?action_kouhyou_detail_004_kani=true&JigyosyoCd=2210610321-00&ServiceCd=160&Type=search", "url2": null }, "geometry": { "type": "Point", "coordinates": [ 138.9080212, 35.1483995 ] } },
{ "type": "Feature", "properties": { "内容": "三島総合病院附属介護老人保健施設【通所リハビリテーション】静岡県三島市谷田字藤久保２２７６", "url": "https://www.kaigokensaku.mhlw.go.jp/22/index.php?action_kouhyou_detail_004_kani=true&JigyosyoCd=2250680036-00&ServiceCd=160&Type=search", "url2": "http://mishima.jcho.go.jp/rouken/" }, "geometry": { "type": "Point", "coordinates": [ 138.952022707562264, 35.12334753503248 ] } },
{ "type": "Feature", "properties": { "内容": "医療法人社団福仁会　三島東海病院【通所リハビリテーション】静岡県三島市川原ヶ谷264-12", "url": "https://www.kaigokensaku.mhlw.go.jp/22/index.php?action_kouhyou_detail_004_kani=true&JigyosyoCd=2210610230-00&ServiceCd=160&Type=search", "url2": "http://www.mishimatohkaihp.or.jp/" }, "geometry": { "type": "Point", "coordinates": [ 138.9335472, 35.1232356 ] } },
{ "type": "Feature", "properties": { "内容": "富士宮中央クリニック通所リハビリテーション【通所リハビリテーション】富士宮市宮原88-6", "url": "https://www.kaigokensaku.mhlw.go.jp/22/index.php?action_kouhyou_detail_004_kani=true&JigyosyoCd=2272100369-00&ServiceCd=160&Type=search", "url2": "http://chuo-clinic.com" }, "geometry": { "type": "Point", "coordinates": [ 138.607116099999985, 35.248753 ] } },
{ "type": "Feature", "properties": { "内容": "介護老人保健施設リバブルケア【通所リハビリテーション】静岡県富士宮市原682", "url": "https://www.kaigokensaku.mhlw.go.jp/22/index.php?action_kouhyou_detail_004_kani=true&JigyosyoCd=2252180076-00&ServiceCd=160&Type=search", "url2": "https://www.fujiyama-hosp.com/" }, "geometry": { "type": "Point", "coordinates": [ 138.583405800000037, 35.3152167 ] } },
{ "type": "Feature", "properties": { "内容": "介護老人保健施設いかる野【通所リハビリテーション】富士宮市原７０９番地", "url": "https://www.kaigokensaku.mhlw.go.jp/22/index.php?action_kouhyou_detail_004_kani=true&JigyosyoCd=2252180068-00&ServiceCd=160&Type=search", "url2": "http://www.fujiyama-hosp.com" }, "geometry": { "type": "Point", "coordinates": [ 138.583861399999932, 35.3128643 ] } },
{ "type": "Feature", "properties": { "内容": "みゆきの苑　通所リハビリテーション事業所【通所リハビリテーション】富士宮市宮原337-4", "url": "https://www.kaigokensaku.mhlw.go.jp/22/index.php?action_kouhyou_detail_004_kani=true&JigyosyoCd=2252180035-00&ServiceCd=160&Type=search", "url2": "http://miyuki.iryou-jinshinkai.jp/" }, "geometry": { "type": "Point", "coordinates": [ 138.611460099999931, 35.251336 ] } },
{ "type": "Feature", "properties": { "内容": "介護老人保健施設　富士ケアセンター【通所リハビリテーション】静岡県富士宮市星山1129", "url": "https://www.kaigokensaku.mhlw.go.jp/22/index.php?action_kouhyou_detail_004_kani=true&JigyosyoCd=2252180027-00&ServiceCd=160&Type=search", "url2": "http://www.fujireha.org" }, "geometry": { "type": "Point", "coordinates": [ 138.6133969, 35.1942571 ] } },
{ "type": "Feature", "properties": { "内容": "東静脳神経センター【通所リハビリテーション】静岡県富士宮市西小泉町14-9", "url": "https://www.kaigokensaku.mhlw.go.jp/22/index.php?action_kouhyou_detail_004_kani=true&JigyosyoCd=2212110270-00&ServiceCd=160&Type=search", "url2": "https://www.tohsei-cl.jp" }, "geometry": { "type": "Point", "coordinates": [ 138.628061600000024, 35.2177272 ] } },
{ "type": "Feature", "properties": { "内容": "医療法人社団　静寿会　介護老人保健施設　旭ヶ丘【通所リハビリテーション】静岡県富士宮市山宮1027-2", "url": "https://www.kaigokensaku.mhlw.go.jp/22/index.php?action_kouhyou_detail_004_kani=true&JigyosyoCd=2252180050-00&ServiceCd=160&Type=search", "url2": "http://seijukai-gp.jp/" }, "geometry": { "type": "Point", "coordinates": [ 138.622831099999985, 35.2594045 ] } },
{ "type": "Feature", "properties": { "内容": "伊豆高原メディカルたかやなぎ整形外科通所リハビリテーション・介護予防通所リハビリテーション【通所リハビリテーション】静岡県伊東市八幡野1191-6", "url": "https://www.kaigokensaku.mhlw.go.jp/22/index.php?action_kouhyou_detail_004_kani=true&JigyosyoCd=2210410334-00&ServiceCd=160&Type=search", "url2": "https://www.takayanagiseikei.com/" }, "geometry": { "type": "Point", "coordinates": [ 139.1037789, 34.8768278 ] } },
{ "type": "Feature", "properties": { "内容": "医療法人啓仁会　介護老人保健施設　いとうの杜【通所リハビリテーション】静岡県伊東市湯川２８８番地９", "url": "https://www.kaigokensaku.mhlw.go.jp/22/index.php?action_kouhyou_detail_004_kani=true&JigyosyoCd=2250480031-00&ServiceCd=160&Type=search", "url2": "http://itou-mori.jp/" }, "geometry": { "type": "Point", "coordinates": [ 139.090858799999978, 34.9746746 ] } },
{ "type": "Feature", "properties": { "内容": "医療法人社団いずみ会メディカルはば伊豆高原通所リハビリテーション【通所リハビリテーション】伊東市富戸　１３１７番地４１１７", "url": "https://www.kaigokensaku.mhlw.go.jp/22/index.php?action_kouhyou_detail_004_kani=true&JigyosyoCd=2210410243-00&ServiceCd=160&Type=search", "url2": "http://www.medical-haba.org/" }, "geometry": { "type": "Point", "coordinates": [ 139.108083299999947, 34.8999403 ] } },
{ "type": "Feature", "properties": { "内容": "介護老人保健施設のぞみ　通所リハビリテーション【通所リハビリテーション】静岡県伊東市宇佐美2405-2", "url": "https://www.kaigokensaku.mhlw.go.jp/22/index.php?action_kouhyou_detail_004_kani=true&JigyosyoCd=2250480049-00&ServiceCd=160&Type=search", "url2": "https://e-nozomi.com/" }, "geometry": { "type": "Point", "coordinates": [ 139.064586, 35.0001278 ] } },
{ "type": "Feature", "properties": { "内容": "伊東市介護老人保健施設みはらし【通所リハビリテーション】伊東市岡１８７番地", "url": "https://www.kaigokensaku.mhlw.go.jp/22/index.php?action_kouhyou_detail_004_kani=true&JigyosyoCd=2250480023-00&ServiceCd=160&Type=search", "url2": "http://ito-miharashi.jp" }, "geometry": { "type": "Point", "coordinates": [ 139.088540200000011, 34.9611396 ] } },
{ "type": "Feature", "properties": { "内容": "エコトープ【通所リハビリテーション】島田市島534-1", "url": "https://www.kaigokensaku.mhlw.go.jp/22/index.php?action_kouhyou_detail_004_kani=true&JigyosyoCd=2255580017-00&ServiceCd=160&Type=search", "url2": "http://www.ecotope.jp" }, "geometry": { "type": "Point", "coordinates": [ 138.126009899999985, 34.8421675 ] } },
{ "type": "Feature", "properties": { "内容": "さくら通所リハビリテーション事業所【通所リハビリテーション】静岡県島田市東町１３３１番地", "url": "https://www.kaigokensaku.mhlw.go.jp/22/index.php?action_kouhyou_detail_004_kani=true&JigyosyoCd=2255480028-00&ServiceCd=160&Type=search", "url2": "http://seiyukai6666.com/" }, "geometry": { "type": "Point", "coordinates": [ 138.227541800000012, 34.83469526584296 ] } },
{ "type": "Feature", "properties": { "内容": "介護老人保健施設アポロン【通所リハビリテーション】静岡県島田市中溝町１７１４－１", "url": "https://www.kaigokensaku.mhlw.go.jp/22/index.php?action_kouhyou_detail_004_kani=true&JigyosyoCd=2255480010-00&ServiceCd=160&Type=search", "url2": "https://www.apolon-shizuoka.com/" }, "geometry": { "type": "Point", "coordinates": [ 138.170983400000068, 34.8404352 ] } },
{ "type": "Feature", "properties": { "内容": "喜山整形ハーブクリニック短時間通所リハビリテーション【通所リハビリテーション】静岡県富士市五貫島69", "url": "https://www.kaigokensaku.mhlw.go.jp/22/index.php?action_kouhyou_detail_004_kani=true&JigyosyoCd=2212302778-00&ServiceCd=160&Type=search", "url2": "http://www.ortho-herb.com/" }, "geometry": { "type": "Point", "coordinates": [ 138.65024440000002, 35.1354403 ] } },
{ "type": "Feature", "properties": { "内容": "介護老人保健施設ヒューマンライフ富士【通所リハビリテーション】富士市大淵3901－1", "url": "https://www.kaigokensaku.mhlw.go.jp/22/index.php?action_kouhyou_detail_004_kani=true&JigyosyoCd=2252380015-00&ServiceCd=160&Type=search", "url2": "http://www.shinfuji.or.jp/human/index.html" }, "geometry": { "type": "Point", "coordinates": [ 138.668844900000067, 35.215856 ] } },
{ "type": "Feature", "properties": { "内容": "デイケア　リべルタ【通所リハビリテーション】静岡県富士市厚原372-1", "url": "https://www.kaigokensaku.mhlw.go.jp/22/index.php?action_kouhyou_detail_004_kani=true&JigyosyoCd=2252380064-00&ServiceCd=160&Type=search", "url2": "https://www.syuuseikai.or.jp/" }, "geometry": { "type": "Point", "coordinates": [ 138.65728, 35.1807545 ] } },
{ "type": "Feature", "properties": { "内容": "通所リハビリテーションふじ【通所リハビリテーション】富士市天間1640-1", "url": "https://www.kaigokensaku.mhlw.go.jp/22/index.php?action_kouhyou_detail_004_kani=true&JigyosyoCd=2212310805-00&ServiceCd=160&Type=search", "url2": "http://iki-iki-hp.com" }, "geometry": { "type": "Point", "coordinates": [ 138.65125809999995, 35.2086954 ] } },
{ "type": "Feature", "properties": { "内容": "池辺クリニック通所リハビリテーション【通所リハビリテーション】富士市川成新町250", "url": "https://www.kaigokensaku.mhlw.go.jp/22/index.php?action_kouhyou_detail_004_kani=true&JigyosyoCd=2212310888-00&ServiceCd=160&Type=search", "url2": "http://web.thn.jp/ikebeclinic/" }, "geometry": { "type": "Point", "coordinates": [ 138.663837699999931, 35.133635 ] } },
{ "type": "Feature", "properties": { "内容": "医療法人社団　英志会　富士整形外科病院【通所リハビリテーション】静岡県富士市錦町1丁目4番地23号富士整形外科病院", "url": "https://www.kaigokensaku.mhlw.go.jp/22/index.php?action_kouhyou_detail_004_kani=true&JigyosyoCd=2212310144-00&ServiceCd=160&Type=search", "url2": "http://www.fujiseikei.com" }, "geometry": { "type": "Point", "coordinates": [ 138.6793533, 35.1592 ] } },
{ "type": "Feature", "properties": { "内容": "介護老人保健施設　ききょうの郷【通所リハビリテーション】富士市五貫島175番地", "url": "https://www.kaigokensaku.mhlw.go.jp/22/index.php?action_kouhyou_detail_004_kani=true&JigyosyoCd=2252380023-00&ServiceCd=160&Type=search", "url2": "http://www.kikyounosato.com" }, "geometry": { "type": "Point", "coordinates": [ 138.652244200000041, 35.1333599 ] } },
{ "type": "Feature", "properties": { "内容": "介護老人保健施設ひろみ【通所リハビリテーション】静岡県富士市大渕39-1", "url": "https://www.kaigokensaku.mhlw.go.jp/22/index.php?action_kouhyou_detail_004_kani=true&JigyosyoCd=2252380031-00&ServiceCd=160&Type=search", "url2": "https://www.hiromikai.jp" }, "geometry": { "type": "Point", "coordinates": [ 138.689315500000021, 35.1871843 ] } },
{ "type": "Feature", "properties": { "内容": "介護老人保健施設　かぐや富士【通所リハビリテーション】富士市中里２５４６－７", "url": "https://www.kaigokensaku.mhlw.go.jp/22/index.php?action_kouhyou_detail_004_kani=true&JigyosyoCd=2252380049-00&ServiceCd=160&Type=search", "url2": "http://seijukai-gp.jp/w" }, "geometry": { "type": "Point", "coordinates": [ 138.748763199999985, 35.1376132 ] } },
{ "type": "Feature", "properties": { "内容": "共立蒲原総合病院組合介護老人保健施設芙蓉の丘【通所リハビリテーション】富士市中之郷2500－1", "url": "https://www.kaigokensaku.mhlw.go.jp/22/index.php?action_kouhyou_detail_004_kani=true&JigyosyoCd=2253180018-00&ServiceCd=160&Type=search", "url2": "http://www.kanbarahp.com/" }, "geometry": { "type": "Point", "coordinates": [ 138.615405, 35.13327 ] } },
{ "type": "Feature", "properties": { "内容": "富士ヶ丘内科【通所リハビリテーション】静岡県磐田市東原167－4", "url": "https://www.kaigokensaku.mhlw.go.jp/22/index.php?action_kouhyou_detail_004_kani=true&JigyosyoCd=2216910253-00&ServiceCd=160&Type=search", "url2": null }, "geometry": { "type": "Point", "coordinates": [ 137.8438368, 34.7395984 ] } },
{ "type": "Feature", "properties": { "内容": "通所リハビリテーションリラトレくじら【通所リハビリテーション】磐田市小立野132番地", "url": "https://www.kaigokensaku.mhlw.go.jp/22/index.php?action_kouhyou_detail_004_kani=true&JigyosyoCd=2256680014-00&ServiceCd=160&Type=search", "url2": "http://www.keiseikai.org/" }, "geometry": { "type": "Point", "coordinates": [ 137.8206147, 34.7276225 ] } },
{ "type": "Feature", "properties": { "内容": "和田整形外科・外科医院　通所リハビリテーション【通所リハビリテーション】磐田市富士見町1‐11‐13", "url": "https://www.kaigokensaku.mhlw.go.jp/22/index.php?action_kouhyou_detail_004_kani=true&JigyosyoCd=2216710141-00&ServiceCd=160&Type=search", "url2": "http://www.wadaseikeigeka.com/" }, "geometry": { "type": "Point", "coordinates": [ 137.868697200000042, 34.7304216 ] } },
{ "type": "Feature", "properties": { "内容": "磐南中央病院指定通所リハビリテーション事業所【通所リハビリテーション】磐田市気子島９７８", "url": "https://www.kaigokensaku.mhlw.go.jp/22/index.php?action_kouhyou_detail_004_kani=true&JigyosyoCd=2216610408-00&ServiceCd=160&Type=search", "url2": "https://choumeikai.or.jp" }, "geometry": { "type": "Point", "coordinates": [ 137.83290420000003, 34.7079762 ] } },
{ "type": "Feature", "properties": { "内容": "医療法人社団　国府台整形外科　リハビリテーションセンター【通所リハビリテーション】静岡県磐田市国府台41-32", "url": "https://www.kaigokensaku.mhlw.go.jp/22/index.php?action_kouhyou_detail_004_kani=true&JigyosyoCd=2216710216-00&ServiceCd=160&Type=search", "url2": "www.konodai-op.com" }, "geometry": { "type": "Point", "coordinates": [ 137.850236, 34.7203122 ] } },
{ "type": "Feature", "properties": { "内容": "介護老人保健施設おおふじ五幸ホーム通所リハビリテーション【通所リハビリテーション】磐田市大久保508-3", "url": "https://www.kaigokensaku.mhlw.go.jp/22/index.php?action_kouhyou_detail_004_kani=true&JigyosyoCd=2256780012-00&ServiceCd=160&Type=search", "url2": "http://toyugokokai.com/" }, "geometry": { "type": "Point", "coordinates": [ 137.858175100000039, 34.7673528 ] } },
{ "type": "Feature", "properties": { "内容": "白梅豊岡病院【通所リハビリテーション】磐田市下神増185-19", "url": "https://www.kaigokensaku.mhlw.go.jp/22/index.php?action_kouhyou_detail_004_kani=true&JigyosyoCd=2216910014-00&ServiceCd=160&Type=search", "url2": "https://www.shiraume.or.jp/" }, "geometry": { "type": "Point", "coordinates": [ 137.837297499999977, 34.8071816 ] } },
{ "type": "Feature", "properties": { "内容": "五洋の里通所リハビリテーション【通所リハビリテーション】磐田市掛塚３１９０－１", "url": "https://www.kaigokensaku.mhlw.go.jp/22/index.php?action_kouhyou_detail_004_kani=true&JigyosyoCd=2256980026-00&ServiceCd=160&Type=search", "url2": "http://toyugokokai.com/" }, "geometry": { "type": "Point", "coordinates": [ 137.803002699999979, 34.665438700000017 ] } },
{ "type": "Feature", "properties": { "内容": "介護老人保健施設　白梅豊岡ケアホーム【通所リハビリテーション】磐田市下神増183番地1", "url": "https://www.kaigokensaku.mhlw.go.jp/22/index.php?action_kouhyou_detail_004_kani=true&JigyosyoCd=2256980018-00&ServiceCd=160&Type=search", "url2": "https://www.shiraume.or.jp" }, "geometry": { "type": "Point", "coordinates": [ 137.837355833729589, 34.807600047757681 ] } },
{ "type": "Feature", "properties": { "内容": "於保老健センター【通所リハビリテーション】磐田市一色26番地", "url": "https://www.kaigokensaku.mhlw.go.jp/22/index.php?action_kouhyou_detail_004_kani=true&JigyosyoCd=2256680022-00&ServiceCd=160&Type=search", "url2": "http://kinokinenkai.com" }, "geometry": { "type": "Point", "coordinates": [ 137.857159200000069, 34.6779922 ] } },
{ "type": "Feature", "properties": { "内容": "谷口整形通所リハセンター【通所リハビリテーション】静岡県焼津市小屋敷１９２", "url": "https://www.kaigokensaku.mhlw.go.jp/22/index.php?action_kouhyou_detail_004_kani=true&JigyosyoCd=2215101102-00&ServiceCd=160&Type=search", "url2": null }, "geometry": { "type": "Point", "coordinates": [ 138.289333199999987, 34.8612739 ] } },
{ "type": "Feature", "properties": { "内容": "志太記念脳神経外科通所リハビリテーション【通所リハビリテーション】静岡県焼津市小柳津371-1", "url": "https://www.kaigokensaku.mhlw.go.jp/22/index.php?action_kouhyou_detail_004_kani=true&JigyosyoCd=2215110525-00&ServiceCd=160&Type=search", "url2": "www.shida-clinic.com" }, "geometry": { "type": "Point", "coordinates": [ 138.283881, 34.8537749 ] } },
{ "type": "Feature", "properties": { "内容": "甲賀病院通所リハビリテーションセンター【通所リハビリテーション】静岡県焼津市大覚寺二丁目30番地-1", "url": "https://www.kaigokensaku.mhlw.go.jp/22/index.php?action_kouhyou_detail_004_kani=true&JigyosyoCd=2215110376-00&ServiceCd=160&Type=search", "url2": "http://www.sunkohkai.or.jp/" }, "geometry": { "type": "Point", "coordinates": [ 138.299739899999963, 34.8757442 ] } },
{ "type": "Feature", "properties": { "内容": "介護老人保健施設ケアセンターゆうゆう　通所リハビリテーション【通所リハビリテーション】焼津市田尻4", "url": "https://www.kaigokensaku.mhlw.go.jp/22/index.php?action_kouhyou_detail_004_kani=true&JigyosyoCd=2255180032-00&ServiceCd=160&Type=search", "url2": "http://yuuyuu-kaigo.con/" }, "geometry": { "type": "Point", "coordinates": [ 138.314938, 34.8302944 ] } },
{ "type": "Feature", "properties": { "内容": "焼津ケアセンター【通所リハビリテーション】焼津市中根新田１３１５", "url": "https://www.kaigokensaku.mhlw.go.jp/22/index.php?action_kouhyou_detail_004_kani=true&JigyosyoCd=2255180016-00&ServiceCd=160&Type=search", "url2": "http://www.yaizucare.or.jp/" }, "geometry": { "type": "Point", "coordinates": [ 138.286914300000035, 34.8291035 ] } },
{ "type": "Feature", "properties": { "内容": "コミュニティーケア大井川【通所リハビリテーション】静岡県焼津市相川577-1", "url": "https://www.kaigokensaku.mhlw.go.jp/22/index.php?action_kouhyou_detail_004_kani=true&JigyosyoCd=2255180057-00&ServiceCd=160&Type=search", "url2": null }, "geometry": { "type": "Point", "coordinates": [ 138.256771699999945, 34.804467 ] } },
{ "type": "Feature", "properties": { "内容": "コミュニティーケア高草　通所リハビリテーション【通所リハビリテーション】焼津市方ノ上358-1", "url": "https://www.kaigokensaku.mhlw.go.jp/22/index.php?action_kouhyou_detail_004_kani=true&JigyosyoCd=2255180024-00&ServiceCd=160&Type=search", "url2": "http://www.sunkohkai.or.jp/takakusa/" }, "geometry": { "type": "Point", "coordinates": [ 138.3053582, 34.8927314 ] } },
{ "type": "Feature", "properties": { "内容": "通所リハビリテーション　浜当目【通所リハビリテーション】静岡県焼津市浜当目4丁目12‐1", "url": "https://www.kaigokensaku.mhlw.go.jp/22/index.php?action_kouhyou_detail_004_kani=true&JigyosyoCd=2255180040-00&ServiceCd=160&Type=search", "url2": "http://seijukai-gp.jp/?page_id=4" }, "geometry": { "type": "Point", "coordinates": [ 138.334139599999986, 34.8813864 ] } },
{ "type": "Feature", "properties": { "内容": "岡本石井病院　通所リハビリテーションセンターMIRAI【通所リハビリテーション】静岡県焼津市小川新町5丁目2番3号", "url": "https://www.kaigokensaku.mhlw.go.jp/22/index.php?action_kouhyou_detail_004_kani=true&JigyosyoCd=2215110400-00&ServiceCd=160&Type=search", "url2": "http://www.seishinkai-med.or.jp/" }, "geometry": { "type": "Point", "coordinates": [ 138.31799, 34.8534664 ] } },
{ "type": "Feature", "properties": { "内容": "おおとみリウマチ整形外科【通所リハビリテーション】静岡県焼津市中新田1-1", "url": "https://www.kaigokensaku.mhlw.go.jp/22/index.php?action_kouhyou_detail_004_kani=true&JigyosyoCd=2215101375-00&ServiceCd=160&Type=search", "url2": "https://www.otomi.jp/" }, "geometry": { "type": "Point", "coordinates": [ 138.295149, 34.838941 ] } },
{ "type": "Feature", "properties": { "内容": "医療法人社団　綾和会　掛川北病院【通所リハビリテーション】掛川市下垂木３３５０番地", "url": "https://www.kaigokensaku.mhlw.go.jp/22/index.php?action_kouhyou_detail_004_kani=true&JigyosyoCd=2216210258-00&ServiceCd=160&Type=search", "url2": "http://www.ryouwa-kai.com/" }, "geometry": { "type": "Point", "coordinates": [ 137.996031600000038, 34.786898 ] } },
{ "type": "Feature", "properties": { "内容": "介護老人保健施設神子の園【通所リハビリテーション】掛川市逆川100", "url": "https://www.kaigokensaku.mhlw.go.jp/22/index.php?action_kouhyou_detail_004_kani=true&JigyosyoCd=2256280021-00&ServiceCd=160&Type=search", "url2": "http://www.mikosono.or.jp" }, "geometry": { "type": "Point", "coordinates": [ 138.040952899999979, 34.7804551 ] } },
{ "type": "Feature", "properties": { "内容": "えいせい掛川介護老人保健施設指定通所リハビリテーション【通所リハビリテーション】静岡県掛川市上西郷8021番地", "url": "https://www.kaigokensaku.mhlw.go.jp/22/index.php?action_kouhyou_detail_004_kani=true&JigyosyoCd=2257480018-00&ServiceCd=160&Type=search", "url2": "http://www.keiseikai.org/" }, "geometry": { "type": "Point", "coordinates": [ 138.020450699999969, 34.8181451 ] } },
{ "type": "Feature", "properties": { "内容": "介護老人保健施設あおばケアガーデン【通所リハビリテーション】掛川市大渕４３４５番地", "url": "https://www.kaigokensaku.mhlw.go.jp/22/index.php?action_kouhyou_detail_004_kani=true&JigyosyoCd=2256180023-00&ServiceCd=160&Type=search", "url2": "http://www.aoba-caregarden-mc.com/" }, "geometry": { "type": "Point", "coordinates": [ 138.01641840000002, 34.6694933 ] } },
{ "type": "Feature", "properties": { "内容": "介護老人保健施設　エバーグリーン掛川【通所リハビリテーション】掛川市大池６８０", "url": "https://www.kaigokensaku.mhlw.go.jp/22/index.php?action_kouhyou_detail_004_kani=true&JigyosyoCd=2256280013-00&ServiceCd=160&Type=search", "url2": "http://evergreenkakegawa.web.fc2.com/inside.html" }, "geometry": { "type": "Point", "coordinates": [ 137.987579899999986, 34.7752854 ] } },
{ "type": "Feature", "properties": { "内容": "介護老人保健施設　桔梗の丘【通所リハビリテーション】静岡県掛川市杉谷南1丁目1-1掛川東病院内", "url": "https://www.kaigokensaku.mhlw.go.jp/22/index.php?action_kouhyou_detail_004_kani=true&JigyosyoCd=2257480026-00&ServiceCd=160&Type=search", "url2": "http://www.kakegawa-higashi.com" }, "geometry": { "type": "Point", "coordinates": [ 138.027279499999963, 34.762029 ] } },
{ "type": "Feature", "properties": { "内容": "医療法人社団　順仁会きたはらクリニック通所リハセンターEIM【通所リハビリテーション】静岡県掛川市塩町5番８", "url": "https://www.kaigokensaku.mhlw.go.jp/22/index.php?action_kouhyou_detail_004_kani=true&JigyosyoCd=2216210092-00&ServiceCd=160&Type=search", "url2": "http://www.junjinkai.jp/eim/" }, "geometry": { "type": "Point", "coordinates": [ 138.01898, 34.7723747 ] } },
{ "type": "Feature", "properties": { "内容": "三輪医院リハビリセンター【通所リハビリテーション】岡部町内谷６０－２", "url": "https://www.kaigokensaku.mhlw.go.jp/22/index.php?action_kouhyou_detail_004_kani=true&JigyosyoCd=2215210010-00&ServiceCd=160&Type=search", "url2": "http://www.e-miwasan.com/" }, "geometry": { "type": "Point", "coordinates": [ 138.280774599999972, 34.9130978 ] } },
{ "type": "Feature", "properties": { "内容": "ユニケア岡部通所リハビリテーション事業所【通所リハビリテーション】藤枝市岡部町内谷１４７３－３", "url": "https://www.kaigokensaku.mhlw.go.jp/22/index.php?action_kouhyou_detail_004_kani=true&JigyosyoCd=2255280014-00&ServiceCd=160&Type=search", "url2": "https://www.e-miwasan.com/" }, "geometry": { "type": "Point", "coordinates": [ 138.288237799999933, 34.9069849 ] } },
{ "type": "Feature", "properties": { "内容": "藤枝平成記念病院　通所リハビリテーション【通所リハビリテーション】藤枝市水上123-1", "url": "https://www.kaigokensaku.mhlw.go.jp/22/index.php?action_kouhyou_detail_004_kani=true&JigyosyoCd=2215310224-00&ServiceCd=160&Type=search", "url2": "http:www.heiseihp.com" }, "geometry": { "type": "Point", "coordinates": [ 138.242904400000043, 34.8540598 ] } },
{ "type": "Feature", "properties": { "内容": "医療法人社団　平成会　介護老人保健施設　カリタス・メンテ【通所リハビリテーション】藤枝市水上123-1", "url": "https://www.kaigokensaku.mhlw.go.jp/22/index.php?action_kouhyou_detail_004_kani=true&JigyosyoCd=2255380012-00&ServiceCd=160&Type=search", "url2": "http://www.heiseihp.com" }, "geometry": { "type": "Point", "coordinates": [ 138.242904400000043, 34.8540598 ] } },
{ "type": "Feature", "properties": { "内容": "通所リハビリ　グリーンヒルズ藤枝【通所リハビリテーション】藤枝市宮原４２０－１", "url": "https://www.kaigokensaku.mhlw.go.jp/22/index.php?action_kouhyou_detail_004_kani=true&JigyosyoCd=2255380020-00&ServiceCd=160&Type=search", "url2": "https://g-hills．jp" }, "geometry": { "type": "Point", "coordinates": [ 138.2047576, 34.8970948 ] } },
{ "type": "Feature", "properties": { "内容": "デイケアセンター　フォレスタ藤枝【通所リハビリテーション】藤枝市小石川町２－８－１３", "url": "https://www.kaigokensaku.mhlw.go.jp/22/index.php?action_kouhyou_detail_004_kani=true&JigyosyoCd=2255380038-00&ServiceCd=160&Type=search", "url2": "http://www.forestafujieda.jp" }, "geometry": { "type": "Point", "coordinates": [ 138.256497699999954, 34.8567267 ] } },
{ "type": "Feature", "properties": { "内容": "通所リハビリ　ゆめ広場【通所リハビリテーション】静岡県藤枝市青葉町2丁目1-47", "url": "https://www.kaigokensaku.mhlw.go.jp/22/index.php?action_kouhyou_detail_004_kani=true&JigyosyoCd=2215310661-00&ServiceCd=160&Type=search", "url2": "https://nishikino.net/" }, "geometry": { "type": "Point", "coordinates": [ 138.246545200000014, 34.8456916 ] } },
{ "type": "Feature", "properties": { "内容": "通所リハビリテーション事業所　平成マインド【通所リハビリテーション】藤枝市瀬戸新屋487番地の2", "url": "https://www.kaigokensaku.mhlw.go.jp/22/index.php?action_kouhyou_detail_004_kani=true&JigyosyoCd=2255380046-00&ServiceCd=160&Type=search", "url2": "http://www.heiseihp.com/mind/" }, "geometry": { "type": "Point", "coordinates": [ 138.238882399999966, 34.857951 ] } },
{ "type": "Feature", "properties": { "内容": "お八幡医院デイケアセンター【通所リハビリテーション】静岡県御殿場市北久原617", "url": "https://www.kaigokensaku.mhlw.go.jp/22/index.php?action_kouhyou_detail_004_kani=true&JigyosyoCd=2211210451-00&ServiceCd=160&Type=search", "url2": null }, "geometry": { "type": "Point", "coordinates": [ 138.937933499999986, 35.3133422 ] } },
{ "type": "Feature", "properties": { "内容": "介護老人保健施設あすなろ　通所リハビリテーション【通所リハビリテーション】御殿場市川島田　1076-2", "url": "https://www.kaigokensaku.mhlw.go.jp/22/index.php?action_kouhyou_detail_004_kani=true&JigyosyoCd=2251280026-00&ServiceCd=160&Type=search", "url2": "http://www:toranomon.or.jp/" }, "geometry": { "type": "Point", "coordinates": [ 138.918605699999915, 35.295399300000014 ] } },
{ "type": "Feature", "properties": { "内容": "通所リハビリテーション　Kanon【通所リハビリテーション】静岡県御殿場市新橋１１７５番地の１", "url": "https://www.kaigokensaku.mhlw.go.jp/22/index.php?action_kouhyou_detail_004_kani=true&JigyosyoCd=2271200640-00&ServiceCd=160&Type=search", "url2": "https://roken-kanon.com/" }, "geometry": { "type": "Point", "coordinates": [ 138.936355718940717, 35.288648760991045 ] } },
{ "type": "Feature", "properties": { "内容": "御殿場石川リハビリセンター【通所リハビリテーション】静岡県御殿場市深沢1285-2", "url": "https://www.kaigokensaku.mhlw.go.jp/22/index.php?action_kouhyou_detail_004_kani=true&JigyosyoCd=2211210295-00&ServiceCd=160&Type=search", "url2": "https://www.gotemba-ishikawa-hp.org/" }, "geometry": { "type": "Point", "coordinates": [ 138.9594606, 35.3062067 ] } },
{ "type": "Feature", "properties": { "内容": "通所リハビリテーション　デイケア　オンフルール【通所リハビリテーション】袋井市高尾1439番地の3", "url": "https://www.kaigokensaku.mhlw.go.jp/22/index.php?action_kouhyou_detail_004_kani=true&JigyosyoCd=2257380010-00&ServiceCd=160&Type=search", "url2": "http://koshikai.or.jp/" }, "geometry": { "type": "Point", "coordinates": [ 137.929793, 34.7327728 ] } },
{ "type": "Feature", "properties": { "内容": "袋井ケアセンター【通所リハビリテーション】袋井市萱間933番地の1", "url": "https://www.kaigokensaku.mhlw.go.jp/22/index.php?action_kouhyou_detail_004_kani=true&JigyosyoCd=2256480019-00&ServiceCd=160&Type=search", "url2": null }, "geometry": { "type": "Point", "coordinates": [ 137.886962700000026, 34.8105882 ] } },
{ "type": "Feature", "properties": { "内容": "小早川デイリハビリセンター【通所リハビリテーション】静岡県袋井市久能1969", "url": "https://www.kaigokensaku.mhlw.go.jp/22/index.php?action_kouhyou_detail_004_kani=true&JigyosyoCd=2217310172-00&ServiceCd=160&Type=search", "url2": "www.kobayakawa.clinic" }, "geometry": { "type": "Point", "coordinates": [ 137.919347, 34.7674909 ] } },
{ "type": "Feature", "properties": { "内容": "介護老人保健施設　ふれあいの下田【通所リハビリテーション】下田市柿崎32-10", "url": "https://www.kaigokensaku.mhlw.go.jp/22/index.php?action_kouhyou_detail_004_kani=true&JigyosyoCd=2250280019-00&ServiceCd=160&Type=search", "url2": "http://www.fureai-g.or.jp/fshimoda/" }, "geometry": { "type": "Point", "coordinates": [ 138.963595, 34.6756482 ] } },
{ "type": "Feature", "properties": { "内容": "通所リハビリテーション上の山【通所リハビリテーション】静岡県下田市柿崎432-1", "url": "https://www.kaigokensaku.mhlw.go.jp/22/index.php?action_kouhyou_detail_004_kani=true&JigyosyoCd=2210210247-00&ServiceCd=160&Type=search", "url2": "https://kenshinkai.group/" }, "geometry": { "type": "Point", "coordinates": [ 138.965208800000028, 34.6769481 ] } },
{ "type": "Feature", "properties": { "内容": "通所リハビリテーションわか葉【通所リハビリテーション】裾野市御宿１４７５番地の１", "url": "https://www.kaigokensaku.mhlw.go.jp/22/index.php?action_kouhyou_detail_004_kani=true&JigyosyoCd=2251480022-00&ServiceCd=160&Type=search", "url2": "http://www.eikikai.or.jp/outline.html" }, "geometry": { "type": "Point", "coordinates": [ 138.9104638, 35.2135801 ] } },
{ "type": "Feature", "properties": { "内容": "介護老人保健施設　あいの郷【通所リハビリテーション】裾野市深良2929番地", "url": "https://www.kaigokensaku.mhlw.go.jp/22/index.php?action_kouhyou_detail_004_kani=true&JigyosyoCd=2251480014-00&ServiceCd=160&Type=search", "url2": "http://www.s-shinjinkai.or.jp" }, "geometry": { "type": "Point", "coordinates": [ 138.9243262, 35.208145 ] } },
{ "type": "Feature", "properties": { "内容": "浜名病院　通所リハビリテーションセンターこでまり【通所リハビリテーション】静岡県湖西市新所岡崎梅田入会地１５番地の７０", "url": "https://www.kaigokensaku.mhlw.go.jp/22/index.php?action_kouhyou_detail_004_kani=true&JigyosyoCd=2218410179-00&ServiceCd=160&Type=search", "url2": null }, "geometry": { "type": "Point", "coordinates": [ 137.49338835581969, 34.723932679285724 ] } },
{ "type": "Feature", "properties": { "内容": "医療法人宝美会介護老人保健施設まんさくの里通所リハビリテーション【通所リハビリテーション】静岡県湖西市岡崎1353-1", "url": "https://www.kaigokensaku.mhlw.go.jp/22/index.php?action_kouhyou_detail_004_kani=true&JigyosyoCd=2258480025-00&ServiceCd=160&Type=search", "url2": "http://mansakunosato.com" }, "geometry": { "type": "Point", "coordinates": [ 137.502575699999966, 34.7170524 ] } },
{ "type": "Feature", "properties": { "内容": "医療法人全心会　伊豆慶友病院　通所リハビリテーション【通所リハビリテーション】伊豆市月ヶ瀬380-2", "url": "https://www.kaigokensaku.mhlw.go.jp/22/index.php?action_kouhyou_detail_004_kani=true&JigyosyoCd=2210710048-00&ServiceCd=160&Type=search", "url2": "http://www.izukeiyu.or.jp/index.html" }, "geometry": { "type": "Point", "coordinates": [ 138.9250611, 34.9181147 ] } },
{ "type": "Feature", "properties": { "内容": "静岡厚生連中伊豆温泉病院通所リハビリテーション　リハッピー【通所リハビリテーション】伊豆市下白岩75番地", "url": "https://www.kaigokensaku.mhlw.go.jp/22/index.php?action_kouhyou_detail_004_kani=true&JigyosyoCd=2210310179-00&ServiceCd=160&Type=search", "url2": "http://k-nakaizu.jp/" }, "geometry": { "type": "Point", "coordinates": [ 138.971880408379462, 34.969384468343115 ] } },
{ "type": "Feature", "properties": { "内容": "医療法人社団同仁会　中島病院　通所リハビリテーション【通所リハビリテーション】伊豆市松ヶ瀬７５", "url": "https://www.kaigokensaku.mhlw.go.jp/22/index.php?action_kouhyou_detail_004_kani=true&JigyosyoCd=2210310476-00&ServiceCd=160&Type=search", "url2": "http://nakajimahospital.or.jp" }, "geometry": { "type": "Point", "coordinates": [ 138.930967, 34.9428325 ] } },
{ "type": "Feature", "properties": { "内容": "通所リハビリテーションはまおか【通所リハビリテーション】静岡県御前崎市池新田2070静岡県御前崎市総合保健福祉センター", "url": "https://www.kaigokensaku.mhlw.go.jp/22/index.php?action_kouhyou_detail_004_kani=true&JigyosyoCd=2256180015-00&ServiceCd=160&Type=search", "url2": "https://omaezaki-hospital.jp/carecenter/" }, "geometry": { "type": "Point", "coordinates": [ 138.1201691, 34.645441 ] } },
{ "type": "Feature", "properties": { "内容": "デイケアセンター　さわだの庄【通所リハビリテーション】菊川市西方５５１１番地", "url": "https://www.kaigokensaku.mhlw.go.jp/22/index.php?action_kouhyou_detail_004_kani=true&JigyosyoCd=2256880010-00&ServiceCd=160&Type=search", "url2": "http://www.seiwakai-sawada.or.jp" }, "geometry": { "type": "Point", "coordinates": [ 138.072150700000066, 34.773995 ] } },
{ "type": "Feature", "properties": { "内容": "医療法人　麗峰会　伊豆韮山温泉病院　通所リハビリテーション事業所【通所リハビリテーション】静岡県伊豆の国市中條234番地", "url": "https://www.kaigokensaku.mhlw.go.jp/22/index.php?action_kouhyou_detail_004_kani=true&JigyosyoCd=2210310112-00&ServiceCd=160&Type=search", "url2": "http:/www.izu-nirayama-hp.or.jp" }, "geometry": { "type": "Point", "coordinates": [ 138.940195, 35.042225600000037 ] } },
{ "type": "Feature", "properties": { "内容": "長岡リハビリテーション病院【通所リハビリテーション】伊豆の国市長岡９４６", "url": "https://www.kaigokensaku.mhlw.go.jp/22/index.php?action_kouhyou_detail_004_kani=true&JigyosyoCd=2210310393-00&ServiceCd=160&Type=search", "url2": "http://www.naga-reha.or.jp/" }, "geometry": { "type": "Point", "coordinates": [ 138.930715, 35.037126 ] } },
{ "type": "Feature", "properties": { "内容": "介護老人保健施設あじさい【通所リハビリテーション】静岡県牧之原市細江3208番地1", "url": "https://www.kaigokensaku.mhlw.go.jp/22/index.php?action_kouhyou_detail_004_kani=true&JigyosyoCd=2255880029-00&ServiceCd=160&Type=search", "url2": "http://www.roken-ajisai.com/" }, "geometry": { "type": "Point", "coordinates": [ 138.240013, 34.7592302 ] } },
{ "type": "Feature", "properties": { "内容": "通所リハビリテーション　はるかぜ【通所リハビリテーション】静岡県牧之原市菅ヶ谷１２４０－１", "url": "https://www.kaigokensaku.mhlw.go.jp/22/index.php?action_kouhyou_detail_004_kani=true&JigyosyoCd=2255580025-00&ServiceCd=160&Type=search", "url2": null }, "geometry": { "type": "Point", "coordinates": [ 138.175411100000019, 34.6967374 ] } },
{ "type": "Feature", "properties": { "内容": "康心会伊豆東部病院通所リハビリテーション事業所【通所リハビリテーション】賀茂郡東伊豆町稲取17-2", "url": "https://www.kaigokensaku.mhlw.go.jp/22/index.php?action_kouhyou_detail_004_kani=true&JigyosyoCd=2210110306-00&ServiceCd=160&Type=search", "url2": "http://www.fureai-g.or.jp/izu-toubu/" }, "geometry": { "type": "Point", "coordinates": [ 139.043785500000013, 34.77901 ] } },
{ "type": "Feature", "properties": { "内容": "介護老人保健施設　河津おもと苑【通所リハビリテーション】静岡県賀茂郡河津町川津筏場1512-18", "url": "https://www.kaigokensaku.mhlw.go.jp/22/index.php?action_kouhyou_detail_004_kani=true&JigyosyoCd=2250180078-00&ServiceCd=160&Type=search", "url2": "http://www.kawazuhama-omoto.sakura.ne.jp/kaigo.html" }, "geometry": { "type": "Point", "coordinates": [ 138.974055, 34.7867568 ] } },
{ "type": "Feature", "properties": { "内容": "介護老人保健施設なぎさ園【通所リハビリテーション】静岡県賀茂郡南伊豆町湊674", "url": "https://www.kaigokensaku.mhlw.go.jp/22/index.php?action_kouhyou_detail_004_kani=true&JigyosyoCd=2270100668-00&ServiceCd=160&Type=search", "url2": "http://www.s-m-a.or.jp/nagisa/" }, "geometry": { "type": "Point", "coordinates": [ 138.893621797839046, 34.6369049502959 ] } },
{ "type": "Feature", "properties": { "内容": "介護老人保健施設　しおさい【通所リハビリテーション】賀茂郡西伊豆町仁科243－1", "url": "https://www.kaigokensaku.mhlw.go.jp/22/index.php?action_kouhyou_detail_004_kani=true&JigyosyoCd=2250180029-00&ServiceCd=160&Type=search", "url2": "http://www.kmcb.or.jp/index2.html" }, "geometry": { "type": "Point", "coordinates": [ 138.777589499999976, 34.7696707 ] } },
{ "type": "Feature", "properties": { "内容": "薬袋内科クリニック　通所リハビリテーションセンターエム【通所リハビリテーション】徳倉1004", "url": "https://www.kaigokensaku.mhlw.go.jp/22/index.php?action_kouhyou_detail_004_kani=true&JigyosyoCd=2211310277-00&ServiceCd=160&Type=search", "url2": "http://website2.infomity.net/8122334/rehabilitation/" }, "geometry": { "type": "Point", "coordinates": [ 138.899359600000025, 35.0842002 ] } },
{ "type": "Feature", "properties": { "内容": "夢の樹の郷　通所リハビリテーション【通所リハビリテーション】駿東郡清水町玉川183-1", "url": "https://www.kaigokensaku.mhlw.go.jp/22/index.php?action_kouhyou_detail_004_kani=true&JigyosyoCd=2251380024-00&ServiceCd=160&Type=search", "url2": "https://www.keiju-kai.or.jp/yumenoki/" }, "geometry": { "type": "Point", "coordinates": [ 138.907933400000047, 35.106012 ] } },
{ "type": "Feature", "properties": { "内容": "通所リハビリテーション　せいせん【通所リハビリテーション】静岡県駿東郡清水町柿田191-1", "url": "https://www.kaigokensaku.mhlw.go.jp/22/index.php?action_kouhyou_detail_004_kani=true&JigyosyoCd=2211310293-00&ServiceCd=160&Type=search", "url2": "https://seisen.info/shizuoka/daycare/" }, "geometry": { "type": "Point", "coordinates": [ 138.897953899999948, 35.1005708 ] } },
{ "type": "Feature", "properties": { "内容": "介護老人保健施設　長泉ケアセンター博寿園【通所リハビリテーション】静岡県駿東郡長泉町本宿418番地の1", "url": "https://www.kaigokensaku.mhlw.go.jp/22/index.php?action_kouhyou_detail_004_kani=true&JigyosyoCd=2251380016-00&ServiceCd=160&Type=search", "url2": "http://www.ikeda-hp-g.or.jp" }, "geometry": { "type": "Point", "coordinates": [ 138.890045699999973, 35.1208634 ] } },
{ "type": "Feature", "properties": { "内容": "通所リハビリテーション花リハ【通所リハビリテーション】静岡県駿東郡長泉町下土狩1373-9", "url": "https://www.kaigokensaku.mhlw.go.jp/22/index.php?action_kouhyou_detail_004_kani=true&JigyosyoCd=2211310384-00&ServiceCd=160&Type=search", "url2": "https://website2.infomity.net/" }, "geometry": { "type": "Point", "coordinates": [ 138.8983978, 35.1297026 ] } },
{ "type": "Feature", "properties": { "内容": "介護老人保健施設　おやまの杜【通所リハビリテーション】静岡県駿東郡小山町菅沼1839-3", "url": "https://www.kaigokensaku.mhlw.go.jp/22/index.php?action_kouhyou_detail_004_kani=true&JigyosyoCd=2251380032-00&ServiceCd=160&Type=search", "url2": "http://seijukai-gp.jp/?page_id=66" }, "geometry": { "type": "Point", "coordinates": [ 138.9496699, 35.3486915 ] } },
{ "type": "Feature", "properties": { "内容": "介護老人保健施設　菜の花の丘　通所リハビリテーション【通所リハビリテーション】竹之下321", "url": "https://www.kaigokensaku.mhlw.go.jp/22/index.php?action_kouhyou_detail_004_kani=true&JigyosyoCd=2251380040-00&ServiceCd=160&Type=search", "url2": "http://www.toranomon.or.jp" }, "geometry": { "type": "Point", "coordinates": [ 138.975403899999947, 35.3315163 ] } },
{ "type": "Feature", "properties": { "内容": "コミュニティーケア吉田指定通所リハビリテーション【通所リハビリテーション】榛原郡吉田町川尻1700-1", "url": "https://www.kaigokensaku.mhlw.go.jp/22/index.php?action_kouhyou_detail_004_kani=true&JigyosyoCd=2255580033-00&ServiceCd=160&Type=search", "url2": null }, "geometry": { "type": "Point", "coordinates": [ 138.272391299999981, 34.7691842 ] } },
{ "type": "Feature", "properties": { "内容": "公立森町病院【通所リハビリテーション】静岡県周智郡草ケ谷391-1", "url": "https://www.kaigokensaku.mhlw.go.jp/22/index.php?action_kouhyou_detail_004_kani=true&JigyosyoCd=2216310082-00&ServiceCd=160&Type=search", "url2": "https://hospital.town.morimachi.shizuoka.jp/" }, "geometry": { "type": "Point", "coordinates": [ 137.9180331, 34.8247918 ] } },
{ "type": "Feature", "properties": { "内容": "介護老人保健施設　風の杜【通所リハビリテーション】静岡県周智郡森町草ケ谷104-1", "url": "https://www.kaigokensaku.mhlw.go.jp/22/index.php?action_kouhyou_detail_004_kani=true&JigyosyoCd=2256380029-00&ServiceCd=160&Type=search", "url2": "http://www.ryokufu.jp/" }, "geometry": { "type": "Point", "coordinates": [ 137.9163328, 34.8264908 ] } }
]
}
